{"type":"FeatureCollection","features":[{"type":"Feature","geometry":{"type":"Polygon","coordinates":[[[88.2777,27.5101],[88.2725,27.5153],[88.2689,27.5175],[88.2635,27.5192],[88.2581,27.5201],[88.252,27.5197],[88.248,27.5187],[88.2395,27.5152],[88.2352,27.5155],[88.2275,27.5195],[88.2235,27.5227],[88.2207,27.5278],[88.2196,27.5371],[88.2197,27.5551],[88.2174,27.5671],[88.2154,27.5796],[88.212,27.5858],[88.2096,27.5879],[88.2009,27.5932],[88.1936,27.5995],[88.1908,27.6028],[88.1873,27.6055],[88.1801,27.6094],[88.1722,27.6102],[88.1672,27.6096],[88.1594,27.6043],[88.15,27.5955],[88.1385,27.5891],[88.1322,27.5873],[88.1274,27.5887],[88.1249,27.5923],[88.123,27.5974],[88.1207,27.6009],[88.1127,27.6089],[88.1087,27.606],[88.1064,27.6027],[88.0962,27.5987],[88.0933,27.598],[88.0902,27.5955],[88.0842,27.5881],[88.0791,27.5791],[88.0806,27.5775],[88.0772,27.5748],[88.0755,27.5718],[88.0792,27.5684],[88.0811,27.5653],[88.0786,27.5604],[88.0743,27.5571],[88.0696,27.5555],[88.0683,27.5522],[88.0687,27.546],[88.0646,27.5438],[88.0643,27.542],[88.0613,27.5404],[88.0586,27.5341],[88.0595,27.5319],[88.0621,27.5299],[88.0656,27.5294],[88.0663,27.5271],[88.0613,27.5251],[88.0592,27.5206],[88.0581,27.5157],[88.0615,27.5131],[88.0606,27.5108],[88.0579,27.5092],[88.0575,27.5071],[88.055,27.5044],[88.0506,27.5039],[88.0466,27.5009],[88.0441,27.4956],[88.0451,27.4935],[88.0441,27.4894],[88.0442,27.4842],[88.0455,27.481],[88.0441,27.4783],[88.0484,27.4726],[88.0516,27.4714],[88.054,27.4686],[88.0571,27.4669],[88.0605,27.4608],[88.0669,27.4579],[88.0664,27.4552],[88.0644,27.4537],[88.067,27.4515],[88.0672,27.4495],[88.0724,27.4458],[88.0679,27.4382],[88.0733,27.4338],[88.0734,27.4278],[88.0666,27.4246],[88.0608,27.4212],[88.0582,27.4184],[88.0556,27.4183],[88.0507,27.413],[88.0496,27.4072],[88.0474,27.4052],[88.0483,27.4006],[88.0458,27.3958],[88.0451,27.3883],[88.0441,27.3848],[88.0449,27.3801],[88.0416,27.3729],[88.0418,27.3703],[88.0473,27.3634],[88.0472,27.3623],[88.0507,27.3584],[88.0533,27.3584],[88.0576,27.3562],[88.059,27.3514],[88.0615,27.3473],[88.061,27.3456],[88.0669,27.3358],[88.0641,27.3348],[88.0601,27.3301],[88.0597,27.3283],[88.0539,27.3254],[88.0494,27.3183],[88.0498,27.3153],[88.0488,27.3128],[88.0449,27.3096],[88.0415,27.3039],[88.0412,27.302],[88.044,27.296],[88.0446,27.2932],[88.0431,27.2915],[88.0387,27.292],[88.0368,27.2897],[88.032,27.2864],[88.0328,27.2807],[88.0304,27.2719],[88.0316,27.2692],[88.0319,27.2648],[88.0308,27.2636],[88.031,27.2581],[88.0303,27.2553],[88.0309,27.2499],[88.0338,27.2491],[88.044,27.2517],[88.0494,27.2469],[88.0516,27.2463],[88.0564,27.2468],[88.059,27.2482],[88.0605,27.2468],[88.0682,27.2471],[88.0738,27.2447],[88.0768,27.2456],[88.0804,27.25],[88.0901,27.2548],[88.0964,27.2529],[88.1042,27.254],[88.1109,27.251],[88.1137,27.2485],[88.115,27.2455],[88.1175,27.2431],[88.1217,27.2445],[88.1265,27.2441],[88.1278,27.239],[88.1305,27.2368],[88.1363,27.2372],[88.1433,27.2442],[88.1498,27.2486],[88.1515,27.2475],[88.1566,27.2483],[88.1628,27.2474],[88.1674,27.241],[88.1738,27.2406],[88.1796,27.2395],[88.1886,27.2409],[88.1939,27.2437],[88.2032,27.2446],[88.2128,27.2431],[88.2113,27.246],[88.207,27.2468],[88.2086,27.2494],[88.2125,27.2509],[88.216,27.2505],[88.2197,27.2451],[88.2255,27.2431],[88.2292,27.2424],[88.2321,27.2439],[88.2436,27.245],[88.2494,27.2478],[88.2513,27.2504],[88.2538,27.251],[88.2549,27.2484],[88.2584,27.2452],[88.2607,27.2488],[88.2734,27.2462],[88.2757,27.2483],[88.2786,27.2462],[88.2833,27.2449],[88.2905,27.242],[88.2981,27.2406],[88.3032,27.237],[88.3055,27.2461],[88.3056,27.2565],[88.304,27.2609],[88.2966,27.2663],[88.2894,27.2732],[88.284,27.2756],[88.2784,27.2816],[88.2791,27.2863],[88.2803,27.2882],[88.2906,27.2949],[88.2959,27.2971],[88.3065,27.2995],[88.3094,27.3027],[88.311,27.3057],[88.3107,27.3157],[88.3087,27.3187],[88.3052,27.3213],[88.3001,27.3233],[88.2968,27.3267],[88.2981,27.3309],[88.3004,27.3341],[88.3049,27.3376],[88.3196,27.3459],[88.3227,27.3493],[88.3279,27.3649],[88.3306,27.3687],[88.3392,27.3721],[88.3493,27.374],[88.3583,27.3783],[88.3574,27.3843],[88.3583,27.3899],[88.3576,27.3993],[88.355,27.4029],[88.3507,27.412],[88.348,27.4141],[88.343,27.4111],[88.339,27.4062],[88.3338,27.4105],[88.3315,27.4171],[88.3256,27.4175],[88.3164,27.4153],[88.3057,27.4168],[88.3009,27.4148],[88.2999,27.4202],[88.2979,27.4242],[88.2996,27.4271],[88.2971,27.4306],[88.2992,27.4356],[88.2978,27.44],[88.3,27.4427],[88.3006,27.4482],[88.299,27.452],[88.2982,27.4566],[88.299,27.4591],[88.2981,27.4653],[88.298,27.4708],[88.2989,27.4726],[88.2994,27.4824],[88.2975,27.4852],[88.2944,27.4873],[88.2932,27.491],[88.2878,27.4969],[88.2837,27.4997],[88.282,27.504],[88.2777,27.5101]]]},"properties":{"id":"in:subdistrict:1549","level":"subdistrict","name":"Gyalshing","code":1549,"parent":"in:district:228","state":"in:state:11"}},{"type":"Feature","geometry":{"type":"Polygon","coordinates":[[[88.0309,27.2499],[88.0278,27.2495],[88.0268,27.246],[88.0243,27.2421],[88.0246,27.2376],[88.0216,27.2375],[88.0194,27.2359],[88.0197,27.2317],[88.0187,27.2263],[88.0145,27.2211],[88.0124,27.2161],[88.0143,27.2129],[88.0166,27.215],[88.0221,27.2169],[88.0239,27.2194],[88.0272,27.2208],[88.0293,27.2201],[88.0327,27.2211],[88.0378,27.2205],[88.0395,27.2193],[88.0431,27.2195],[88.0484,27.2169],[88.0528,27.2134],[88.0636,27.2146],[88.0649,27.2136],[88.0655,27.2092],[88.0712,27.2046],[88.0756,27.2031],[88.0792,27.2011],[88.0778,27.1966],[88.0743,27.1928],[88.0727,27.1878],[88.0753,27.1839],[88.0785,27.1804],[88.0798,27.1744],[88.0776,27.1733],[88.0828,27.1675],[88.0871,27.1642],[88.0868,27.1596],[88.0881,27.1548],[88.0874,27.151],[88.0878,27.1462],[88.0888,27.1433],[88.0949,27.1362],[88.0963,27.1331],[88.1013,27.1327],[88.1053,27.1311],[88.1083,27.1318],[88.1121,27.1309],[88.1141,27.1281],[88.1198,27.1248],[88.1224,27.1216],[88.1272,27.1207],[88.1305,27.1216],[88.1352,27.1206],[88.1361,27.1149],[88.1389,27.1139],[88.1437,27.1157],[88.1443,27.1123],[88.1506,27.1131],[88.1518,27.1096],[88.1563,27.11],[88.159,27.1135],[88.1621,27.1134],[88.1645,27.1184],[88.1673,27.1224],[88.1708,27.1229],[88.172,27.1269],[88.1762,27.1299],[88.1797,27.1301],[88.181,27.1325],[88.1847,27.1309],[88.1898,27.1333],[88.192,27.1325],[88.1946,27.1348],[88.1992,27.1333],[88.2019,27.1314],[88.2043,27.1334],[88.2124,27.1301],[88.2138,27.132],[88.2162,27.1314],[88.2194,27.1285],[88.2193,27.1256],[88.23,27.119],[88.2377,27.1191],[88.2428,27.1198],[88.2486,27.1244],[88.256,27.1245],[88.2591,27.1253],[88.2628,27.1278],[88.2657,27.1277],[88.2684,27.1295],[88.2725,27.1281],[88.2738,27.1304],[88.279,27.1319],[88.2832,27.1282],[88.2829,27.1308],[88.2801,27.1425],[88.2815,27.1445],[88.2822,27.1488],[88.287,27.1511],[88.2904,27.1542],[88.2941,27.1633],[88.2964,27.1643],[88.3,27.169],[88.3008,27.1737],[88.3044,27.1764],[88.3095,27.1781],[88.3121,27.1817],[88.3196,27.1856],[88.3286,27.1876],[88.3306,27.1888],[88.3289,27.1919],[88.3313,27.193],[88.3344,27.1945],[88.3317,27.1987],[88.3318,27.2013],[88.329,27.2045],[88.323,27.2205],[88.3199,27.2232],[88.3104,27.2248],[88.3077,27.2261],[88.3032,27.237],[88.2981,27.2406],[88.2905,27.242],[88.2833,27.2449],[88.2786,27.2462],[88.2757,27.2483],[88.2734,27.2462],[88.2607,27.2488],[88.2584,27.2452],[88.2549,27.2484],[88.2538,27.251],[88.2513,27.2504],[88.2494,27.2478],[88.2436,27.245],[88.2321,27.2439],[88.2292,27.2424],[88.2255,27.2431],[88.2197,27.2451],[88.216,27.2505],[88.2125,27.2509],[88.2086,27.2494],[88.207,27.2468],[88.2113,27.246],[88.2128,27.2431],[88.2032,27.2446],[88.1939,27.2437],[88.1886,27.2409],[88.1796,27.2395],[88.1738,27.2406],[88.1674,27.241],[88.1628,27.2474],[88.1566,27.2483],[88.1515,27.2475],[88.1498,27.2486],[88.1433,27.2442],[88.1363,27.2372],[88.1305,27.2368],[88.1278,27.239],[88.1265,27.2441],[88.1217,27.2445],[88.1175,27.2431],[88.115,27.2455],[88.1137,27.2485],[88.1109,27.251],[88.1042,27.254],[88.0964,27.2529],[88.0901,27.2548],[88.0804,27.25],[88.0768,27.2456],[88.0738,27.2447],[88.0682,27.2471],[88.0605,27.2468],[88.059,27.2482],[88.0564,27.2468],[88.0516,27.2463],[88.0494,27.2469],[88.044,27.2517],[88.0338,27.2491],[88.0309,27.2499]]]},"properties":{"id":"in:subdistrict:1550","level":"subdistrict","name":"Soreng","code":1550,"parent":"in:district:742","state":"in:state:11"}},{"type":"Feature","geometry":{"type":"Polygon","coordinates":[[[88.9151,27.3142],[88.9041,27.315],[88.8947,27.3137],[88.8903,27.3136],[88.8769,27.3144],[88.8691,27.3127],[88.8665,27.3117],[88.8529,27.3088],[88.8449,27.3085],[88.8288,27.3114],[88.8245,27.31],[88.8173,27.3063],[88.812,27.3045],[88.8023,27.3022],[88.7929,27.301],[88.7851,27.2985],[88.7727,27.2955],[88.7626,27.2952],[88.7573,27.2965],[88.7476,27.2967],[88.7442,27.2986],[88.7407,27.2979],[88.7385,27.299],[88.7363,27.2935],[88.7308,27.29],[88.727,27.2868],[88.7231,27.285],[88.7225,27.2819],[88.718,27.2823],[88.7155,27.2791],[88.7163,27.2755],[88.7153,27.2728],[88.7113,27.269],[88.7126,27.2654],[88.7123,27.2627],[88.7096,27.2617],[88.7083,27.2588],[88.7086,27.2561],[88.7111,27.2512],[88.7112,27.2445],[88.7039,27.2456],[88.7003,27.2433],[88.6967,27.2432],[88.6933,27.2399],[88.6907,27.2337],[88.6877,27.2309],[88.6861,27.2311],[88.6842,27.228],[88.6849,27.2221],[88.6785,27.2182],[88.6736,27.218],[88.6623,27.2246],[88.6592,27.2249],[88.6623,27.2304],[88.6614,27.2339],[88.6574,27.2354],[88.6539,27.2356],[88.6525,27.2318],[88.6504,27.2305],[88.6449,27.2292],[88.643,27.2277],[88.6409,27.2234],[88.6387,27.2222],[88.6354,27.2127],[88.6354,27.2092],[88.6389,27.2078],[88.6376,27.2051],[88.6374,27.2007],[88.6339,27.1965],[88.6291,27.1975],[88.6305,27.2],[88.6285,27.2037],[88.6192,27.2078],[88.6171,27.2135],[88.6148,27.2149],[88.6147,27.218],[88.6176,27.2183],[88.6198,27.2157],[88.6219,27.2184],[88.621,27.2204],[88.6244,27.2276],[88.6282,27.2296],[88.6263,27.2311],[88.6263,27.2334],[88.6242,27.2359],[88.6255,27.2394],[88.6271,27.2404],[88.6272,27.2452],[88.6248,27.247],[88.6166,27.2467],[88.6127,27.2426],[88.6137,27.2396],[88.6094,27.2356],[88.6087,27.2334],[88.605,27.2295],[88.605,27.2269],[88.6087,27.2257],[88.6084,27.2216],[88.6098,27.2151],[88.6126,27.2086],[88.6126,27.2031],[88.6175,27.2027],[88.6162,27.1995],[88.6171,27.1952],[88.6116,27.1935],[88.608,27.1953],[88.606,27.1949],[88.6041,27.1918],[88.5996,27.1917],[88.5971,27.1893],[88.5997,27.1885],[88.6011,27.1859],[88.6034,27.1863],[88.6128,27.1819],[88.6154,27.1818],[88.6184,27.1833],[88.6223,27.1825],[88.623,27.1793],[88.626,27.1804],[88.6267,27.1776],[88.631,27.1743],[88.6336,27.1732],[88.635,27.1705],[88.6355,27.1667],[88.6398,27.1648],[88.6468,27.1662],[88.6518,27.1646],[88.6525,27.1626],[88.6592,27.1614],[88.6628,27.1617],[88.6648,27.1655],[88.671,27.173],[88.6774,27.178],[88.6803,27.1794],[88.6851,27.1799],[88.6915,27.1784],[88.6979,27.1751],[88.7017,27.1739],[88.7054,27.1689],[88.7101,27.1668],[88.7125,27.1625],[88.716,27.16],[88.7171,27.156],[88.717,27.1515],[88.7178,27.1433],[88.722,27.1418],[88.7239,27.1385],[88.729,27.1363],[88.7386,27.1354],[88.7441,27.1405],[88.7462,27.1442],[88.7493,27.1474],[88.7569,27.1482],[88.7604,27.1529],[88.7595,27.1561],[88.7572,27.1587],[88.7581,27.1612],[88.7572,27.1654],[88.7624,27.1726],[88.7646,27.177],[88.7687,27.1801],[88.7734,27.1822],[88.7789,27.1835],[88.7839,27.1819],[88.7868,27.182],[88.7882,27.1846],[88.7892,27.1891],[88.789,27.1937],[88.7965,27.2058],[88.7988,27.2076],[88.8014,27.2161],[88.8033,27.22],[88.802,27.2278],[88.8026,27.2323],[88.8042,27.2363],[88.8031,27.2478],[88.8106,27.2508],[88.8231,27.2552],[88.8282,27.2572],[88.8314,27.2622],[88.8575,27.2644],[88.8666,27.2646],[88.8791,27.2611],[88.8817,27.265],[88.8877,27.2685],[88.8924,27.2689],[88.8977,27.2702],[88.8997,27.2742],[88.9033,27.2726],[88.9069,27.2758],[88.9083,27.2781],[88.9084,27.2821],[88.9136,27.2901],[88.9116,27.2958],[88.9094,27.2992],[88.9088,27.304],[88.9137,27.3099],[88.9151,27.3142]]]},"properties":{"id":"in:subdistrict:1555","level":"subdistrict","name":"Rongli","code":1555,"parent":"in:district:741","state":"in:state:11"}},{"type":"Feature","geometry":{"type":"Polygon","coordinates":[[[88.3032,27.237],[88.3077,27.2261],[88.3104,27.2248],[88.3199,27.2232],[88.323,27.2205],[88.329,27.2045],[88.3318,27.2013],[88.3317,27.1987],[88.3344,27.1945],[88.3313,27.193],[88.333,27.1926],[88.3388,27.1934],[88.3468,27.2],[88.352,27.2053],[88.3551,27.2094],[88.3588,27.2112],[88.3628,27.2151],[88.3661,27.2166],[88.3664,27.2204],[88.3693,27.2245],[88.3682,27.2297],[88.3693,27.2315],[88.3741,27.2361],[88.3732,27.2402],[88.3791,27.241],[88.3799,27.2434],[88.3822,27.2448],[88.3861,27.2505],[88.3854,27.2544],[88.3861,27.2572],[88.3813,27.256],[88.3819,27.2598],[88.3788,27.2636],[88.3785,27.2671],[88.3868,27.268],[88.393,27.2702],[88.3984,27.2707],[88.4013,27.273],[88.4034,27.2711],[88.4059,27.2715],[88.4124,27.2708],[88.4196,27.2707],[88.4205,27.2688],[88.4256,27.2689],[88.4306,27.2711],[88.4341,27.2708],[88.4415,27.2739],[88.4425,27.2812],[88.4482,27.296],[88.4469,27.3009],[88.4518,27.3059],[88.4544,27.3153],[88.4617,27.3176],[88.467,27.3219],[88.4739,27.3238],[88.4827,27.3288],[88.4862,27.3336],[88.4882,27.3425],[88.4817,27.3526],[88.4803,27.3604],[88.481,27.3663],[88.486,27.3783],[88.4785,27.381],[88.4704,27.3855],[88.4639,27.3875],[88.4537,27.3885],[88.4435,27.3935],[88.4366,27.3999],[88.4326,27.4044],[88.4267,27.4132],[88.4195,27.4186],[88.4167,27.4235],[88.4145,27.4298],[88.4142,27.4393],[88.416,27.4465],[88.4088,27.4584],[88.4071,27.4633],[88.4073,27.4702],[88.4056,27.4757],[88.3987,27.479],[88.3756,27.4975],[88.3647,27.5103],[88.3612,27.5172],[88.3557,27.5213],[88.3426,27.5263],[88.3352,27.5276],[88.3288,27.528],[88.3192,27.5271],[88.291,27.5188],[88.2777,27.5101],[88.282,27.504],[88.2837,27.4997],[88.2878,27.4969],[88.2932,27.491],[88.2944,27.4873],[88.2975,27.4852],[88.2994,27.4824],[88.2989,27.4726],[88.298,27.4708],[88.2981,27.4653],[88.299,27.4591],[88.2982,27.4566],[88.299,27.452],[88.3006,27.4482],[88.3,27.4427],[88.2978,27.44],[88.2992,27.4356],[88.2971,27.4306],[88.2996,27.4271],[88.2979,27.4242],[88.2999,27.4202],[88.3009,27.4148],[88.3057,27.4168],[88.3164,27.4153],[88.3256,27.4175],[88.3315,27.4171],[88.3338,27.4105],[88.339,27.4062],[88.343,27.4111],[88.348,27.4141],[88.3507,27.412],[88.355,27.4029],[88.3576,27.3993],[88.3583,27.3899],[88.3574,27.3843],[88.3583,27.3783],[88.3493,27.374],[88.3392,27.3721],[88.3306,27.3687],[88.3279,27.3649],[88.3227,27.3493],[88.3196,27.3459],[88.3049,27.3376],[88.3004,27.3341],[88.2981,27.3309],[88.2968,27.3267],[88.3001,27.3233],[88.3052,27.3213],[88.3087,27.3187],[88.3107,27.3157],[88.311,27.3057],[88.3094,27.3027],[88.3065,27.2995],[88.2959,27.2971],[88.2906,27.2949],[88.2803,27.2882],[88.2791,27.2863],[88.2784,27.2816],[88.284,27.2756],[88.2894,27.2732],[88.2966,27.2663],[88.304,27.2609],[88.3056,27.2565],[88.3055,27.2461],[88.3032,27.237]]]},"properties":{"id":"in:subdistrict:1552","level":"subdistrict","name":"Ravong","code":1552,"parent":"in:district:227","state":"in:state:11"}},{"type":"Feature","geometry":{"type":"Polygon","coordinates":[[[88.2832,27.1282],[88.2861,27.1266],[88.2897,27.1278],[88.2926,27.1275],[88.2972,27.1252],[88.2992,27.1283],[88.3023,27.1293],[88.3063,27.1279],[88.3115,27.125],[88.3159,27.1256],[88.3164,27.1218],[88.3229,27.1176],[88.3225,27.1132],[88.3234,27.109],[88.3211,27.1069],[88.3227,27.1046],[88.3249,27.1064],[88.3294,27.1078],[88.3354,27.1068],[88.3383,27.11],[88.3414,27.1101],[88.3457,27.1069],[88.349,27.1003],[88.3504,27.0995],[88.356,27.101],[88.3576,27.0966],[88.3612,27.0957],[88.3669,27.0961],[88.3704,27.0973],[88.3756,27.0974],[88.3925,27.0936],[88.3974,27.0909],[88.4013,27.0899],[88.4076,27.0897],[88.4137,27.088],[88.4216,27.0834],[88.4258,27.0815],[88.4309,27.0805],[88.4329,27.0793],[88.4386,27.0822],[88.4505,27.0839],[88.4545,27.0879],[88.4605,27.0915],[88.462,27.0984],[88.4664,27.1027],[88.4674,27.1124],[88.4688,27.1153],[88.4754,27.1217],[88.4778,27.1228],[88.4845,27.1208],[88.4875,27.1259],[88.49,27.1258],[88.4958,27.1235],[88.499,27.1255],[88.4989,27.1296],[88.4999,27.1312],[88.5067,27.137],[88.5108,27.137],[88.5132,27.1408],[88.5169,27.1424],[88.518,27.1459],[88.521,27.1487],[88.528,27.149],[88.532,27.1498],[88.5335,27.1546],[88.5319,27.1561],[88.5285,27.1567],[88.5277,27.1585],[88.5316,27.1642],[88.5276,27.1665],[88.5208,27.1729],[88.5226,27.1739],[88.5264,27.1738],[88.5251,27.175],[88.5254,27.1782],[88.5037,27.1851],[88.4968,27.1933],[88.491,27.2023],[88.4922,27.2185],[88.4945,27.2305],[88.4907,27.2395],[88.4808,27.2467],[88.4753,27.2474],[88.4646,27.2505],[88.4589,27.2559],[88.4469,27.2612],[88.4434,27.2665],[88.4415,27.2739],[88.4341,27.2708],[88.4306,27.2711],[88.4256,27.2689],[88.4205,27.2688],[88.4196,27.2707],[88.4124,27.2708],[88.4059,27.2715],[88.4034,27.2711],[88.4013,27.273],[88.3984,27.2707],[88.393,27.2702],[88.3868,27.268],[88.3785,27.2671],[88.3788,27.2636],[88.3819,27.2598],[88.3813,27.256],[88.3861,27.2572],[88.3854,27.2544],[88.3861,27.2505],[88.3822,27.2448],[88.3799,27.2434],[88.3791,27.241],[88.3732,27.2402],[88.3741,27.2361],[88.3693,27.2315],[88.3682,27.2297],[88.3693,27.2245],[88.3664,27.2204],[88.3661,27.2166],[88.3628,27.2151],[88.3588,27.2112],[88.3551,27.2094],[88.352,27.2053],[88.3468,27.2],[88.3388,27.1934],[88.333,27.1926],[88.3313,27.193],[88.3289,27.1919],[88.3306,27.1888],[88.3286,27.1876],[88.3196,27.1856],[88.3121,27.1817],[88.3095,27.1781],[88.3044,27.1764],[88.3008,27.1737],[88.3,27.169],[88.2964,27.1643],[88.2941,27.1633],[88.2904,27.1542],[88.287,27.1511],[88.2822,27.1488],[88.2815,27.1445],[88.2801,27.1425],[88.2829,27.1308],[88.2832,27.1282]]]},"properties":{"id":"in:subdistrict:1551","level":"subdistrict","name":"Namchi","code":1551,"parent":"in:district:227","state":"in:state:11"}},{"type":"Feature","geometry":{"type":"Polygon","coordinates":[[[88.7385,27.299],[88.7385,27.3021],[88.7409,27.306],[88.7396,27.3073],[88.7423,27.3147],[88.7469,27.3197],[88.7527,27.3245],[88.7363,27.325],[88.7347,27.3255],[88.725,27.3248],[88.7173,27.3276],[88.7155,27.3292],[88.7076,27.3316],[88.6992,27.3245],[88.6942,27.3222],[88.6915,27.3168],[88.6846,27.3118],[88.6844,27.3085],[88.6814,27.3042],[88.6784,27.3029],[88.6717,27.3039],[88.6648,27.2998],[88.6621,27.2987],[88.6641,27.2963],[88.6646,27.2936],[88.6582,27.2879],[88.6586,27.2847],[88.6568,27.281],[88.6529,27.2781],[88.6518,27.2762],[88.6485,27.2747],[88.6447,27.272],[88.6387,27.2716],[88.6367,27.27],[88.6348,27.271],[88.6271,27.279],[88.6228,27.281],[88.6213,27.28],[88.6131,27.2794],[88.6073,27.2809],[88.602,27.2808],[88.5979,27.2821],[88.596,27.2794],[88.5932,27.2782],[88.5925,27.2747],[88.5897,27.2736],[88.5885,27.2698],[88.5846,27.2647],[88.5763,27.2671],[88.5723,27.2648],[88.5701,27.2622],[88.5618,27.2604],[88.5618,27.263],[88.5595,27.2644],[88.5567,27.2605],[88.5616,27.2538],[88.5614,27.2507],[88.5644,27.248],[88.5681,27.2485],[88.5705,27.2425],[88.5737,27.2412],[88.5788,27.2426],[88.5814,27.2407],[88.5792,27.2379],[88.5739,27.237],[88.5709,27.2336],[88.5743,27.2318],[88.5811,27.2324],[88.5817,27.2303],[88.5799,27.2245],[88.5855,27.2248],[88.5882,27.2227],[88.5879,27.2171],[88.589,27.2137],[88.586,27.2086],[88.5883,27.206],[88.5908,27.2079],[88.5944,27.2064],[88.5975,27.2032],[88.5975,27.1996],[88.5999,27.1962],[88.5996,27.1917],[88.6041,27.1918],[88.606,27.1949],[88.608,27.1953],[88.6116,27.1935],[88.6171,27.1952],[88.6162,27.1995],[88.6175,27.2027],[88.6126,27.2031],[88.6126,27.2086],[88.6098,27.2151],[88.6084,27.2216],[88.6087,27.2257],[88.605,27.2269],[88.605,27.2295],[88.6087,27.2334],[88.6094,27.2356],[88.6137,27.2396],[88.6127,27.2426],[88.6166,27.2467],[88.6248,27.247],[88.6272,27.2452],[88.6271,27.2404],[88.6255,27.2394],[88.6242,27.2359],[88.6263,27.2334],[88.6263,27.2311],[88.6282,27.2296],[88.6244,27.2276],[88.621,27.2204],[88.6219,27.2184],[88.6198,27.2157],[88.6176,27.2183],[88.6147,27.218],[88.6148,27.2149],[88.6171,27.2135],[88.6192,27.2078],[88.6285,27.2037],[88.6305,27.2],[88.6291,27.1975],[88.6339,27.1965],[88.6374,27.2007],[88.6376,27.2051],[88.6389,27.2078],[88.6354,27.2092],[88.6354,27.2127],[88.6387,27.2222],[88.6409,27.2234],[88.643,27.2277],[88.6449,27.2292],[88.6504,27.2305],[88.6525,27.2318],[88.6539,27.2356],[88.6574,27.2354],[88.6614,27.2339],[88.6623,27.2304],[88.6592,27.2249],[88.6623,27.2246],[88.6736,27.218],[88.6785,27.2182],[88.6849,27.2221],[88.6842,27.228],[88.6861,27.2311],[88.6877,27.2309],[88.6907,27.2337],[88.6933,27.2399],[88.6967,27.2432],[88.7003,27.2433],[88.7039,27.2456],[88.7112,27.2445],[88.7111,27.2512],[88.7086,27.2561],[88.7083,27.2588],[88.7096,27.2617],[88.7123,27.2627],[88.7126,27.2654],[88.7113,27.269],[88.7153,27.2728],[88.7163,27.2755],[88.7155,27.2791],[88.718,27.2823],[88.7225,27.2819],[88.7231,27.285],[88.727,27.2868],[88.7308,27.29],[88.7363,27.2935],[88.7385,27.299]]]},"properties":{"id":"in:subdistrict:1554","level":"subdistrict","name":"Pakyong","code":1554,"parent":"in:district:741","state":"in:state:11"}},{"type":"Feature","geometry":{"type":"Polygon","coordinates":[[[88.5996,27.1917],[88.5999,27.1962],[88.5975,27.1996],[88.5975,27.2032],[88.5944,27.2064],[88.5908,27.2079],[88.5883,27.206],[88.586,27.2086],[88.589,27.2137],[88.5879,27.2171],[88.5882,27.2227],[88.5855,27.2248],[88.5799,27.2245],[88.5817,27.2303],[88.5811,27.2324],[88.5743,27.2318],[88.5709,27.2336],[88.5739,27.237],[88.5792,27.2379],[88.5814,27.2407],[88.5788,27.2426],[88.5737,27.2412],[88.5705,27.2425],[88.5681,27.2485],[88.5644,27.248],[88.5614,27.2507],[88.5616,27.2538],[88.5567,27.2605],[88.5595,27.2644],[88.5618,27.263],[88.5618,27.2604],[88.5701,27.2622],[88.5723,27.2648],[88.5763,27.2671],[88.5846,27.2647],[88.5885,27.2698],[88.5897,27.2736],[88.5925,27.2747],[88.5932,27.2782],[88.596,27.2794],[88.5979,27.2821],[88.602,27.2808],[88.6073,27.2809],[88.6131,27.2794],[88.6213,27.28],[88.6228,27.281],[88.6271,27.279],[88.6348,27.271],[88.6367,27.27],[88.6387,27.2716],[88.6447,27.272],[88.6485,27.2747],[88.6518,27.2762],[88.6529,27.2781],[88.6568,27.281],[88.6586,27.2847],[88.6582,27.2879],[88.6646,27.2936],[88.6641,27.2963],[88.6621,27.2987],[88.6648,27.2998],[88.6717,27.3039],[88.6784,27.3029],[88.6814,27.3042],[88.6844,27.3085],[88.6846,27.3118],[88.6915,27.3168],[88.6942,27.3222],[88.6992,27.3245],[88.7076,27.3316],[88.7155,27.3292],[88.7173,27.3276],[88.725,27.3248],[88.7347,27.3255],[88.7363,27.325],[88.7527,27.3245],[88.7469,27.3197],[88.7423,27.3147],[88.7396,27.3073],[88.7409,27.306],[88.7385,27.3021],[88.7385,27.299],[88.7407,27.2979],[88.7442,27.2986],[88.7476,27.2967],[88.7573,27.2965],[88.7626,27.2952],[88.7727,27.2955],[88.7851,27.2985],[88.7929,27.301],[88.8023,27.3022],[88.812,27.3045],[88.8173,27.3063],[88.8245,27.31],[88.8288,27.3114],[88.8449,27.3085],[88.8529,27.3088],[88.8665,27.3117],[88.8691,27.3127],[88.8769,27.3144],[88.8903,27.3136],[88.8947,27.3137],[88.9041,27.315],[88.9151,27.3142],[88.9183,27.3178],[88.9193,27.3206],[88.9192,27.328],[88.9157,27.3305],[88.9074,27.3286],[88.9049,27.329],[88.9031,27.3312],[88.8979,27.333],[88.8955,27.3321],[88.8915,27.3391],[88.8849,27.3419],[88.882,27.3462],[88.8854,27.351],[88.8819,27.351],[88.8806,27.3525],[88.8817,27.358],[88.8809,27.3605],[88.876,27.3603],[88.8746,27.3627],[88.8719,27.3643],[88.8668,27.3658],[88.8628,27.3702],[88.863,27.3751],[88.8642,27.3792],[88.8622,27.3814],[88.8615,27.3859],[88.8566,27.3844],[88.8533,27.3848],[88.85,27.3839],[88.8472,27.385],[88.8438,27.3838],[88.8391,27.3797],[88.8314,27.3858],[88.8299,27.3904],[88.8233,27.3906],[88.821,27.3986],[88.8174,27.4023],[88.8126,27.4012],[88.8095,27.405],[88.8062,27.4074],[88.8074,27.4099],[88.8068,27.4131],[88.8048,27.4152],[88.7972,27.4164],[88.7871,27.4218],[88.7822,27.4229],[88.773,27.4164],[88.7672,27.4137],[88.7537,27.4147],[88.7314,27.4193],[88.7187,27.4167],[88.7122,27.4122],[88.7003,27.4018],[88.6948,27.3984],[88.6868,27.3981],[88.6792,27.4001],[88.6751,27.4002],[88.6634,27.3931],[88.6588,27.3911],[88.649,27.3919],[88.6408,27.3909],[88.638,27.3889],[88.6398,27.387],[88.6403,27.3827],[88.6376,27.3813],[88.6339,27.3835],[88.6308,27.3805],[88.631,27.3767],[88.6287,27.3759],[88.6227,27.3765],[88.6199,27.3736],[88.6164,27.373],[88.6147,27.3707],[88.6107,27.3693],[88.6073,27.3667],[88.6037,27.3652],[88.6012,27.3677],[88.5974,27.37],[88.5934,27.3678],[88.5905,27.3675],[88.5865,27.3686],[88.5845,27.367],[88.5825,27.3681],[88.581,27.3726],[88.5812,27.3755],[88.5774,27.3805],[88.5703,27.3797],[88.5664,27.3769],[88.5626,27.3759],[88.556,27.3707],[88.5514,27.3688],[88.5502,27.3703],[88.5453,27.3723],[88.543,27.3783],[88.5411,27.3786],[88.5402,27.3875],[88.5435,27.3941],[88.5337,27.3966],[88.5289,27.3961],[88.5232,27.3971],[88.5191,27.3945],[88.5138,27.3895],[88.5012,27.3825],[88.4912,27.3787],[88.486,27.3783],[88.481,27.3663],[88.4803,27.3604],[88.4817,27.3526],[88.4882,27.3425],[88.4862,27.3336],[88.4827,27.3288],[88.4739,27.3238],[88.467,27.3219],[88.4617,27.3176],[88.4544,27.3153],[88.4518,27.3059],[88.4469,27.3009],[88.4482,27.296],[88.4425,27.2812],[88.4415,27.2739],[88.4434,27.2665],[88.4469,27.2612],[88.4589,27.2559],[88.4646,27.2505],[88.4753,27.2474],[88.4808,27.2467],[88.4907,27.2395],[88.4945,27.2305],[88.4922,27.2185],[88.491,27.2023],[88.4968,27.1933],[88.5037,27.1851],[88.5254,27.1782],[88.5251,27.175],[88.5264,27.1738],[88.5299,27.1724],[88.5327,27.1738],[88.5351,27.1789],[88.5387,27.1773],[88.5416,27.1823],[88.543,27.1832],[88.5483,27.1827],[88.5529,27.1834],[88.5555,27.1853],[88.5625,27.1857],[88.5678,27.1849],[88.5713,27.1863],[88.581,27.1888],[88.5828,27.1877],[88.585,27.19],[88.5891,27.1864],[88.5903,27.1903],[88.5933,27.191],[88.5946,27.1878],[88.5971,27.1893],[88.5996,27.1917]]]},"properties":{"id":"in:subdistrict:1553","level":"subdistrict","name":"Gangtok","code":1553,"parent":"in:district:225","state":"in:state:11"}},{"type":"Feature","geometry":{"type":"Polygon","coordinates":[[[88.2777,27.5101],[88.291,27.5188],[88.3192,27.5271],[88.3288,27.528],[88.3352,27.5276],[88.3426,27.5263],[88.3557,27.5213],[88.3612,27.5172],[88.3647,27.5103],[88.3756,27.4975],[88.3987,27.479],[88.4056,27.4757],[88.4073,27.4702],[88.4071,27.4633],[88.4088,27.4584],[88.416,27.4465],[88.4142,27.4393],[88.4145,27.4298],[88.4167,27.4235],[88.4195,27.4186],[88.4267,27.4132],[88.4326,27.4044],[88.4366,27.3999],[88.4435,27.3935],[88.4537,27.3885],[88.4639,27.3875],[88.4704,27.3855],[88.4785,27.381],[88.486,27.3783],[88.4912,27.3787],[88.5012,27.3825],[88.5138,27.3895],[88.5191,27.3945],[88.5232,27.3971],[88.5289,27.3961],[88.5337,27.3966],[88.5435,27.3941],[88.5402,27.3875],[88.5411,27.3786],[88.543,27.3783],[88.5453,27.3723],[88.5502,27.3703],[88.5514,27.3688],[88.556,27.3707],[88.5626,27.3759],[88.5664,27.3769],[88.5703,27.3797],[88.5774,27.3805],[88.5812,27.3755],[88.581,27.3726],[88.5825,27.3681],[88.5845,27.367],[88.5865,27.3686],[88.5905,27.3675],[88.5934,27.3678],[88.5974,27.37],[88.6012,27.3677],[88.6037,27.3652],[88.6073,27.3667],[88.6107,27.3693],[88.6147,27.3707],[88.6164,27.373],[88.6199,27.3736],[88.6227,27.3765],[88.6287,27.3759],[88.631,27.3767],[88.6308,27.3805],[88.6339,27.3835],[88.6376,27.3813],[88.6403,27.3827],[88.6398,27.387],[88.638,27.3889],[88.6408,27.3909],[88.649,27.3919],[88.6588,27.3911],[88.6634,27.3931],[88.6751,27.4002],[88.6792,27.4001],[88.6868,27.3981],[88.6948,27.3984],[88.7003,27.4018],[88.7122,27.4122],[88.7187,27.4167],[88.7314,27.4193],[88.7537,27.4147],[88.7672,27.4137],[88.773,27.4164],[88.7822,27.4229],[88.7871,27.4218],[88.7972,27.4164],[88.8048,27.4152],[88.8063,27.4178],[88.8079,27.4237],[88.8022,27.4224],[88.8005,27.4231],[88.8001,27.4262],[88.7964,27.4272],[88.7918,27.4387],[88.7943,27.4405],[88.7946,27.4457],[88.7843,27.4484],[88.7832,27.4561],[88.7844,27.4585],[88.7798,27.462],[88.777,27.4681],[88.778,27.4704],[88.7837,27.4748],[88.7834,27.4771],[88.7806,27.4808],[88.7829,27.4829],[88.7866,27.4882],[88.7833,27.4955],[88.7834,27.5009],[88.787,27.5043],[88.7858,27.5069],[88.7818,27.5105],[88.7792,27.5114],[88.7698,27.5175],[88.7682,27.5212],[88.7637,27.5231],[88.7443,27.5413],[88.7414,27.5449],[88.7333,27.5481],[88.727,27.5476],[88.719,27.5454],[88.7097,27.541],[88.7057,27.5371],[88.7037,27.5334],[88.7006,27.531],[88.6969,27.5297],[88.6853,27.5291],[88.6817,27.5277],[88.679,27.5283],[88.6737,27.5309],[88.671,27.533],[88.6697,27.5359],[88.67,27.5435],[88.6669,27.5479],[88.6579,27.5527],[88.6547,27.552],[88.6508,27.5488],[88.6472,27.5498],[88.6432,27.5497],[88.6383,27.5462],[88.6327,27.5463],[88.6295,27.5445],[88.625,27.545],[88.6173,27.5438],[88.61,27.5392],[88.6017,27.5376],[88.6,27.5357],[88.5966,27.5365],[88.5926,27.536],[88.5858,27.5323],[88.5862,27.5381],[88.5829,27.543],[88.5785,27.5432],[88.5744,27.5458],[88.5694,27.5458],[88.5663,27.5481],[88.5615,27.5475],[88.5597,27.5511],[88.5558,27.5563],[88.5525,27.5578],[88.5516,27.5603],[88.5487,27.5621],[88.5511,27.5686],[88.5472,27.5754],[88.5451,27.5739],[88.5344,27.5779],[88.5301,27.5783],[88.5264,27.5832],[88.5272,27.5872],[88.5285,27.5989],[88.523,27.6093],[88.519,27.6124],[88.5142,27.6177],[88.5099,27.6187],[88.5052,27.6215],[88.4957,27.6258],[88.4863,27.6289],[88.4814,27.6316],[88.4785,27.6342],[88.4693,27.6373],[88.4678,27.6386],[88.4674,27.6416],[88.4635,27.6482],[88.4622,27.6549],[88.4576,27.6637],[88.4487,27.6666],[88.4455,27.6706],[88.4436,27.6746],[88.4412,27.6765],[88.4294,27.6768],[88.4238,27.6802],[88.4179,27.6829],[88.4121,27.6829],[88.4105,27.6818],[88.3998,27.6781],[88.3933,27.6767],[88.3856,27.6775],[88.377,27.6829],[88.372,27.6874],[88.3666,27.6898],[88.3607,27.6906],[88.3525,27.6903],[88.3466,27.689],[88.3336,27.6879],[88.3315,27.6869],[88.3237,27.6863],[88.3192,27.6847],[88.3112,27.6847],[88.3047,27.6839],[88.29,27.6852],[88.2759,27.6868],[88.2652,27.6874],[88.2591,27.6895],[88.2505,27.6898],[88.2465,27.6927],[88.2404,27.6959],[88.2345,27.6975],[88.2163,27.6996],[88.2118,27.698],[88.203,27.6967],[88.2027,27.6956],[88.1944,27.6951],[88.1794,27.6983],[88.1698,27.6988],[88.1631,27.6977],[88.1594,27.6956],[88.1546,27.6956],[88.1529,27.6939],[88.1542,27.6918],[88.1492,27.6839],[88.147,27.6796],[88.1472,27.6747],[88.1452,27.669],[88.1447,27.6654],[88.1392,27.6604],[88.136,27.6566],[88.1323,27.6563],[88.1287,27.6522],[88.124,27.6495],[88.1202,27.6452],[88.1206,27.6384],[88.1184,27.6342],[88.1171,27.6297],[88.1197,27.6283],[88.1166,27.624],[88.117,27.6202],[88.1126,27.6145],[88.114,27.6111],[88.1127,27.6089],[88.1207,27.6009],[88.123,27.5974],[88.1249,27.5923],[88.1274,27.5887],[88.1322,27.5873],[88.1385,27.5891],[88.15,27.5955],[88.1594,27.6043],[88.1672,27.6096],[88.1722,27.6102],[88.1801,27.6094],[88.1873,27.6055],[88.1908,27.6028],[88.1936,27.5995],[88.2009,27.5932],[88.2096,27.5879],[88.212,27.5858],[88.2154,27.5796],[88.2174,27.5671],[88.2197,27.5551],[88.2196,27.5371],[88.2207,27.5278],[88.2235,27.5227],[88.2275,27.5195],[88.2352,27.5155],[88.2395,27.5152],[88.248,27.5187],[88.252,27.5197],[88.2581,27.5201],[88.2635,27.5192],[88.2689,27.5175],[88.2725,27.5153],[88.2777,27.5101]]]},"properties":{"id":"in:subdistrict:1548","level":"subdistrict","name":"Mangan","code":1548,"parent":"in:district:226","state":"in:state:11"}},{"type":"Feature","geometry":{"type":"Polygon","coordinates":[[[88.7858,27.5069],[88.7875,27.5115],[88.7898,27.5132],[88.7906,27.5158],[88.789,27.5178],[88.7884,27.5221],[88.7928,27.5247],[88.7924,27.53],[88.791,27.5316],[88.7848,27.5306],[88.7833,27.5292],[88.7773,27.5326],[88.7731,27.5408],[88.7752,27.5445],[88.773,27.549],[88.7739,27.5538],[88.7712,27.5586],[88.7642,27.5643],[88.7643,27.5664],[88.7671,27.5695],[88.77,27.5713],[88.7814,27.5699],[88.7836,27.5728],[88.788,27.5748],[88.7911,27.575],[88.7908,27.5812],[88.7887,27.5852],[88.7914,27.5865],[88.7947,27.5903],[88.8047,27.5944],[88.8075,27.6015],[88.8079,27.6044],[88.8063,27.6089],[88.8082,27.6134],[88.8115,27.6178],[88.8114,27.6192],[88.808,27.622],[88.8049,27.6235],[88.8065,27.6287],[88.8085,27.6311],[88.8087,27.6344],[88.8112,27.6365],[88.8116,27.6388],[88.8141,27.6424],[88.8153,27.6461],[88.8195,27.6464],[88.8221,27.6438],[88.8279,27.6443],[88.8355,27.6503],[88.8357,27.6536],[88.8382,27.6549],[88.8391,27.657],[88.8425,27.6593],[88.8484,27.668],[88.8476,27.6754],[88.8446,27.6771],[88.8444,27.6797],[88.8424,27.6806],[88.8423,27.6842],[88.8477,27.6928],[88.8457,27.6985],[88.8436,27.7002],[88.842,27.7033],[88.8389,27.7034],[88.838,27.7063],[88.8398,27.7112],[88.8467,27.7129],[88.8498,27.7144],[88.8526,27.7145],[88.8559,27.7185],[88.8542,27.7201],[88.8558,27.7252],[88.8574,27.7265],[88.8567,27.7317],[88.8587,27.7338],[88.8594,27.7381],[88.8651,27.7422],[88.8636,27.7443],[88.8641,27.7467],[88.8616,27.7525],[88.8584,27.7539],[88.8563,27.752],[88.8542,27.7583],[88.8545,27.763],[88.8534,27.7641],[88.8534,27.7684],[88.8559,27.7708],[88.8545,27.7811],[88.8557,27.7852],[88.8596,27.7911],[88.8598,27.7947],[88.8615,27.7976],[88.8598,27.8004],[88.8602,27.8029],[88.8581,27.8042],[88.8588,27.8093],[88.8558,27.8151],[88.8639,27.8197],[88.8717,27.8256],[88.8805,27.8292],[88.8809,27.8324],[88.8827,27.8343],[88.8821,27.8376],[88.8799,27.8407],[88.8818,27.847],[88.8818,27.8509],[88.8875,27.8557],[88.8873,27.858],[88.8851,27.8615],[88.8794,27.8672],[88.878,27.8783],[88.8808,27.8823],[88.8807,27.8866],[88.8822,27.8888],[88.8817,27.8917],[88.8718,27.8985],[88.8722,27.9012],[88.8695,27.9054],[88.8701,27.9102],[88.8694,27.9136],[88.87,27.9156],[88.8633,27.9219],[88.8604,27.9272],[88.8527,27.9258],[88.8469,27.9281],[88.842,27.9289],[88.8369,27.9288],[88.8376,27.9366],[88.8392,27.9407],[88.8389,27.943],[88.8417,27.9452],[88.842,27.9506],[88.8429,27.9528],[88.8424,27.9636],[88.8409,27.9657],[88.843,27.9753],[88.8415,27.9826],[88.8437,27.9878],[88.8437,27.9933],[88.8393,27.9977],[88.838,28.0005],[88.8378,28.0085],[88.8363,28.0148],[88.8347,28.0158],[88.8202,28.0215],[88.8169,28.0207],[88.8136,28.0224],[88.8078,28.0284],[88.8031,28.0318],[88.8017,28.0349],[88.7976,28.0409],[88.7935,28.0441],[88.7929,28.0486],[88.7884,28.0499],[88.7847,28.0535],[88.7776,28.0541],[88.7742,28.0623],[88.7696,28.0673],[88.7657,28.0705],[88.7563,28.076],[88.7469,28.076],[88.7434,28.0752],[88.7349,28.0743],[88.7184,28.0746],[88.7118,28.0773],[88.7085,28.0777],[88.7033,28.0763],[88.6958,28.0762],[88.6934,28.0776],[88.6836,28.0777],[88.6802,28.0757],[88.6784,28.0715],[88.6721,28.0723],[88.6667,28.0761],[88.6664,28.0798],[88.6643,28.0874],[88.6621,28.0894],[88.6569,28.09],[88.6544,28.0947],[88.646,28.0987],[88.6444,28.1013],[88.6377,28.1151],[88.6344,28.1196],[88.6276,28.1251],[88.624,28.1262],[88.61,28.1287],[88.6084,28.1231],[88.6092,28.1219],[88.6158,28.1193],[88.6177,28.1178],[88.6177,28.11],[88.6193,28.0981],[88.6126,28.0991],[88.6052,28.0976],[88.6024,28.0929],[88.6026,28.0892],[88.5974,28.0886],[88.5922,28.0893],[88.5879,28.0873],[88.584,28.0833],[88.5815,28.083],[88.5741,28.0852],[88.5707,28.0888],[88.5663,28.0903],[88.564,28.089],[88.5597,28.0839],[88.5525,28.0814],[88.556,28.0751],[88.556,28.0726],[88.5536,28.066],[88.5532,28.0615],[88.5518,28.0548],[88.5487,28.047],[88.549,28.0431],[88.5511,28.0393],[88.5508,28.0376],[88.5459,28.0341],[88.5436,28.0333],[88.5327,28.0333],[88.5275,28.0378],[88.5243,28.035],[88.5221,28.0357],[88.5197,28.0436],[88.5098,28.0412],[88.5053,28.0471],[88.498,28.0524],[88.4945,28.0531],[88.4919,28.0489],[88.4881,28.0445],[88.4825,28.0437],[88.4797,28.0416],[88.4785,28.0385],[88.4741,28.033],[88.4726,28.0266],[88.4671,28.0166],[88.4624,28.0162],[88.4608,28.0145],[88.4564,28.0149],[88.4525,28.0129],[88.4438,28.0094],[88.4348,28.008],[88.4314,28.0083],[88.4288,28.0067],[88.426,28.0028],[88.4238,28.0012],[88.4182,28.0008],[88.4147,27.9989],[88.4126,27.9958],[88.4108,27.9881],[88.4108,27.9833],[88.4075,27.9818],[88.4038,27.9828],[88.4006,27.9809],[88.3991,27.978],[88.3956,27.9789],[88.3897,27.9788],[88.3862,27.9814],[88.3809,27.9831],[88.379,27.9852],[88.377,27.9899],[88.3721,27.9911],[88.3675,27.989],[88.3599,27.9888],[88.3552,27.99],[88.3523,27.9899],[88.3457,27.985],[88.3413,27.9856],[88.3367,27.9842],[88.331,27.9735],[88.3293,27.9734],[88.326,27.9762],[88.3187,27.9788],[88.3154,27.9765],[88.3132,27.9708],[88.3082,27.9671],[88.3035,27.9658],[88.3023,27.9668],[88.2975,27.9672],[88.2933,27.9658],[88.286,27.9663],[88.2838,27.9633],[88.2806,27.9571],[88.2788,27.9558],[88.2739,27.9545],[88.2682,27.9571],[88.2654,27.9569],[88.2616,27.9477],[88.2532,27.9448],[88.2507,27.9426],[88.2488,27.9454],[88.2474,27.9498],[88.2426,27.9553],[88.2384,27.9655],[88.2375,27.9706],[88.2298,27.9664],[88.2251,27.9604],[88.2148,27.9631],[88.2127,27.9643],[88.208,27.9617],[88.2065,27.9597],[88.2049,27.9494],[88.2064,27.9417],[88.2006,27.9417],[88.1953,27.9442],[88.1879,27.9429],[88.1838,27.9444],[88.1791,27.9492],[88.1724,27.9516],[88.1651,27.956],[88.1639,27.9577],[88.1543,27.9574],[88.1447,27.9636],[88.1343,27.9513],[88.1294,27.9493],[88.1349,27.9452],[88.1379,27.9372],[88.1334,27.9345],[88.1305,27.9294],[88.1309,27.9261],[88.1255,27.9245],[88.1212,27.922],[88.1196,27.916],[88.1219,27.9117],[88.1234,27.9071],[88.1317,27.8982],[88.1348,27.8964],[88.1399,27.8891],[88.1362,27.8845],[88.1367,27.8812],[88.1399,27.8775],[88.1441,27.8779],[88.149,27.8764],[88.1531,27.873],[88.1547,27.8707],[88.1572,27.8708],[88.163,27.8693],[88.1671,27.8661],[88.1737,27.863],[88.179,27.8565],[88.1856,27.8565],[88.189,27.8544],[88.1952,27.8545],[88.1976,27.8513],[88.1974,27.8491],[88.199,27.8449],[88.202,27.8422],[88.2028,27.8385],[88.1995,27.8359],[88.1956,27.8353],[88.1925,27.833],[88.1916,27.8297],[88.188,27.8255],[88.1822,27.8229],[88.1754,27.8215],[88.1736,27.8206],[88.1741,27.8174],[88.1801,27.8149],[88.1857,27.8103],[88.1868,27.8023],[88.1887,27.7994],[88.194,27.7964],[88.1972,27.7914],[88.1954,27.7864],[88.1895,27.7822],[88.1873,27.7787],[88.1822,27.7758],[88.1818,27.7694],[88.1837,27.7667],[88.1827,27.7634],[88.1779,27.7588],[88.1774,27.7568],[88.1789,27.75],[88.1784,27.7462],[88.1759,27.7456],[88.1744,27.7431],[88.1699,27.7411],[88.1659,27.741],[88.1629,27.7398],[88.1585,27.7406],[88.1563,27.7363],[88.1547,27.73],[88.1545,27.7205],[88.1554,27.7174],[88.1529,27.7118],[88.1491,27.7083],[88.1491,27.7049],[88.1476,27.7028],[88.1508,27.6985],[88.1529,27.6939],[88.1546,27.6956],[88.1594,27.6956],[88.1631,27.6977],[88.1698,27.6988],[88.1794,27.6983],[88.1944,27.6951],[88.2027,27.6956],[88.203,27.6967],[88.2118,27.698],[88.2163,27.6996],[88.2345,27.6975],[88.2404,27.6959],[88.2465,27.6927],[88.2505,27.6898],[88.2591,27.6895],[88.2652,27.6874],[88.2759,27.6868],[88.29,27.6852],[88.3047,27.6839],[88.3112,27.6847],[88.3192,27.6847],[88.3237,27.6863],[88.3315,27.6869],[88.3336,27.6879],[88.3466,27.689],[88.3525,27.6903],[88.3607,27.6906],[88.3666,27.6898],[88.372,27.6874],[88.377,27.6829],[88.3856,27.6775],[88.3933,27.6767],[88.3998,27.6781],[88.4105,27.6818],[88.4121,27.6829],[88.4179,27.6829],[88.4238,27.6802],[88.4294,27.6768],[88.4412,27.6765],[88.4436,27.6746],[88.4455,27.6706],[88.4487,27.6666],[88.4576,27.6637],[88.4622,27.6549],[88.4635,27.6482],[88.4674,27.6416],[88.4678,27.6386],[88.4693,27.6373],[88.4785,27.6342],[88.4814,27.6316],[88.4863,27.6289],[88.4957,27.6258],[88.5052,27.6215],[88.5099,27.6187],[88.5142,27.6177],[88.519,27.6124],[88.523,27.6093],[88.5285,27.5989],[88.5272,27.5872],[88.5264,27.5832],[88.5301,27.5783],[88.5344,27.5779],[88.5451,27.5739],[88.5472,27.5754],[88.5511,27.5686],[88.5487,27.5621],[88.5516,27.5603],[88.5525,27.5578],[88.5558,27.5563],[88.5597,27.5511],[88.5615,27.5475],[88.5663,27.5481],[88.5694,27.5458],[88.5744,27.5458],[88.5785,27.5432],[88.5829,27.543],[88.5862,27.5381],[88.5858,27.5323],[88.5926,27.536],[88.5966,27.5365],[88.6,27.5357],[88.6017,27.5376],[88.61,27.5392],[88.6173,27.5438],[88.625,27.545],[88.6295,27.5445],[88.6327,27.5463],[88.6383,27.5462],[88.6432,27.5497],[88.6472,27.5498],[88.6508,27.5488],[88.6547,27.552],[88.6579,27.5527],[88.6669,27.5479],[88.67,27.5435],[88.6697,27.5359],[88.671,27.533],[88.6737,27.5309],[88.679,27.5283],[88.6817,27.5277],[88.6853,27.5291],[88.6969,27.5297],[88.7006,27.531],[88.7037,27.5334],[88.7057,27.5371],[88.7097,27.541],[88.719,27.5454],[88.727,27.5476],[88.7333,27.5481],[88.7414,27.5449],[88.7443,27.5413],[88.7637,27.5231],[88.7682,27.5212],[88.7698,27.5175],[88.7792,27.5114],[88.7818,27.5105],[88.7858,27.5069]]]},"properties":{"id":"in:subdistrict:1547","level":"subdistrict","name":"Chungthang","code":1547,"parent":"in:district:226","state":"in:state:11"}}]}