{"type":"FeatureCollection","features":[{"type":"Feature","geometry":{"type":"Polygon","coordinates":[[[74.2942,15.2887],[74.2817,15.2976],[74.2815,15.3074],[74.277,15.3106],[74.273,15.304],[74.2682,15.3042],[74.2621,15.3023],[74.2589,15.3038],[74.2568,15.3013],[74.2548,15.3026],[74.2503,15.3038],[74.2494,15.3115],[74.2485,15.3132],[74.2428,15.3137],[74.2383,15.3175],[74.2373,15.321],[74.2353,15.3235],[74.2308,15.3235],[74.2288,15.3203],[74.2232,15.3156],[74.2114,15.3103],[74.2096,15.3109],[74.2074,15.3086],[74.204,15.3084],[74.197,15.3104],[74.1958,15.3099],[74.186,15.3106],[74.1858,15.3161],[74.1826,15.3206],[74.1846,15.3225],[74.1805,15.3255],[74.177,15.3306],[74.1767,15.3336],[74.1791,15.3354],[74.1797,15.3382],[74.179,15.3424],[74.176,15.3421],[74.174,15.3392],[74.1653,15.3384],[74.1643,15.3355],[74.1591,15.3375],[74.1573,15.3398],[74.1545,15.339],[74.1518,15.3398],[74.1517,15.3369],[74.1567,15.3329],[74.1524,15.3264],[74.1481,15.3247],[74.1433,15.3175],[74.146,15.3103],[74.146,15.307],[74.1429,15.3057],[74.1439,15.3021],[74.1432,15.2984],[74.1374,15.2954],[74.1342,15.2911],[74.1309,15.2888],[74.1273,15.292],[74.1248,15.2919],[74.119,15.2936],[74.1128,15.2934],[74.1075,15.2939],[74.1025,15.289],[74.1059,15.2861],[74.1058,15.2811],[74.1024,15.2738],[74.1022,15.2711],[74.1003,15.2683],[74.1043,15.2649],[74.1104,15.2656],[74.1146,15.2643],[74.1181,15.2692],[74.1208,15.2693],[74.1231,15.2642],[74.1218,15.2591],[74.1245,15.2569],[74.1269,15.2576],[74.1285,15.2558],[74.1285,15.2515],[74.1302,15.2495],[74.1341,15.2523],[74.136,15.2515],[74.1387,15.2481],[74.1378,15.2454],[74.1392,15.2442],[74.1426,15.2442],[74.1439,15.243],[74.1442,15.2387],[74.1472,15.2399],[74.1489,15.239],[74.1478,15.2364],[74.1453,15.2364],[74.1431,15.2327],[74.1395,15.2314],[74.1375,15.2317],[74.1324,15.2293],[74.1283,15.2257],[74.1283,15.2205],[74.1308,15.215],[74.1341,15.2118],[74.1351,15.2094],[74.1383,15.21],[74.1435,15.2081],[74.1485,15.2036],[74.1524,15.202],[74.1552,15.1988],[74.1599,15.1949],[74.1614,15.1913],[74.1669,15.1904],[74.1715,15.1912],[74.1755,15.1847],[74.1738,15.1808],[74.173,15.1758],[74.1675,15.1732],[74.1561,15.1709],[74.155,15.1693],[74.1487,15.1664],[74.1313,15.1714],[74.1286,15.1693],[74.1266,15.1697],[74.1244,15.1678],[74.1202,15.17],[74.1189,15.1729],[74.1148,15.1759],[74.1137,15.1798],[74.1111,15.1808],[74.1063,15.1883],[74.1021,15.1888],[74.1003,15.1875],[74.0974,15.1878],[74.0966,15.1895],[74.0917,15.1879],[74.0898,15.1854],[74.0872,15.1845],[74.0854,15.1821],[74.0822,15.1809],[74.0795,15.1814],[74.0779,15.1792],[74.0716,15.1763],[74.0691,15.1775],[74.066,15.1761],[74.0678,15.1695],[74.0679,15.166],[74.064,15.1604],[74.071,15.1558],[74.0771,15.1557],[74.0789,15.1536],[74.0806,15.1474],[74.0797,15.1468],[74.0803,15.1415],[74.0842,15.136],[74.0868,15.1342],[74.0897,15.1351],[74.097,15.134],[74.0971,15.1316],[74.1002,15.1262],[74.0998,15.1198],[74.1018,15.1164],[74.1029,15.1116],[74.1026,15.1073],[74.1053,15.1062],[74.1069,15.107],[74.1092,15.1107],[74.1104,15.1143],[74.117,15.1156],[74.1205,15.1144],[74.1239,15.1148],[74.1273,15.1188],[74.1266,15.1214],[74.1287,15.1229],[74.1312,15.1193],[74.1344,15.119],[74.1345,15.1167],[74.1371,15.1144],[74.1429,15.1133],[74.1511,15.1177],[74.1539,15.1207],[74.157,15.1225],[74.1616,15.122],[74.1688,15.1193],[74.1713,15.1158],[74.1708,15.1135],[74.1742,15.1133],[74.1788,15.1072],[74.1775,15.1051],[74.1754,15.0928],[74.1752,15.0899],[74.1734,15.0889],[74.1723,15.0849],[74.1745,15.0841],[74.1752,15.0815],[74.1819,15.0812],[74.1863,15.0797],[74.1892,15.0807],[74.1923,15.0796],[74.1953,15.0773],[74.1992,15.0716],[74.1983,15.0693],[74.1908,15.0686],[74.1901,15.0649],[74.1935,15.0624],[74.1914,15.0558],[74.1893,15.0546],[74.1873,15.0515],[74.1872,15.0483],[74.1854,15.0428],[74.183,15.0402],[74.1909,15.0413],[74.2082,15.0422],[74.2166,15.0443],[74.2199,15.0412],[74.2292,15.0357],[74.2317,15.0327],[74.2313,15.0283],[74.2319,15.0231],[74.2333,15.017],[74.2358,15.0103],[74.2425,15.0023],[74.2498,15.0011],[74.2534,14.9977],[74.2595,15.0005],[74.261,15.0001],[74.2681,15.002],[74.2666,15.0041],[74.2665,15.0069],[74.2691,15.0091],[74.2725,15.0142],[74.2834,15.0235],[74.2833,15.0316],[74.2882,15.0367],[74.2936,15.0391],[74.2965,15.0412],[74.2955,15.0451],[74.2946,15.0492],[74.2929,15.0501],[74.2903,15.0536],[74.2898,15.058],[74.2901,15.0614],[74.2895,15.0648],[74.2837,15.0661],[74.2807,15.0688],[74.2804,15.0808],[74.2797,15.0881],[74.2752,15.0959],[74.2726,15.0975],[74.2745,15.1033],[74.2766,15.1054],[74.2827,15.1067],[74.2829,15.113],[74.2849,15.1139],[74.2842,15.1258],[74.2842,15.1328],[74.2852,15.1367],[74.2836,15.1429],[74.2851,15.149],[74.2913,15.1489],[74.2957,15.1512],[74.2992,15.1565],[74.3046,15.1636],[74.3116,15.1753],[74.3142,15.1775],[74.3142,15.1805],[74.3173,15.1836],[74.3161,15.1878],[74.3131,15.1902],[74.3104,15.1947],[74.3086,15.2018],[74.3099,15.2052],[74.3079,15.2085],[74.3056,15.2098],[74.3043,15.214],[74.3045,15.2167],[74.3014,15.2171],[74.2999,15.2199],[74.3016,15.2243],[74.297,15.2281],[74.2915,15.2338],[74.2867,15.2328],[74.2811,15.2363],[74.2686,15.2389],[74.2595,15.241],[74.2559,15.2451],[74.2553,15.2475],[74.2522,15.251],[74.2547,15.2541],[74.2511,15.2589],[74.261,15.2602],[74.2626,15.2619],[74.2652,15.2689],[74.27,15.2768],[74.2715,15.2811],[74.2763,15.2835],[74.2818,15.2804],[74.2877,15.2839],[74.2934,15.2845],[74.2942,15.2887]]]},"properties":{"id":"in:subdistrict:5618","level":"subdistrict","name":"Sanguem","code":5618,"parent":"in:district:552","state":"in:state:30"}},{"type":"Feature","geometry":{"type":"Polygon","coordinates":[[[74.183,15.0402],[74.1795,15.0394],[74.177,15.0399],[74.1748,15.0421],[74.1696,15.0439],[74.167,15.0436],[74.1661,15.0472],[74.1632,15.0469],[74.1616,15.0481],[74.1643,15.0516],[74.1674,15.0519],[74.1707,15.0572],[74.1704,15.0589],[74.1659,15.0618],[74.1626,15.0652],[74.1579,15.0649],[74.1497,15.0664],[74.1445,15.065],[74.1406,15.0665],[74.1361,15.0669],[74.1283,15.0653],[74.1251,15.0635],[74.1119,15.0595],[74.1051,15.0539],[74.0982,15.0412],[74.0964,15.0417],[74.093,15.0468],[74.0843,15.0514],[74.0811,15.0505],[74.0736,15.053],[74.0713,15.0528],[74.0688,15.0505],[74.0623,15.0514],[74.059,15.0504],[74.0528,15.0463],[74.0447,15.0493],[74.0371,15.0512],[74.0334,15.0499],[74.0271,15.051],[74.0239,15.0506],[74.0195,15.0521],[74.0151,15.0521],[74.0135,15.0574],[74.0106,15.0633],[74.0112,15.0653],[74.0142,15.0663],[74.0169,15.0707],[74.0142,15.0716],[74.0125,15.0739],[74.0081,15.0761],[74.005,15.0803],[74.003,15.086],[74.0034,15.0927],[74.0047,15.0965],[73.999,15.0986],[73.9962,15.097],[73.9911,15.0971],[73.9874,15.0962],[73.9811,15.0979],[73.9722,15.0943],[73.9603,15.088],[73.9589,15.0877],[73.9554,15.0928],[73.9528,15.0952],[73.9481,15.1056],[73.9436,15.1092],[73.9401,15.1137],[73.9385,15.1169],[73.9361,15.1103],[73.9338,15.1121],[73.9291,15.1101],[73.927,15.1084],[73.9235,15.1077],[73.9228,15.1043],[73.9257,15.1039],[73.9277,15.0953],[73.9251,15.0936],[73.9245,15.0907],[73.9173,15.0875],[73.9162,15.0846],[73.918,15.0821],[73.9223,15.0851],[73.927,15.0844],[73.9318,15.082],[73.9314,15.0792],[73.9331,15.0771],[73.9365,15.0771],[73.9422,15.0731],[73.9481,15.0735],[73.9543,15.0721],[73.9598,15.0672],[73.9634,15.0648],[73.9678,15.064],[73.9674,15.0613],[73.9704,15.0588],[73.9723,15.0534],[73.9721,15.0511],[73.975,15.0489],[73.9799,15.0516],[73.981,15.0534],[73.985,15.047],[73.9909,15.0323],[73.9907,15.0292],[73.9867,15.0279],[73.9868,15.0241],[73.9896,15.0225],[73.9896,15.0188],[73.9939,15.0165],[73.9978,15.0199],[73.9997,15.0174],[74.0018,15.0181],[74.0034,15.015],[74.0064,15.0161],[74.0082,15.0137],[74.0111,15.0122],[74.0141,15.0091],[74.0189,15.0173],[74.021,15.0172],[74.0209,15.0142],[74.0181,15.0133],[74.0176,15.0117],[74.0232,15.0092],[74.0265,15.0064],[74.0275,15.0025],[74.0297,15.0007],[74.0302,14.9983],[74.0328,14.9983],[74.0356,14.9943],[74.0354,14.9923],[74.0386,14.9872],[74.0392,14.984],[74.0366,14.9819],[74.0406,14.9809],[74.0501,14.9573],[74.0494,14.9541],[74.0477,14.9524],[74.0484,14.9494],[74.0455,14.9471],[74.0443,14.9424],[74.0458,14.9409],[74.047,14.934],[74.0451,14.9291],[74.0461,14.9243],[74.0429,14.9225],[74.0427,14.9208],[74.0445,14.9161],[74.048,14.9141],[74.0547,14.9131],[74.0571,14.9134],[74.0609,14.9091],[74.0649,14.9083],[74.0676,14.9062],[74.0701,14.9082],[74.0713,14.9061],[74.075,14.9084],[74.0811,14.9091],[74.0837,14.9058],[74.0841,14.9005],[74.0854,14.9003],[74.0882,14.9034],[74.0903,14.9034],[74.0945,14.911],[74.1016,14.9158],[74.1048,14.9129],[74.1085,14.9139],[74.1096,14.917],[74.1146,14.9184],[74.12,14.9169],[74.1204,14.9198],[74.1242,14.9253],[74.1298,14.9255],[74.135,14.9221],[74.1401,14.9232],[74.1437,14.9215],[74.1457,14.9189],[74.1534,14.9171],[74.1534,14.9163],[74.1621,14.9121],[74.1662,14.9165],[74.1626,14.9269],[74.1595,14.9284],[74.1562,14.9372],[74.1544,14.9394],[74.1555,14.9422],[74.1553,14.9465],[74.1583,14.9493],[74.1581,14.9531],[74.1636,14.9585],[74.1669,14.9585],[74.1714,14.9572],[74.1739,14.9586],[74.1795,14.9571],[74.1784,14.9537],[74.1822,14.9491],[74.1853,14.9473],[74.1913,14.945],[74.1948,14.9399],[74.1947,14.9371],[74.1917,14.933],[74.2,14.9264],[74.2015,14.9257],[74.2042,14.9283],[74.2091,14.9381],[74.2126,14.9403],[74.2116,14.9435],[74.2137,14.9477],[74.2175,14.946],[74.22,14.948],[74.224,14.9489],[74.226,14.9505],[74.2298,14.9505],[74.2317,14.9534],[74.2315,14.9581],[74.2329,14.9641],[74.235,14.9646],[74.2374,14.9671],[74.2414,14.9643],[74.2475,14.9619],[74.2526,14.9591],[74.2553,14.9704],[74.2591,14.9701],[74.261,14.9765],[74.2643,14.9785],[74.2582,14.9876],[74.2555,14.989],[74.2519,14.9934],[74.2534,14.9977],[74.2498,15.0011],[74.2425,15.0023],[74.2358,15.0103],[74.2333,15.017],[74.2319,15.0231],[74.2313,15.0283],[74.2317,15.0327],[74.2292,15.0357],[74.2199,15.0412],[74.2166,15.0443],[74.2082,15.0422],[74.1909,15.0413],[74.183,15.0402]]]},"properties":{"id":"in:subdistrict:5619","level":"subdistrict","name":"Canacona","code":5619,"parent":"in:district:552","state":"in:state:30"}},{"type":"Feature","geometry":{"type":"Polygon","coordinates":[[[74.1003,15.2683],[74.0928,15.2672],[74.0915,15.2675],[74.0888,15.2718],[74.0848,15.2759],[74.0825,15.2764],[74.0765,15.2731],[74.0744,15.2747],[74.0708,15.2711],[74.0694,15.2671],[74.0663,15.2662],[74.0625,15.2668],[74.0639,15.2611],[74.0632,15.2595],[74.0588,15.2592],[74.0574,15.2534],[74.0514,15.2527],[74.049,15.2496],[74.0447,15.2466],[74.0472,15.2387],[74.046,15.2302],[74.0489,15.2279],[74.0513,15.2275],[74.056,15.2252],[74.0612,15.2269],[74.0636,15.2244],[74.063,15.2209],[74.0608,15.2205],[74.0565,15.2177],[74.0554,15.2162],[74.0519,15.2149],[74.048,15.2155],[74.0451,15.2172],[74.046,15.2122],[74.0482,15.2062],[74.0471,15.2055],[74.0463,15.1988],[74.0417,15.1934],[74.035,15.1927],[74.0352,15.1846],[74.0377,15.1805],[74.0411,15.1767],[74.0392,15.1748],[74.0327,15.1741],[74.0233,15.1713],[74.0244,15.165],[74.0176,15.1636],[74.0187,15.1617],[74.0136,15.1565],[74.0091,15.1513],[74.0006,15.1552],[73.9914,15.1538],[73.9811,15.1484],[73.9806,15.1466],[73.9755,15.1436],[73.9735,15.1435],[73.97,15.1401],[73.9679,15.1394],[73.9636,15.1406],[73.9612,15.137],[73.9565,15.1355],[73.9557,15.1355],[73.9503,15.1403],[73.9465,15.1408],[73.9456,15.1379],[73.9428,15.1341],[73.9363,15.1313],[73.938,15.1291],[73.9405,15.1281],[73.9416,15.1187],[73.9385,15.1169],[73.9401,15.1137],[73.9436,15.1092],[73.9481,15.1056],[73.9528,15.0952],[73.9554,15.0928],[73.9589,15.0877],[73.9603,15.088],[73.9722,15.0943],[73.9811,15.0979],[73.9874,15.0962],[73.9911,15.0971],[73.9962,15.097],[73.999,15.0986],[74.0047,15.0965],[74.0034,15.0927],[74.003,15.086],[74.005,15.0803],[74.0081,15.0761],[74.0125,15.0739],[74.0142,15.0716],[74.0169,15.0707],[74.0142,15.0663],[74.0112,15.0653],[74.0106,15.0633],[74.0135,15.0574],[74.0151,15.0521],[74.0195,15.0521],[74.0239,15.0506],[74.0271,15.051],[74.0334,15.0499],[74.0371,15.0512],[74.0447,15.0493],[74.0528,15.0463],[74.059,15.0504],[74.0623,15.0514],[74.0688,15.0505],[74.0713,15.0528],[74.0736,15.053],[74.0811,15.0505],[74.0843,15.0514],[74.093,15.0468],[74.0964,15.0417],[74.0982,15.0412],[74.1051,15.0539],[74.1119,15.0595],[74.1251,15.0635],[74.1283,15.0653],[74.1361,15.0669],[74.1406,15.0665],[74.1445,15.065],[74.1497,15.0664],[74.1579,15.0649],[74.1626,15.0652],[74.1659,15.0618],[74.1704,15.0589],[74.1707,15.0572],[74.1674,15.0519],[74.1643,15.0516],[74.1616,15.0481],[74.1632,15.0469],[74.1661,15.0472],[74.167,15.0436],[74.1696,15.0439],[74.1748,15.0421],[74.177,15.0399],[74.1795,15.0394],[74.183,15.0402],[74.1854,15.0428],[74.1872,15.0483],[74.1873,15.0515],[74.1893,15.0546],[74.1914,15.0558],[74.1935,15.0624],[74.1901,15.0649],[74.1908,15.0686],[74.1983,15.0693],[74.1992,15.0716],[74.1953,15.0773],[74.1923,15.0796],[74.1892,15.0807],[74.1863,15.0797],[74.1819,15.0812],[74.1752,15.0815],[74.1745,15.0841],[74.1723,15.0849],[74.1734,15.0889],[74.1752,15.0899],[74.1754,15.0928],[74.1775,15.1051],[74.1788,15.1072],[74.1742,15.1133],[74.1708,15.1135],[74.1713,15.1158],[74.1688,15.1193],[74.1616,15.122],[74.157,15.1225],[74.1539,15.1207],[74.1511,15.1177],[74.1429,15.1133],[74.1371,15.1144],[74.1345,15.1167],[74.1344,15.119],[74.1312,15.1193],[74.1287,15.1229],[74.1266,15.1214],[74.1273,15.1188],[74.1239,15.1148],[74.1205,15.1144],[74.117,15.1156],[74.1104,15.1143],[74.1092,15.1107],[74.1069,15.107],[74.1053,15.1062],[74.1026,15.1073],[74.1029,15.1116],[74.1018,15.1164],[74.0998,15.1198],[74.1002,15.1262],[74.0971,15.1316],[74.097,15.134],[74.0897,15.1351],[74.0868,15.1342],[74.0842,15.136],[74.0803,15.1415],[74.0797,15.1468],[74.0806,15.1474],[74.0789,15.1536],[74.0771,15.1557],[74.071,15.1558],[74.064,15.1604],[74.0679,15.166],[74.0678,15.1695],[74.066,15.1761],[74.0691,15.1775],[74.0716,15.1763],[74.0779,15.1792],[74.0795,15.1814],[74.0822,15.1809],[74.0854,15.1821],[74.0872,15.1845],[74.0898,15.1854],[74.0917,15.1879],[74.0966,15.1895],[74.0974,15.1878],[74.1003,15.1875],[74.1021,15.1888],[74.1063,15.1883],[74.1111,15.1808],[74.1137,15.1798],[74.1148,15.1759],[74.1189,15.1729],[74.1202,15.17],[74.1244,15.1678],[74.1266,15.1697],[74.1286,15.1693],[74.1313,15.1714],[74.1487,15.1664],[74.155,15.1693],[74.1561,15.1709],[74.1675,15.1732],[74.173,15.1758],[74.1738,15.1808],[74.1755,15.1847],[74.1715,15.1912],[74.1669,15.1904],[74.1614,15.1913],[74.1599,15.1949],[74.1552,15.1988],[74.1524,15.202],[74.1485,15.2036],[74.1435,15.2081],[74.1383,15.21],[74.1351,15.2094],[74.1341,15.2118],[74.1308,15.215],[74.1283,15.2205],[74.1283,15.2257],[74.1324,15.2293],[74.1375,15.2317],[74.1395,15.2314],[74.1431,15.2327],[74.1453,15.2364],[74.1478,15.2364],[74.1489,15.239],[74.1472,15.2399],[74.1442,15.2387],[74.1439,15.243],[74.1426,15.2442],[74.1392,15.2442],[74.1378,15.2454],[74.1387,15.2481],[74.136,15.2515],[74.1341,15.2523],[74.1302,15.2495],[74.1285,15.2515],[74.1285,15.2558],[74.1269,15.2576],[74.1245,15.2569],[74.1218,15.2591],[74.1231,15.2642],[74.1208,15.2693],[74.1181,15.2692],[74.1146,15.2643],[74.1104,15.2656],[74.1043,15.2649],[74.1003,15.2683]]]},"properties":{"id":"in:subdistrict:5617","level":"subdistrict","name":"Quepem","code":5617,"parent":"in:district:552","state":"in:state:30"}},{"type":"Feature","geometry":{"type":"Polygon","coordinates":[[[74.0744,15.2747],[74.073,15.2785],[74.0702,15.2823],[74.0697,15.2856],[74.0712,15.2892],[74.071,15.2915],[74.0661,15.2956],[74.0592,15.298],[74.0526,15.2989],[74.0457,15.2982],[74.0433,15.2996],[74.0408,15.3049],[74.0386,15.306],[74.0296,15.3015],[74.0262,15.3008],[74.0182,15.3011],[74.0142,15.3024],[74.0121,15.305],[74.0125,15.3083],[74.0106,15.312],[74.0086,15.3214],[74.0053,15.3347],[74.0053,15.3376],[74.0067,15.3421],[74.0056,15.3467],[74.0022,15.3486],[73.9997,15.3511],[73.9977,15.3513],[73.9905,15.354],[73.9876,15.3562],[73.9807,15.3639],[73.9778,15.3665],[73.972,15.3677],[73.9658,15.3674],[73.9604,15.3698],[73.9575,15.374],[73.9516,15.374],[73.9481,15.3726],[73.9447,15.3697],[73.9405,15.37],[73.9359,15.3693],[73.9327,15.3697],[73.9301,15.3716],[73.9267,15.3712],[73.9256,15.3644],[73.9205,15.364],[73.9186,15.3674],[73.9168,15.3637],[73.9149,15.3565],[73.912,15.356],[73.9126,15.353],[73.9112,15.3484],[73.9155,15.3423],[73.9133,15.3381],[73.9138,15.3347],[73.9067,15.3319],[73.9077,15.3245],[73.9046,15.3247],[73.8966,15.3238],[73.9008,15.3121],[73.9021,15.3096],[73.9035,15.3038],[73.9052,15.3001],[73.9085,15.2908],[73.9083,15.289],[73.9136,15.2719],[73.9172,15.2628],[73.92,15.2513],[73.922,15.2481],[73.9257,15.2363],[73.9261,15.2331],[73.9283,15.2281],[73.9278,15.2268],[73.9303,15.2208],[73.9305,15.2177],[73.9331,15.2077],[73.9342,15.2047],[73.9352,15.199],[73.9387,15.1846],[73.9399,15.1812],[73.9468,15.1539],[73.9499,15.1432],[73.9532,15.1404],[73.9565,15.1355],[73.9612,15.137],[73.9636,15.1406],[73.9679,15.1394],[73.97,15.1401],[73.9735,15.1435],[73.9755,15.1436],[73.9806,15.1466],[73.9811,15.1484],[73.9914,15.1538],[74.0006,15.1552],[74.0091,15.1513],[74.0136,15.1565],[74.0187,15.1617],[74.0176,15.1636],[74.0244,15.165],[74.0233,15.1713],[74.0327,15.1741],[74.0392,15.1748],[74.0411,15.1767],[74.0377,15.1805],[74.0352,15.1846],[74.035,15.1927],[74.0417,15.1934],[74.0463,15.1988],[74.0471,15.2055],[74.0482,15.2062],[74.046,15.2122],[74.0451,15.2172],[74.048,15.2155],[74.0519,15.2149],[74.0554,15.2162],[74.0565,15.2177],[74.0608,15.2205],[74.063,15.2209],[74.0636,15.2244],[74.0612,15.2269],[74.056,15.2252],[74.0513,15.2275],[74.0489,15.2279],[74.046,15.2302],[74.0472,15.2387],[74.0447,15.2466],[74.049,15.2496],[74.0514,15.2527],[74.0574,15.2534],[74.0588,15.2592],[74.0632,15.2595],[74.0639,15.2611],[74.0625,15.2668],[74.0663,15.2662],[74.0694,15.2671],[74.0708,15.2711],[74.0744,15.2747]]]},"properties":{"id":"in:subdistrict:5616","level":"subdistrict","name":"Salcete","code":5616,"parent":"in:district:552","state":"in:state:30"}},{"type":"Feature","geometry":{"type":"Polygon","coordinates":[[[73.9575,15.374],[73.9553,15.3878],[73.9505,15.3999],[73.9472,15.4024],[73.942,15.4035],[73.9371,15.4037],[73.9283,15.4051],[73.918,15.4082],[73.9078,15.41],[73.8988,15.4095],[73.8852,15.4128],[73.8751,15.4164],[73.8646,15.4167],[73.8621,15.4174],[73.8544,15.4218],[73.8466,15.4252],[73.8393,15.4272],[73.8265,15.4287],[73.8204,15.4288],[73.8096,15.4297],[73.7956,15.4337],[73.786,15.4373],[73.7919,15.4192],[73.7904,15.4133],[73.7892,15.412],[73.7844,15.4128],[73.7832,15.4095],[73.7844,15.4067],[73.7868,15.4049],[73.7879,15.402],[73.7911,15.3987],[73.7898,15.3953],[73.7922,15.3928],[73.8007,15.3929],[73.8043,15.3935],[73.806,15.3918],[73.8082,15.384],[73.8078,15.3769],[73.8118,15.3758],[73.8163,15.3722],[73.8217,15.3719],[73.8229,15.3697],[73.8289,15.3679],[73.8317,15.3695],[73.8347,15.3672],[73.8375,15.3612],[73.8424,15.3584],[73.8513,15.359],[73.8533,15.3609],[73.8548,15.3644],[73.8633,15.3649],[73.8634,15.3677],[73.8713,15.3692],[73.8737,15.3679],[73.8792,15.3619],[73.8844,15.3528],[73.8922,15.3353],[73.8945,15.3308],[73.895,15.3274],[73.8966,15.3238],[73.9046,15.3247],[73.9077,15.3245],[73.9067,15.3319],[73.9138,15.3347],[73.9133,15.3381],[73.9155,15.3423],[73.9112,15.3484],[73.9126,15.353],[73.912,15.356],[73.9149,15.3565],[73.9168,15.3637],[73.9186,15.3674],[73.9205,15.364],[73.9256,15.3644],[73.9267,15.3712],[73.9301,15.3716],[73.9327,15.3697],[73.9359,15.3693],[73.9405,15.37],[73.9447,15.3697],[73.9481,15.3726],[73.9516,15.374],[73.9575,15.374]]]},"properties":{"id":"in:subdistrict:5615","level":"subdistrict","name":"Mormugao","code":5615,"parent":"in:district:552","state":"in:state:30"}},{"type":"Feature","geometry":{"type":"Polygon","coordinates":[[[73.918,15.4082],[73.9215,15.4153],[73.9267,15.4214],[73.9274,15.4233],[73.9271,15.4281],[73.9305,15.4325],[73.935,15.4347],[73.94,15.4353],[73.9459,15.4377],[73.947,15.4415],[73.9453,15.4463],[73.9459,15.4531],[73.9488,15.4586],[73.9505,15.4597],[73.956,15.4606],[73.9582,15.4647],[73.9572,15.4685],[73.9534,15.4719],[73.9511,15.476],[73.952,15.4804],[73.9555,15.4843],[73.9555,15.4923],[73.9544,15.498],[73.9624,15.502],[73.9599,15.507],[73.9583,15.5086],[73.955,15.5092],[73.9506,15.5125],[73.9497,15.517],[73.9449,15.5222],[73.9541,15.5263],[73.9556,15.5304],[73.9581,15.5338],[73.9585,15.5364],[73.9622,15.5388],[73.9557,15.5459],[73.9512,15.5485],[73.9472,15.5476],[73.9405,15.5415],[73.935,15.5377],[73.9293,15.535],[73.9266,15.536],[73.9244,15.5383],[73.9212,15.5395],[73.9184,15.5434],[73.9113,15.5481],[73.9106,15.5501],[73.9078,15.5517],[73.9067,15.5554],[73.904,15.5573],[73.9057,15.5587],[73.9046,15.5624],[73.9029,15.5615],[73.9001,15.565],[73.8972,15.564],[73.8983,15.5602],[73.8975,15.5563],[73.8953,15.5554],[73.8912,15.5581],[73.893,15.5608],[73.8909,15.5632],[73.8882,15.5636],[73.8858,15.5673],[73.8766,15.5636],[73.8732,15.5633],[73.8692,15.5606],[73.8688,15.5584],[73.8708,15.5531],[73.869,15.5449],[73.8694,15.541],[73.8713,15.5386],[73.8762,15.5339],[73.8756,15.5298],[73.8727,15.5275],[73.8679,15.5264],[73.8621,15.5234],[73.8545,15.5223],[73.8503,15.5197],[73.8453,15.5115],[73.845,15.509],[73.8463,15.5045],[73.8431,15.5017],[73.8368,15.5005],[73.8307,15.5022],[73.8246,15.5022],[73.8195,15.5049],[73.817,15.5025],[73.817,15.4997],[73.8132,15.4926],[73.8073,15.4891],[73.8005,15.4858],[73.7879,15.4782],[73.7815,15.4756],[73.7897,15.4638],[73.7879,15.4626],[73.7882,15.4592],[73.786,15.4373],[73.7956,15.4337],[73.8096,15.4297],[73.8204,15.4288],[73.8265,15.4287],[73.8393,15.4272],[73.8466,15.4252],[73.8544,15.4218],[73.8621,15.4174],[73.8646,15.4167],[73.8751,15.4164],[73.8852,15.4128],[73.8988,15.4095],[73.9078,15.41],[73.918,15.4082]]]},"properties":{"id":"in:subdistrict:5611","level":"subdistrict","name":"Tiswadi","code":5611,"parent":"in:district:551","state":"in:state:30"}},{"type":"Feature","geometry":{"type":"MultiPolygon","coordinates":[[[[73.6958,15.7241],[73.6936,15.7242],[73.6925,15.7282],[73.6876,15.7299],[73.6785,15.729],[73.677,15.7259],[73.6811,15.7246],[73.6835,15.7204],[73.6889,15.7227],[73.6917,15.7218],[73.6958,15.7217],[73.6958,15.7241]]],[[[73.907,15.75],[73.9073,15.7483],[73.8992,15.746],[73.8958,15.7484],[73.8854,15.751],[73.8811,15.7498],[73.8757,15.7513],[73.8729,15.7547],[73.8731,15.7609],[73.8748,15.7614],[73.877,15.7644],[73.875,15.7666],[73.8771,15.7678],[73.8801,15.7728],[73.8801,15.7743],[73.8764,15.7747],[73.8735,15.7771],[73.8698,15.7835],[73.866,15.7856],[73.8648,15.7908],[73.8662,15.7956],[73.8675,15.797],[73.8634,15.7988],[73.8557,15.801],[73.8528,15.7971],[73.8508,15.7903],[73.8471,15.7858],[73.8526,15.7821],[73.8498,15.7795],[73.8439,15.7811],[73.8408,15.7761],[73.8385,15.7676],[73.8373,15.7663],[73.8315,15.7654],[73.8296,15.7636],[73.8307,15.7579],[73.8308,15.7541],[73.828,15.7491],[73.8269,15.7437],[73.8224,15.7405],[73.8182,15.7395],[73.8124,15.7422],[73.8094,15.742],[73.8066,15.7377],[73.7972,15.7342],[73.7932,15.7372],[73.7889,15.7348],[73.7886,15.7307],[73.7875,15.7283],[73.784,15.7261],[73.7786,15.7288],[73.7769,15.7284],[73.7703,15.7303],[73.7652,15.7339],[73.7644,15.7333],[73.7557,15.7356],[73.7527,15.7351],[73.7428,15.7366],[73.7394,15.7345],[73.7348,15.7295],[73.7319,15.7205],[73.7263,15.717],[73.7246,15.7197],[73.7221,15.7209],[73.7199,15.7238],[73.7167,15.7244],[73.7133,15.7234],[73.7105,15.7241],[73.704,15.7209],[73.7012,15.7205],[73.6992,15.718],[73.6937,15.718],[73.6929,15.7192],[73.6894,15.718],[73.6938,15.7068],[73.6943,15.6995],[73.6973,15.6968],[73.6991,15.6905],[73.7013,15.6895],[73.7036,15.6832],[73.7049,15.6749],[73.707,15.6703],[73.7114,15.6632],[73.7151,15.6477],[73.7183,15.6396],[73.7221,15.6322],[73.7229,15.6278],[73.7248,15.6276],[73.7276,15.6247],[73.7327,15.6149],[73.7355,15.6118],[73.7402,15.612],[73.741,15.6175],[73.7438,15.6217],[73.7482,15.6245],[73.7543,15.631],[73.7575,15.6326],[73.7621,15.6325],[73.7668,15.6365],[73.7725,15.6393],[73.7746,15.6423],[73.7772,15.6488],[73.7788,15.6506],[73.7826,15.6518],[73.7895,15.6512],[73.795,15.6481],[73.7974,15.6477],[73.8087,15.6522],[73.8157,15.6534],[73.8201,15.6525],[73.824,15.6501],[73.8332,15.6507],[73.8381,15.6461],[73.8402,15.6462],[73.8419,15.6493],[73.8411,15.6537],[73.8406,15.6611],[73.8409,15.6635],[73.8433,15.6654],[73.8505,15.6681],[73.855,15.6742],[73.8653,15.6799],[73.8723,15.6785],[73.8824,15.6812],[73.8851,15.683],[73.8843,15.6893],[73.8859,15.6929],[73.8937,15.7013],[73.896,15.7019],[73.9004,15.7009],[73.9031,15.6992],[73.9048,15.6949],[73.9076,15.6938],[73.9085,15.692],[73.9114,15.6909],[73.9148,15.6883],[73.9178,15.6889],[73.9208,15.6922],[73.9247,15.6943],[73.9268,15.6967],[73.9343,15.7004],[73.9403,15.6997],[73.9438,15.6975],[73.9477,15.7013],[73.9482,15.7067],[73.9498,15.7108],[73.9522,15.7139],[73.9517,15.7165],[73.9491,15.718],[73.9457,15.7225],[73.9421,15.7285],[73.9405,15.7342],[73.9409,15.7381],[73.9377,15.7433],[73.9337,15.7446],[73.9238,15.7447],[73.9175,15.7457],[73.9148,15.7454],[73.907,15.75]]]]},"properties":{"id":"in:subdistrict:5609","level":"subdistrict","name":"Pernem","code":5609,"parent":"in:district:551","state":"in:state:30"}},{"type":"Feature","geometry":{"type":"Polygon","coordinates":[[[73.9046,15.5624],[73.9056,15.5644],[73.9023,15.5671],[73.9011,15.5745],[73.8969,15.5749],[73.8959,15.5722],[73.8928,15.5715],[73.8885,15.5734],[73.8871,15.5769],[73.8875,15.5812],[73.8889,15.5826],[73.889,15.5871],[73.8908,15.5889],[73.8943,15.5904],[73.8961,15.5939],[73.8966,15.5976],[73.8913,15.6005],[73.8919,15.6032],[73.8894,15.6065],[73.8862,15.6087],[73.8904,15.6128],[73.8928,15.6105],[73.8963,15.6088],[73.8983,15.6096],[73.8998,15.6122],[73.9021,15.6135],[73.908,15.613],[73.9071,15.6174],[73.9058,15.619],[73.9061,15.6222],[73.9095,15.6241],[73.9076,15.6267],[73.9091,15.6287],[73.9077,15.6338],[73.9056,15.6341],[73.9041,15.6321],[73.8986,15.6294],[73.8939,15.6308],[73.8905,15.6303],[73.8909,15.6334],[73.8859,15.6388],[73.8864,15.6423],[73.8838,15.6416],[73.881,15.6433],[73.8807,15.6466],[73.8855,15.6468],[73.8903,15.6498],[73.8962,15.6491],[73.9014,15.6522],[73.9022,15.6546],[73.9023,15.6604],[73.9041,15.6672],[73.9007,15.6724],[73.8996,15.676],[73.8969,15.6788],[73.8955,15.6817],[73.8881,15.6819],[73.8851,15.683],[73.8824,15.6812],[73.8723,15.6785],[73.8653,15.6799],[73.855,15.6742],[73.8505,15.6681],[73.8433,15.6654],[73.8409,15.6635],[73.8406,15.6611],[73.8411,15.6537],[73.8419,15.6493],[73.8402,15.6462],[73.8381,15.6461],[73.8332,15.6507],[73.824,15.6501],[73.8201,15.6525],[73.8157,15.6534],[73.8087,15.6522],[73.7974,15.6477],[73.795,15.6481],[73.7895,15.6512],[73.7826,15.6518],[73.7788,15.6506],[73.7772,15.6488],[73.7746,15.6423],[73.7725,15.6393],[73.7668,15.6365],[73.7621,15.6325],[73.7575,15.6326],[73.7543,15.631],[73.7482,15.6245],[73.7438,15.6217],[73.741,15.6175],[73.7402,15.612],[73.7433,15.6051],[73.7389,15.6078],[73.7329,15.6075],[73.7328,15.6048],[73.7341,15.6005],[73.7319,15.5978],[73.7343,15.5923],[73.7322,15.5899],[73.733,15.5873],[73.7352,15.5865],[73.7389,15.5744],[73.7413,15.5685],[73.7419,15.5624],[73.7456,15.5597],[73.7486,15.5616],[73.7515,15.5562],[73.7526,15.5516],[73.7559,15.5435],[73.7563,15.5402],[73.7606,15.5254],[73.7657,15.5059],[73.7679,15.4991],[73.7666,15.4928],[73.7695,15.4906],[73.7742,15.4903],[73.7757,15.4891],[73.7815,15.4756],[73.7879,15.4782],[73.8005,15.4858],[73.8073,15.4891],[73.8132,15.4926],[73.817,15.4997],[73.817,15.5025],[73.8195,15.5049],[73.8246,15.5022],[73.8307,15.5022],[73.8368,15.5005],[73.8431,15.5017],[73.8463,15.5045],[73.845,15.509],[73.8453,15.5115],[73.8503,15.5197],[73.8545,15.5223],[73.8621,15.5234],[73.8679,15.5264],[73.8727,15.5275],[73.8756,15.5298],[73.8762,15.5339],[73.8713,15.5386],[73.8694,15.541],[73.869,15.5449],[73.8708,15.5531],[73.8688,15.5584],[73.8692,15.5606],[73.8732,15.5633],[73.8766,15.5636],[73.8858,15.5673],[73.8882,15.5636],[73.8909,15.5632],[73.893,15.5608],[73.8912,15.5581],[73.8953,15.5554],[73.8975,15.5563],[73.8983,15.5602],[73.8972,15.564],[73.9001,15.565],[73.9029,15.5615],[73.9046,15.5624]]]},"properties":{"id":"in:subdistrict:5610","level":"subdistrict","name":"Bardez","code":5610,"parent":"in:district:551","state":"in:state:30"}},{"type":"Feature","geometry":{"type":"Polygon","coordinates":[[[73.9622,15.5388],[73.9651,15.5367],[73.9672,15.5336],[73.9708,15.5248],[73.9721,15.5238],[73.9791,15.5211],[73.9842,15.5199],[73.9893,15.5176],[73.9958,15.5131],[73.9982,15.5087],[73.9998,15.5017],[74.0023,15.4992],[74.0061,15.498],[74.0163,15.4965],[74.0202,15.4933],[74.0217,15.4911],[74.0237,15.4795],[74.0309,15.4783],[74.0314,15.476],[74.0263,15.4728],[74.0291,15.4692],[74.0351,15.4656],[74.0349,15.4578],[74.0375,15.4548],[74.0395,15.454],[74.0416,15.4504],[74.0406,15.4488],[74.0346,15.4501],[74.0351,15.4455],[74.0366,15.4445],[74.0392,15.4455],[74.0425,15.442],[74.0475,15.4395],[74.0486,15.4379],[74.0469,15.4334],[74.0485,15.4321],[74.0505,15.4343],[74.0528,15.4347],[74.0544,15.4328],[74.054,15.4294],[74.0512,15.4282],[74.0528,15.4243],[74.049,15.4194],[74.0522,15.4164],[74.0523,15.412],[74.0554,15.4107],[74.0563,15.4057],[74.0589,15.4077],[74.0625,15.4083],[74.0644,15.4115],[74.0679,15.411],[74.0693,15.4125],[74.0721,15.4115],[74.0833,15.4166],[74.085,15.419],[74.0889,15.4197],[74.0991,15.4236],[74.1046,15.4261],[74.1101,15.4178],[74.1115,15.4268],[74.1144,15.4292],[74.1173,15.4303],[74.1127,15.4358],[74.1066,15.4412],[74.1051,15.4397],[74.1032,15.4347],[74.0965,15.4331],[74.0937,15.4378],[74.0948,15.4397],[74.0914,15.4461],[74.0875,15.4467],[74.0862,15.4496],[74.079,15.453],[74.0766,15.4572],[74.0777,15.4599],[74.0831,15.4652],[74.0878,15.4659],[74.0954,15.468],[74.0908,15.4757],[74.0868,15.4765],[74.0844,15.4778],[74.0831,15.4802],[74.0811,15.4802],[74.0734,15.4849],[74.0698,15.4916],[74.0699,15.4946],[74.0712,15.4965],[74.0704,15.4992],[74.0673,15.5016],[74.0624,15.5064],[74.0519,15.5109],[74.0472,15.5161],[74.0436,15.5234],[74.0397,15.5266],[74.0376,15.5298],[74.0394,15.5351],[74.0387,15.5373],[74.0408,15.5383],[74.0399,15.5409],[74.0433,15.547],[74.044,15.5506],[74.0487,15.5547],[74.0543,15.5611],[74.0557,15.5659],[74.0515,15.5704],[74.0433,15.5713],[74.0381,15.5686],[74.0332,15.565],[74.0292,15.5652],[74.0264,15.5666],[74.023,15.5638],[74.0197,15.5635],[74.0169,15.5658],[74.0143,15.5654],[74.0114,15.5668],[74.0082,15.5662],[74.0058,15.5675],[74.0035,15.5672],[73.9982,15.5721],[73.9971,15.5777],[73.9979,15.5813],[73.9961,15.5835],[73.9909,15.5842],[73.9895,15.5852],[73.988,15.5914],[73.9864,15.5924],[73.9839,15.5979],[73.9809,15.5968],[73.9779,15.5975],[73.9743,15.596],[73.97,15.6035],[73.9673,15.6039],[73.9625,15.6068],[73.9519,15.6094],[73.946,15.6135],[73.9447,15.6169],[73.9516,15.6206],[73.958,15.62],[73.9604,15.6185],[73.9639,15.6206],[73.9714,15.6262],[73.9708,15.6274],[73.9679,15.6306],[73.9674,15.6353],[73.9618,15.6417],[73.9611,15.6484],[73.9629,15.6531],[73.9678,15.6603],[73.9648,15.671],[73.9633,15.6717],[73.9626,15.6771],[73.9636,15.6808],[73.9642,15.6885],[73.9638,15.6923],[73.9575,15.7003],[73.9524,15.6993],[73.9503,15.6972],[73.9438,15.6975],[73.9403,15.6997],[73.9343,15.7004],[73.9268,15.6967],[73.9247,15.6943],[73.9208,15.6922],[73.9178,15.6889],[73.9148,15.6883],[73.9114,15.6909],[73.9085,15.692],[73.9076,15.6938],[73.9048,15.6949],[73.9031,15.6992],[73.9004,15.7009],[73.896,15.7019],[73.8937,15.7013],[73.8859,15.6929],[73.8843,15.6893],[73.8851,15.683],[73.8881,15.6819],[73.8955,15.6817],[73.8969,15.6788],[73.8996,15.676],[73.9007,15.6724],[73.9041,15.6672],[73.9023,15.6604],[73.9022,15.6546],[73.9014,15.6522],[73.8962,15.6491],[73.8903,15.6498],[73.8855,15.6468],[73.8807,15.6466],[73.881,15.6433],[73.8838,15.6416],[73.8864,15.6423],[73.8859,15.6388],[73.8909,15.6334],[73.8905,15.6303],[73.8939,15.6308],[73.8986,15.6294],[73.9041,15.6321],[73.9056,15.6341],[73.9077,15.6338],[73.9091,15.6287],[73.9076,15.6267],[73.9095,15.6241],[73.9061,15.6222],[73.9058,15.619],[73.9071,15.6174],[73.908,15.613],[73.9021,15.6135],[73.8998,15.6122],[73.8983,15.6096],[73.8963,15.6088],[73.8928,15.6105],[73.8904,15.6128],[73.8862,15.6087],[73.8894,15.6065],[73.8919,15.6032],[73.8913,15.6005],[73.8966,15.5976],[73.8961,15.5939],[73.8943,15.5904],[73.8908,15.5889],[73.889,15.5871],[73.8889,15.5826],[73.8875,15.5812],[73.8871,15.5769],[73.8885,15.5734],[73.8928,15.5715],[73.8959,15.5722],[73.8969,15.5749],[73.9011,15.5745],[73.9023,15.5671],[73.9056,15.5644],[73.9046,15.5624],[73.9057,15.5587],[73.904,15.5573],[73.9067,15.5554],[73.9078,15.5517],[73.9106,15.5501],[73.9113,15.5481],[73.9184,15.5434],[73.9212,15.5395],[73.9244,15.5383],[73.9266,15.536],[73.9293,15.535],[73.935,15.5377],[73.9405,15.5415],[73.9472,15.5476],[73.9512,15.5485],[73.9557,15.5459],[73.9622,15.5388]]]},"properties":{"id":"in:subdistrict:5612","level":"subdistrict","name":"Bicholim","code":5612,"parent":"in:district:551","state":"in:state:30"}},{"type":"Feature","geometry":{"type":"Polygon","coordinates":[[[74.2782,15.5228],[74.2823,15.5274],[74.2822,15.5339],[74.2796,15.54],[74.2787,15.5442],[74.2772,15.5469],[74.273,15.5502],[74.2717,15.5524],[74.2653,15.5584],[74.2632,15.5639],[74.261,15.5647],[74.2597,15.5623],[74.2575,15.5619],[74.2492,15.5678],[74.2453,15.5672],[74.2505,15.5774],[74.2487,15.5804],[74.2602,15.5926],[74.2596,15.5963],[74.2608,15.6007],[74.26,15.6067],[74.2619,15.6084],[74.2642,15.6159],[74.2612,15.6193],[74.2586,15.6208],[74.2585,15.6234],[74.2537,15.6267],[74.2483,15.6229],[74.2442,15.6261],[74.2477,15.6402],[74.252,15.6543],[74.2504,15.6573],[74.2449,15.6582],[74.243,15.6624],[74.2386,15.6634],[74.2364,15.6686],[74.2333,15.668],[74.2284,15.6644],[74.2246,15.6663],[74.2238,15.669],[74.218,15.6643],[74.2151,15.6629],[74.2177,15.6584],[74.2222,15.6569],[74.2222,15.6556],[74.2175,15.6527],[74.2051,15.651],[74.2018,15.6563],[74.2026,15.6631],[74.1868,15.6674],[74.1861,15.6745],[74.1909,15.6764],[74.1903,15.6803],[74.1819,15.6822],[74.1764,15.6801],[74.1716,15.6738],[74.1688,15.6729],[74.1668,15.6698],[74.1657,15.6649],[74.165,15.6579],[74.1656,15.6544],[74.1644,15.6535],[74.1575,15.6547],[74.1544,15.6499],[74.1511,15.6519],[74.1411,15.6511],[74.1355,15.6484],[74.1273,15.6511],[74.1196,15.6524],[74.1183,15.652],[74.1161,15.6492],[74.1141,15.6488],[74.1139,15.6461],[74.1101,15.6469],[74.1031,15.6448],[74.1011,15.6427],[74.0975,15.641],[74.0943,15.6424],[74.0885,15.639],[74.0838,15.6349],[74.0785,15.6318],[74.0776,15.6322],[74.0701,15.6292],[74.0658,15.6297],[74.0634,15.6265],[74.0599,15.6273],[74.0507,15.6249],[74.0414,15.6245],[74.0328,15.6226],[74.0312,15.6226],[74.0277,15.6167],[74.0264,15.6116],[74.0208,15.6061],[74.0088,15.6102],[74.0021,15.6111],[73.9934,15.6106],[73.9905,15.6122],[73.9879,15.6167],[73.9808,15.6241],[73.9791,15.6271],[73.9708,15.6274],[73.9714,15.6262],[73.9639,15.6206],[73.9604,15.6185],[73.958,15.62],[73.9516,15.6206],[73.9447,15.6169],[73.946,15.6135],[73.9519,15.6094],[73.9625,15.6068],[73.9673,15.6039],[73.97,15.6035],[73.9743,15.596],[73.9779,15.5975],[73.9809,15.5968],[73.9839,15.5979],[73.9864,15.5924],[73.988,15.5914],[73.9895,15.5852],[73.9909,15.5842],[73.9961,15.5835],[73.9979,15.5813],[73.9971,15.5777],[73.9982,15.5721],[74.0035,15.5672],[74.0058,15.5675],[74.0082,15.5662],[74.0114,15.5668],[74.0143,15.5654],[74.0169,15.5658],[74.0197,15.5635],[74.023,15.5638],[74.0264,15.5666],[74.0292,15.5652],[74.0332,15.565],[74.0381,15.5686],[74.0433,15.5713],[74.0515,15.5704],[74.0557,15.5659],[74.0543,15.5611],[74.0487,15.5547],[74.044,15.5506],[74.0433,15.547],[74.0399,15.5409],[74.0408,15.5383],[74.0387,15.5373],[74.0394,15.5351],[74.0376,15.5298],[74.0397,15.5266],[74.0436,15.5234],[74.0472,15.5161],[74.0519,15.5109],[74.0624,15.5064],[74.0673,15.5016],[74.0704,15.4992],[74.0712,15.4965],[74.0699,15.4946],[74.0698,15.4916],[74.0734,15.4849],[74.0811,15.4802],[74.0831,15.4802],[74.0844,15.4778],[74.0868,15.4765],[74.0908,15.4757],[74.0954,15.468],[74.0878,15.4659],[74.0831,15.4652],[74.0777,15.4599],[74.0766,15.4572],[74.079,15.453],[74.0862,15.4496],[74.0875,15.4467],[74.0914,15.4461],[74.0948,15.4397],[74.0937,15.4378],[74.0965,15.4331],[74.1032,15.4347],[74.1051,15.4397],[74.1066,15.4412],[74.1127,15.4358],[74.1173,15.4303],[74.1191,15.4305],[74.1211,15.4333],[74.1259,15.4368],[74.1282,15.4353],[74.1343,15.4337],[74.1377,15.4353],[74.139,15.4378],[74.1409,15.4373],[74.1446,15.438],[74.1487,15.4374],[74.1518,15.4385],[74.1523,15.4407],[74.1562,15.4386],[74.161,15.441],[74.164,15.4402],[74.1692,15.4421],[74.1709,15.4387],[74.1795,15.4361],[74.1831,15.441],[74.1881,15.4433],[74.1897,15.4459],[74.1902,15.4544],[74.1924,15.4561],[74.1967,15.4624],[74.2009,15.4659],[74.2063,15.4688],[74.2096,15.4694],[74.2153,15.4721],[74.2229,15.4745],[74.2266,15.479],[74.232,15.4829],[74.2411,15.4867],[74.2462,15.4873],[74.2475,15.4897],[74.2515,15.4908],[74.2509,15.4918],[74.2523,15.4993],[74.2538,15.5017],[74.2603,15.5065],[74.2704,15.5103],[74.2739,15.5122],[74.2785,15.5175],[74.2782,15.5228]]]},"properties":{"id":"in:subdistrict:5613","level":"subdistrict","name":"Satari","code":5613,"parent":"in:district:551","state":"in:state:30"}},{"type":"Feature","geometry":{"type":"Polygon","coordinates":[[[74.1025,15.289],[74.0974,15.2929],[74.096,15.2946],[74.0919,15.2956],[74.0918,15.2976],[74.0887,15.2987],[74.0891,15.3014],[74.0912,15.3031],[74.0872,15.3104],[74.0871,15.3139],[74.0884,15.316],[74.084,15.3196],[74.0835,15.3233],[74.0843,15.3263],[74.0934,15.3327],[74.0985,15.3453],[74.1057,15.3457],[74.1038,15.3483],[74.1002,15.3488],[74.0992,15.3502],[74.101,15.3541],[74.1029,15.3608],[74.1051,15.3617],[74.1049,15.3641],[74.1021,15.3649],[74.1027,15.3683],[74.1013,15.3726],[74.0979,15.3744],[74.094,15.3748],[74.0952,15.3782],[74.0973,15.3768],[74.0992,15.3777],[74.0965,15.3816],[74.0903,15.3833],[74.0891,15.3898],[74.0848,15.3887],[74.0807,15.3943],[74.0791,15.391],[74.0769,15.3904],[74.0758,15.3946],[74.0779,15.3984],[74.0751,15.3996],[74.0724,15.4035],[74.075,15.4076],[74.0743,15.4097],[74.0721,15.4115],[74.0693,15.4125],[74.0679,15.411],[74.0644,15.4115],[74.0625,15.4083],[74.0589,15.4077],[74.0563,15.4057],[74.0554,15.4107],[74.0523,15.412],[74.0522,15.4164],[74.049,15.4194],[74.0528,15.4243],[74.0512,15.4282],[74.054,15.4294],[74.0544,15.4328],[74.0528,15.4347],[74.0505,15.4343],[74.0485,15.4321],[74.0469,15.4334],[74.0486,15.4379],[74.0475,15.4395],[74.0425,15.442],[74.0392,15.4455],[74.0366,15.4445],[74.0351,15.4455],[74.0346,15.4501],[74.0406,15.4488],[74.0416,15.4504],[74.0395,15.454],[74.0375,15.4548],[74.0349,15.4578],[74.0351,15.4656],[74.0291,15.4692],[74.0263,15.4728],[74.0314,15.476],[74.0309,15.4783],[74.0237,15.4795],[74.0217,15.4911],[74.0202,15.4933],[74.0163,15.4965],[74.0061,15.498],[74.0023,15.4992],[73.9998,15.5017],[73.9982,15.5087],[73.9958,15.5131],[73.9893,15.5176],[73.9842,15.5199],[73.9791,15.5211],[73.9721,15.5238],[73.9708,15.5248],[73.9672,15.5336],[73.9651,15.5367],[73.9622,15.5388],[73.9585,15.5364],[73.9581,15.5338],[73.9556,15.5304],[73.9541,15.5263],[73.9449,15.5222],[73.9497,15.517],[73.9506,15.5125],[73.955,15.5092],[73.9583,15.5086],[73.9599,15.507],[73.9624,15.502],[73.9544,15.498],[73.9555,15.4923],[73.9555,15.4843],[73.952,15.4804],[73.9511,15.476],[73.9534,15.4719],[73.9572,15.4685],[73.9582,15.4647],[73.956,15.4606],[73.9505,15.4597],[73.9488,15.4586],[73.9459,15.4531],[73.9453,15.4463],[73.947,15.4415],[73.9459,15.4377],[73.94,15.4353],[73.935,15.4347],[73.9305,15.4325],[73.9271,15.4281],[73.9274,15.4233],[73.9267,15.4214],[73.9215,15.4153],[73.918,15.4082],[73.9283,15.4051],[73.9371,15.4037],[73.942,15.4035],[73.9472,15.4024],[73.9505,15.3999],[73.9553,15.3878],[73.9575,15.374],[73.9604,15.3698],[73.9658,15.3674],[73.972,15.3677],[73.9778,15.3665],[73.9807,15.3639],[73.9876,15.3562],[73.9905,15.354],[73.9977,15.3513],[73.9997,15.3511],[74.0022,15.3486],[74.0056,15.3467],[74.0067,15.3421],[74.0053,15.3376],[74.0053,15.3347],[74.0086,15.3214],[74.0106,15.312],[74.0125,15.3083],[74.0121,15.305],[74.0142,15.3024],[74.0182,15.3011],[74.0262,15.3008],[74.0296,15.3015],[74.0386,15.306],[74.0408,15.3049],[74.0433,15.2996],[74.0457,15.2982],[74.0526,15.2989],[74.0592,15.298],[74.0661,15.2956],[74.071,15.2915],[74.0712,15.2892],[74.0697,15.2856],[74.0702,15.2823],[74.073,15.2785],[74.0744,15.2747],[74.0765,15.2731],[74.0825,15.2764],[74.0848,15.2759],[74.0888,15.2718],[74.0915,15.2675],[74.0928,15.2672],[74.1003,15.2683],[74.1022,15.2711],[74.1024,15.2738],[74.1058,15.2811],[74.1059,15.2861],[74.1025,15.289]]]},"properties":{"id":"in:subdistrict:5614","level":"subdistrict","name":"Ponda","code":5614,"parent":"in:district:551","state":"in:state:30"}},{"type":"Feature","geometry":{"type":"Polygon","coordinates":[[[74.2515,15.4908],[74.2475,15.4897],[74.2462,15.4873],[74.2411,15.4867],[74.232,15.4829],[74.2266,15.479],[74.2229,15.4745],[74.2153,15.4721],[74.2096,15.4694],[74.2063,15.4688],[74.2009,15.4659],[74.1967,15.4624],[74.1924,15.4561],[74.1902,15.4544],[74.1897,15.4459],[74.1881,15.4433],[74.1831,15.441],[74.1795,15.4361],[74.1709,15.4387],[74.1692,15.4421],[74.164,15.4402],[74.161,15.441],[74.1562,15.4386],[74.1523,15.4407],[74.1518,15.4385],[74.1487,15.4374],[74.1446,15.438],[74.1409,15.4373],[74.139,15.4378],[74.1377,15.4353],[74.1343,15.4337],[74.1282,15.4353],[74.1259,15.4368],[74.1211,15.4333],[74.1191,15.4305],[74.1173,15.4303],[74.1144,15.4292],[74.1115,15.4268],[74.1101,15.4178],[74.1046,15.4261],[74.0991,15.4236],[74.0889,15.4197],[74.085,15.419],[74.0833,15.4166],[74.0721,15.4115],[74.0743,15.4097],[74.075,15.4076],[74.0724,15.4035],[74.0751,15.3996],[74.0779,15.3984],[74.0758,15.3946],[74.0769,15.3904],[74.0791,15.391],[74.0807,15.3943],[74.0848,15.3887],[74.0891,15.3898],[74.0903,15.3833],[74.0965,15.3816],[74.0992,15.3777],[74.0973,15.3768],[74.0952,15.3782],[74.094,15.3748],[74.0979,15.3744],[74.1013,15.3726],[74.1027,15.3683],[74.1021,15.3649],[74.1049,15.3641],[74.1051,15.3617],[74.1029,15.3608],[74.101,15.3541],[74.0992,15.3502],[74.1002,15.3488],[74.1038,15.3483],[74.1057,15.3457],[74.0985,15.3453],[74.0934,15.3327],[74.0843,15.3263],[74.0835,15.3233],[74.084,15.3196],[74.0884,15.316],[74.0871,15.3139],[74.0872,15.3104],[74.0912,15.3031],[74.0891,15.3014],[74.0887,15.2987],[74.0918,15.2976],[74.0919,15.2956],[74.096,15.2946],[74.0974,15.2929],[74.1025,15.289],[74.1075,15.2939],[74.1128,15.2934],[74.119,15.2936],[74.1248,15.2919],[74.1273,15.292],[74.1309,15.2888],[74.1342,15.2911],[74.1374,15.2954],[74.1432,15.2984],[74.1439,15.3021],[74.1429,15.3057],[74.146,15.307],[74.146,15.3103],[74.1433,15.3175],[74.1481,15.3247],[74.1524,15.3264],[74.1567,15.3329],[74.1517,15.3369],[74.1518,15.3398],[74.1545,15.339],[74.1573,15.3398],[74.1591,15.3375],[74.1643,15.3355],[74.1653,15.3384],[74.174,15.3392],[74.176,15.3421],[74.179,15.3424],[74.1797,15.3382],[74.1791,15.3354],[74.1767,15.3336],[74.177,15.3306],[74.1805,15.3255],[74.1846,15.3225],[74.1826,15.3206],[74.1858,15.3161],[74.186,15.3106],[74.1958,15.3099],[74.197,15.3104],[74.204,15.3084],[74.2074,15.3086],[74.2096,15.3109],[74.2114,15.3103],[74.2232,15.3156],[74.2288,15.3203],[74.2308,15.3235],[74.2353,15.3235],[74.2373,15.321],[74.2383,15.3175],[74.2428,15.3137],[74.2485,15.3132],[74.2494,15.3115],[74.2503,15.3038],[74.2548,15.3026],[74.2568,15.3013],[74.2589,15.3038],[74.2621,15.3023],[74.2682,15.3042],[74.273,15.304],[74.277,15.3106],[74.2815,15.3074],[74.2817,15.2976],[74.2942,15.2887],[74.2964,15.2888],[74.308,15.2833],[74.3196,15.2834],[74.3206,15.2847],[74.3264,15.2837],[74.3307,15.2875],[74.3364,15.2949],[74.3244,15.3099],[74.317,15.3291],[74.3172,15.3352],[74.3218,15.3436],[74.316,15.36],[74.3163,15.363],[74.3232,15.3677],[74.3086,15.3745],[74.2987,15.3819],[74.283,15.3829],[74.2759,15.3916],[74.2783,15.4057],[74.2762,15.4084],[74.2743,15.4136],[74.2704,15.416],[74.2688,15.4191],[74.2699,15.426],[74.2769,15.4352],[74.2774,15.4405],[74.2763,15.4429],[74.2755,15.4492],[74.2721,15.4562],[74.2675,15.4642],[74.2645,15.4713],[74.2583,15.4821],[74.2515,15.4908]]]},"properties":{"id":"in:subdistrict:5931","level":"subdistrict","name":"Dharbandora","code":5931,"parent":"in:district:552","state":"in:state:30"}}]}