{"type":"FeatureCollection","features":[{"type":"Feature","geometry":{"type":"MultiPolygon","coordinates":[[[[72.2022,10.8796],[72.2003,10.8799],[72.1939,10.8724],[72.1927,10.8694],[72.1874,10.8504],[72.1823,10.8406],[72.1783,10.8319],[72.1707,10.8218],[72.1721,10.8212],[72.179,10.8299],[72.1812,10.8356],[72.1885,10.8491],[72.1993,10.8656],[72.2055,10.8775],[72.2057,10.8793],[72.2022,10.8796]]],[[[72.2881,10.9476],[72.2867,10.948],[72.284,10.9386],[72.2849,10.9373],[72.2888,10.9368],[72.2918,10.9378],[72.2901,10.9405],[72.2881,10.9476]]],[[[72.3155,10.9446],[72.3198,10.9471],[72.3241,10.9509],[72.3166,10.9509],[72.3147,10.9485],[72.3155,10.9446]]]]},"properties":{"id":"in:subdistrict:5626","level":"subdistrict","name":"Agatti","code":5626,"parent":"in:district:553","state":"in:state:31"}},{"type":"Feature","geometry":{"type":"Polygon","coordinates":[[[72.7195,11.115],[72.7202,11.1161],[72.7266,11.1215],[72.7305,11.1268],[72.7338,11.136],[72.7329,11.1375],[72.7298,11.1379],[72.7202,11.1315],[72.7178,11.1284],[72.7162,11.1249],[72.7158,11.1206],[72.7168,11.1175],[72.7195,11.115]]]},"properties":{"id":"in:subdistrict:5620","level":"subdistrict","name":"Amini","code":5620,"parent":"in:district:553","state":"in:state:31"}},{"type":"Feature","geometry":{"type":"Polygon","coordinates":[[[73.0076,11.4708],[73.0111,11.4743],[73.0093,11.4818],[73.0092,11.4887],[73.0063,11.4946],[73.004,11.4976],[73.0013,11.4994],[72.9974,11.4983],[72.9992,11.4953],[73.0018,11.494],[73.0034,11.488],[73.0052,11.4791],[73.0074,11.4734],[73.0076,11.4708]]]},"properties":{"id":"in:subdistrict:5623","level":"subdistrict","name":"Kiltan","code":5623,"parent":"in:district:553","state":"in:state:31"}},{"type":"Feature","geometry":{"type":"Polygon","coordinates":[[[72.7613,11.1839],[72.7689,11.2068],[72.7749,11.2155],[72.7771,11.2208],[72.7799,11.233],[72.7837,11.2442],[72.7893,11.2566],[72.7898,11.2611],[72.7862,11.2596],[72.7787,11.2437],[72.7714,11.218],[72.7668,11.2048],[72.7642,11.1991],[72.7628,11.1942],[72.7625,11.1888],[72.7613,11.1839]]]},"properties":{"id":"in:subdistrict:5624","level":"subdistrict","name":"Kadmat","code":5624,"parent":"in:district:553","state":"in:state:31"}},{"type":"Feature","geometry":{"type":"Polygon","coordinates":[[[72.7115,11.6876],[72.7153,11.6928],[72.7166,11.6958],[72.7164,11.7022],[72.7133,11.7019],[72.7128,11.6997],[72.7097,11.6936],[72.708,11.6871],[72.7055,11.6859],[72.705,11.6835],[72.708,11.6834],[72.7115,11.6876]]]},"properties":{"id":"in:subdistrict:5622","level":"subdistrict","name":"Chetlat","code":5622,"parent":"in:district:553","state":"in:state:31"}},{"type":"Feature","geometry":{"type":"Polygon","coordinates":[[[72.1896,11.6001],[72.1858,11.6031],[72.1857,11.5999],[72.1896,11.6001]]]},"properties":{"id":"in:subdistrict:5621","level":"subdistrict","name":"Bitra","code":5621,"parent":"in:district:553","state":"in:state:31"}},{"type":"Feature","geometry":{"type":"Polygon","coordinates":[[[73.6672,10.8186],[73.6606,10.818],[73.6588,10.8156],[73.6587,10.8132],[73.6604,10.8087],[73.6629,10.8068],[73.6689,10.8053],[73.6765,10.8053],[73.6834,10.8073],[73.6921,10.811],[73.699,10.8128],[73.7004,10.814],[73.6995,10.8174],[73.6883,10.818],[73.6863,10.8175],[73.6771,10.8182],[73.6698,10.8179],[73.6672,10.8186]]]},"properties":{"id":"in:subdistrict:5627","level":"subdistrict","name":"Andrott","code":5627,"parent":"in:district:553","state":"in:state:31"}},{"type":"Feature","geometry":{"type":"Polygon","coordinates":[[[73.6469,10.0735],[73.6465,10.0776],[73.647,10.0824],[73.6456,10.0854],[73.6433,10.0774],[73.6397,10.0722],[73.6371,10.0717],[73.6366,10.0685],[73.6392,10.0621],[73.6389,10.0596],[73.6404,10.0583],[73.6447,10.0582],[73.6467,10.0604],[73.6471,10.0653],[73.6469,10.0735]]]},"properties":{"id":"in:subdistrict:5628","level":"subdistrict","name":"Kalpeni","code":5628,"parent":"in:district:553","state":"in:state:31"}},{"type":"Feature","geometry":{"type":"MultiPolygon","coordinates":[[[[72.2832,10.0422],[72.2863,10.0442],[72.2887,10.0492],[72.2855,10.0484],[72.2832,10.0422]]],[[[72.3316,10.1313],[72.331,10.1341],[72.3287,10.1381],[72.3269,10.1383],[72.3275,10.1334],[72.3271,10.1306],[72.3316,10.1313]]],[[[72.6434,10.5794],[72.6406,10.5805],[72.6389,10.5754],[72.6365,10.5706],[72.6311,10.5618],[72.6259,10.5543],[72.6241,10.551],[72.6177,10.5476],[72.6158,10.5454],[72.6167,10.5432],[72.6195,10.5446],[72.6235,10.5494],[72.6355,10.5585],[72.6416,10.5613],[72.6459,10.5624],[72.6492,10.565],[72.6506,10.5704],[72.6484,10.5767],[72.6459,10.5795],[72.6434,10.5794]]]]},"properties":{"id":"in:subdistrict:5625","level":"subdistrict","name":"Kavaratti","code":5625,"parent":"in:district:553","state":"in:state:31"}},{"type":"Feature","geometry":{"type":"Polygon","coordinates":[[[73.0527,8.2735],[73.0538,8.2752],[73.0644,8.285],[73.0657,8.2877],[73.0648,8.2925],[73.0654,8.2981],[73.0594,8.2908],[73.055,8.2832],[73.047,8.2767],[73.0438,8.2747],[73.0387,8.2732],[73.0329,8.2733],[73.0275,8.272],[73.0217,8.2723],[73.0206,8.2754],[73.0171,8.2763],[73.0182,8.2714],[73.0238,8.2684],[73.031,8.2663],[73.042,8.2652],[73.0456,8.2659],[73.0479,8.2674],[73.0527,8.2735]]]},"properties":{"id":"in:subdistrict:5629","level":"subdistrict","name":"Minicoy","code":5629,"parent":"in:district:553","state":"in:state:31"}}]}