{"type":"FeatureCollection","features":[{"type":"Feature","geometry":{"type":"Polygon","coordinates":[[[79.7995,10.9828],[79.7939,10.9831],[79.7861,10.99],[79.789,10.9912],[79.7861,10.9974],[79.7836,10.9967],[79.7836,10.9948],[79.7788,10.997],[79.772,10.998],[79.7711,10.9972],[79.7607,10.9992],[79.7589,11.0019],[79.755,11.0037],[79.7487,11.0033],[79.7468,11.0026],[79.7486,10.9979],[79.7481,10.9965],[79.7484,10.9901],[79.7496,10.9885],[79.7529,10.9876],[79.7529,10.9829],[79.7559,10.9838],[79.7587,10.983],[79.7584,10.9798],[79.7557,10.9795],[79.7537,10.977],[79.7567,10.9729],[79.7596,10.9719],[79.7606,10.9681],[79.7628,10.9665],[79.7618,10.9647],[79.7625,10.9602],[79.7593,10.9606],[79.7512,10.9579],[79.7494,10.9585],[79.7455,10.9568],[79.7455,10.9627],[79.7464,10.9651],[79.739,10.9673],[79.7355,10.9675],[79.7353,10.9694],[79.7211,10.9692],[79.7197,10.9672],[79.721,10.9651],[79.7205,10.958],[79.7215,10.9557],[79.7197,10.9544],[79.7215,10.9516],[79.7245,10.9519],[79.7327,10.9514],[79.7326,10.9551],[79.7336,10.9572],[79.7367,10.9574],[79.7372,10.9491],[79.7322,10.9478],[79.7295,10.9437],[79.7257,10.9433],[79.7241,10.9413],[79.725,10.9397],[79.7295,10.9366],[79.7259,10.9343],[79.7247,10.9297],[79.7298,10.9276],[79.7348,10.9276],[79.7356,10.9249],[79.7395,10.9265],[79.7398,10.9247],[79.7431,10.925],[79.7438,10.9192],[79.7451,10.9161],[79.7487,10.914],[79.7538,10.914],[79.7543,10.9161],[79.759,10.9166],[79.7624,10.9144],[79.7582,10.9091],[79.7577,10.9055],[79.7592,10.9033],[79.7579,10.9019],[79.7576,10.8987],[79.7599,10.8968],[79.7559,10.8946],[79.7584,10.8927],[79.7679,10.8925],[79.7653,10.8944],[79.7652,10.8963],[79.777,10.8966],[79.7767,10.9054],[79.7792,10.9053],[79.7893,10.9084],[79.7918,10.907],[79.7954,10.9027],[79.7977,10.9018],[79.8033,10.9029],[79.8047,10.9075],[79.8086,10.9085],[79.8085,10.9106],[79.8056,10.9107],[79.8053,10.9177],[79.8043,10.919],[79.8042,10.9246],[79.8029,10.9267],[79.8061,10.9314],[79.8039,10.933],[79.8045,10.9365],[79.8067,10.9394],[79.8107,10.9416],[79.8083,10.9433],[79.8097,10.9471],[79.8136,10.9469],[79.8135,10.955],[79.8121,10.96],[79.8126,10.9626],[79.8098,10.971],[79.8093,10.9737],[79.8072,10.9749],[79.8063,10.9776],[79.8035,10.9819],[79.7995,10.9828]]]},"properties":{"id":"in:subdistrict:5915","level":"subdistrict","name":"Thirunallar Taluk","code":5915,"parent":"in:district:598","state":"in:state:34"}},{"type":"Feature","geometry":{"type":"Polygon","coordinates":[[[79.7954,10.9027],[79.7912,10.903],[79.7924,10.8984],[79.7878,10.8955],[79.7826,10.8953],[79.7821,10.8904],[79.7837,10.8885],[79.79,10.8903],[79.79,10.8942],[79.7928,10.8936],[79.7947,10.8881],[79.7999,10.8874],[79.8022,10.8906],[79.805,10.8905],[79.8061,10.8879],[79.8088,10.8873],[79.8118,10.8883],[79.8145,10.8868],[79.8176,10.8868],[79.824,10.8842],[79.8263,10.8848],[79.8286,10.8838],[79.8274,10.8815],[79.821,10.8814],[79.8193,10.88],[79.8113,10.8803],[79.8111,10.8756],[79.8169,10.8743],[79.8224,10.8742],[79.8236,10.8694],[79.8248,10.869],[79.8249,10.8648],[79.818,10.8634],[79.8117,10.8597],[79.8096,10.8639],[79.8075,10.8654],[79.8073,10.8598],[79.8079,10.8556],[79.8138,10.85],[79.8194,10.8491],[79.8211,10.8456],[79.8253,10.8469],[79.8281,10.8497],[79.8303,10.8383],[79.8298,10.8357],[79.8311,10.8274],[79.8414,10.8279],[79.8507,10.8278],[79.8503,10.8292],[79.8513,10.8344],[79.8507,10.8387],[79.851,10.85],[79.8498,10.8582],[79.8513,10.8714],[79.8517,10.8763],[79.8509,10.8931],[79.8515,10.896],[79.8523,10.9095],[79.8525,10.9167],[79.852,10.9228],[79.8525,10.9335],[79.8529,10.9587],[79.8537,10.9681],[79.8535,10.9782],[79.8538,10.9832],[79.8519,10.9838],[79.8507,10.9877],[79.8519,10.9924],[79.8513,10.9943],[79.8468,10.9953],[79.8435,10.9947],[79.8394,10.9958],[79.8401,11.0016],[79.8333,11.0028],[79.8294,11.0021],[79.8279,10.9981],[79.8254,10.9986],[79.8238,11.0004],[79.8193,10.9991],[79.8162,11.0038],[79.8143,11.0001],[79.8125,10.9991],[79.8081,10.9999],[79.805,10.9984],[79.8035,10.9948],[79.8038,10.9921],[79.803,10.9884],[79.799,10.9856],[79.7995,10.9828],[79.8035,10.9819],[79.8063,10.9776],[79.8072,10.9749],[79.8093,10.9737],[79.8098,10.971],[79.8126,10.9626],[79.8121,10.96],[79.8135,10.955],[79.8136,10.9469],[79.8097,10.9471],[79.8083,10.9433],[79.8107,10.9416],[79.8067,10.9394],[79.8045,10.9365],[79.8039,10.933],[79.8061,10.9314],[79.8029,10.9267],[79.8042,10.9246],[79.8043,10.919],[79.8053,10.9177],[79.8056,10.9107],[79.8085,10.9106],[79.8086,10.9085],[79.8047,10.9075],[79.8033,10.9029],[79.7977,10.9018],[79.7954,10.9027]]]},"properties":{"id":"in:subdistrict:5914","level":"subdistrict","name":"Karaikal Taluk","code":5914,"parent":"in:district:598","state":"in:state:34"}},{"type":"Feature","geometry":{"type":"MultiPolygon","coordinates":[[[[79.7952,11.9201],[79.7974,11.9194],[79.7984,11.9232],[79.8058,11.9241],[79.8093,11.9237],[79.8093,11.9318],[79.8084,11.9347],[79.8092,11.9409],[79.8141,11.9403],[79.8183,11.9379],[79.8244,11.9372],[79.8273,11.9428],[79.8302,11.9496],[79.8295,11.9523],[79.8313,11.9571],[79.8295,11.9578],[79.8249,11.9615],[79.8223,11.9658],[79.8185,11.9779],[79.8163,11.979],[79.8126,11.9779],[79.8098,11.9752],[79.8065,11.968],[79.8052,11.9632],[79.8051,11.9533],[79.8033,11.9531],[79.7977,11.9566],[79.7917,11.9594],[79.7847,11.9599],[79.7835,11.9563],[79.7809,11.9565],[79.7795,11.9536],[79.7768,11.9537],[79.7751,11.9497],[79.7739,11.9499],[79.7715,11.9439],[79.7738,11.9411],[79.7727,11.9316],[79.7712,11.9303],[79.7676,11.9305],[79.7671,11.9282],[79.7707,11.9265],[79.7722,11.9247],[79.7778,11.925],[79.7767,11.9231],[79.7741,11.9231],[79.7734,11.9214],[79.7785,11.9218],[79.7803,11.9234],[79.7852,11.9251],[79.7894,11.9243],[79.7897,11.9221],[79.7919,11.9202],[79.7952,11.9201]]],[[[79.7924,12.0258],[79.7888,12.0264],[79.79,12.0229],[79.7891,12.0182],[79.7949,12.0168],[79.8019,12.0171],[79.8021,12.0186],[79.8051,12.021],[79.8058,12.0242],[79.8043,12.0259],[79.7982,12.0255],[79.7924,12.0258]]],[[[79.8568,12.0061],[79.864,12.0217],[79.8718,12.0374],[79.8736,12.042],[79.8685,12.0452],[79.8569,12.0488],[79.8498,12.0513],[79.8474,12.0434],[79.8444,12.0361],[79.8439,12.0305],[79.844,12.0245],[79.8414,12.0171],[79.8409,12.0132],[79.8438,12.0114],[79.8506,12.0089],[79.8568,12.0061]]]]},"properties":{"id":"in:subdistrict:5910","level":"subdistrict","name":"Ozhukarai Taluk","code":5910,"parent":"in:district:600","state":"in:state:34"}},{"type":"Feature","geometry":{"type":"Polygon","coordinates":[[[79.7952,11.9201],[79.7938,11.9162],[79.787,11.9174],[79.7849,11.917],[79.7837,11.9123],[79.783,11.9067],[79.7815,11.9028],[79.7877,11.8968],[79.7906,11.8971],[79.7965,11.8999],[79.7968,11.8943],[79.7957,11.8915],[79.7947,11.8852],[79.7921,11.8803],[79.7918,11.878],[79.7872,11.8733],[79.7867,11.8687],[79.7852,11.8631],[79.7785,11.8632],[79.78,11.8755],[79.779,11.8776],[79.7762,11.8782],[79.7728,11.8752],[79.7701,11.8746],[79.7697,11.8677],[79.7708,11.8621],[79.7695,11.8583],[79.767,11.858],[79.7651,11.8519],[79.7632,11.8518],[79.7622,11.8484],[79.764,11.8473],[79.7662,11.8405],[79.7707,11.8372],[79.7736,11.8366],[79.7765,11.8395],[79.7765,11.844],[79.7784,11.8476],[79.7802,11.8481],[79.7816,11.8556],[79.7843,11.8559],[79.7946,11.8548],[79.8007,11.8553],[79.8027,11.854],[79.8031,11.8507],[79.8053,11.8477],[79.8082,11.8453],[79.8062,11.8417],[79.8069,11.8369],[79.8078,11.8366],[79.8112,11.8478],[79.8155,11.8604],[79.8196,11.8708],[79.8227,11.8765],[79.8242,11.8866],[79.8256,11.893],[79.8273,11.8975],[79.8309,11.9133],[79.8341,11.9231],[79.837,11.9356],[79.8377,11.9439],[79.8406,11.9558],[79.8328,11.9565],[79.8313,11.9571],[79.8295,11.9523],[79.8302,11.9496],[79.8273,11.9428],[79.8244,11.9372],[79.8183,11.9379],[79.8141,11.9403],[79.8092,11.9409],[79.8084,11.9347],[79.8093,11.9318],[79.8093,11.9237],[79.8058,11.9241],[79.7984,11.9232],[79.7974,11.9194],[79.7952,11.9201]]]},"properties":{"id":"in:subdistrict:5909","level":"subdistrict","name":"Puducherry Taluk","code":5909,"parent":"in:district:600","state":"in:state:34"}},{"type":"Feature","geometry":{"type":"MultiPolygon","coordinates":[[[[79.6744,11.9484],[79.6766,11.9485],[79.6802,11.9517],[79.6828,11.9524],[79.6835,11.9545],[79.6846,11.9626],[79.6879,11.9696],[79.6865,11.9733],[79.6804,11.9729],[79.6784,11.9718],[79.6778,11.9689],[79.6728,11.9678],[79.6622,11.9692],[79.6627,11.9668],[79.6619,11.9625],[79.6605,11.9626],[79.66,11.9584],[79.6542,11.9595],[79.6528,11.9579],[79.6546,11.9535],[79.6582,11.9525],[79.6588,11.9501],[79.6637,11.9509],[79.6744,11.9484]]],[[[79.6851,11.881],[79.6865,11.8865],[79.6966,11.8867],[79.6969,11.8886],[79.7011,11.8892],[79.7098,11.8893],[79.7107,11.8876],[79.7093,11.8833],[79.7125,11.884],[79.7134,11.8821],[79.7168,11.8805],[79.7238,11.8833],[79.7262,11.8827],[79.7293,11.8862],[79.7387,11.8866],[79.7459,11.8858],[79.751,11.8857],[79.753,11.8846],[79.7519,11.881],[79.7519,11.8718],[79.754,11.8712],[79.7555,11.8679],[79.7587,11.8685],[79.7588,11.8717],[79.7574,11.8761],[79.764,11.877],[79.7685,11.8759],[79.7701,11.8746],[79.7728,11.8752],[79.7736,11.8833],[79.7719,11.8851],[79.7705,11.8909],[79.7721,11.8992],[79.7692,11.9007],[79.7698,11.9028],[79.7752,11.9018],[79.7754,11.905],[79.7788,11.9046],[79.7815,11.9028],[79.783,11.9067],[79.7837,11.9123],[79.7849,11.917],[79.787,11.9174],[79.7938,11.9162],[79.7952,11.9201],[79.7919,11.9202],[79.7897,11.9221],[79.7894,11.9243],[79.7852,11.9251],[79.7803,11.9234],[79.7785,11.9218],[79.7734,11.9214],[79.7741,11.9231],[79.7767,11.9231],[79.7778,11.925],[79.7722,11.9247],[79.7707,11.9265],[79.7671,11.9282],[79.7676,11.9305],[79.7712,11.9303],[79.7727,11.9316],[79.7738,11.9411],[79.7715,11.9439],[79.7636,11.9442],[79.7599,11.9436],[79.761,11.9307],[79.7622,11.9285],[79.7573,11.9282],[79.7564,11.926],[79.7563,11.9204],[79.7512,11.9206],[79.7493,11.9222],[79.7487,11.944],[79.7445,11.965],[79.7335,11.9687],[79.7302,11.9704],[79.7245,11.9712],[79.7236,11.978],[79.7265,11.9858],[79.7296,11.9847],[79.732,11.9815],[79.7355,11.9792],[79.7428,11.9778],[79.7433,11.9793],[79.7481,11.9848],[79.7519,11.9843],[79.7552,11.988],[79.7604,11.9892],[79.7621,11.9931],[79.7624,12.0027],[79.7555,12.0044],[79.7487,12.0073],[79.7465,12.0077],[79.7415,12.0014],[79.7377,12.001],[79.7375,11.9985],[79.7348,11.9975],[79.7334,11.9933],[79.729,11.9936],[79.7283,11.9923],[79.7234,11.9931],[79.7206,11.9927],[79.7194,11.9892],[79.7159,11.9848],[79.7124,11.9866],[79.7104,11.9769],[79.7109,11.9746],[79.716,11.9711],[79.7142,11.967],[79.7108,11.9673],[79.7102,11.9658],[79.7026,11.967],[79.7019,11.9649],[79.698,11.9605],[79.6957,11.9639],[79.6917,11.9513],[79.6958,11.9477],[79.6959,11.9449],[79.6973,11.9418],[79.7016,11.9414],[79.7052,11.9393],[79.7066,11.9352],[79.7097,11.9339],[79.7081,11.9408],[79.7079,11.9467],[79.7097,11.95],[79.7136,11.9479],[79.7209,11.9449],[79.7175,11.929],[79.7255,11.9232],[79.7326,11.9133],[79.7373,11.9094],[79.7407,11.9054],[79.7386,11.9043],[79.7334,11.9041],[79.7307,11.902],[79.7305,11.8917],[79.7289,11.8902],[79.7248,11.8908],[79.7222,11.8893],[79.7188,11.8904],[79.7169,11.8928],[79.7118,11.8907],[79.709,11.8932],[79.7053,11.8939],[79.7061,11.8994],[79.7085,11.9016],[79.709,11.9043],[79.7066,11.9052],[79.7066,11.9136],[79.718,11.9134],[79.7187,11.919],[79.7108,11.9193],[79.6962,11.9192],[79.6953,11.9121],[79.6956,11.9079],[79.6978,11.9076],[79.6976,11.9024],[79.6957,11.9024],[79.6954,11.8948],[79.6872,11.8945],[79.6868,11.8889],[79.6826,11.8888],[79.6828,11.892],[79.6738,11.8916],[79.674,11.8807],[79.6851,11.881]]],[[[79.651,12.0218],[79.6447,12.0271],[79.6364,12.0282],[79.6336,12.0291],[79.6312,12.0314],[79.6255,12.0322],[79.6258,12.0285],[79.6272,12.0268],[79.6268,12.0238],[79.629,12.0188],[79.6258,12.0154],[79.6207,12.0135],[79.6195,12.0062],[79.6197,12.0004],[79.6263,12.0004],[79.6236,11.9893],[79.6172,11.9896],[79.6175,11.9856],[79.6208,11.9839],[79.6209,11.9824],[79.6244,11.9818],[79.6246,11.976],[79.6186,11.9708],[79.6186,11.97],[79.6275,11.9681],[79.6266,11.9648],[79.6288,11.9596],[79.6284,11.9451],[79.6247,11.9431],[79.6189,11.9433],[79.6179,11.936],[79.6189,11.9303],[79.6185,11.9261],[79.627,11.9218],[79.6284,11.919],[79.6272,11.9107],[79.6253,11.903],[79.6321,11.9013],[79.6407,11.9022],[79.6411,11.9078],[79.6559,11.9079],[79.656,11.9129],[79.6627,11.9131],[79.6627,11.9182],[79.6689,11.9183],[79.669,11.926],[79.6699,11.9276],[79.67,11.9336],[79.6693,11.9375],[79.6642,11.9383],[79.6607,11.9372],[79.6604,11.9415],[79.6565,11.947],[79.6529,11.9482],[79.652,11.9436],[79.6472,11.9446],[79.6426,11.9421],[79.6419,11.9485],[79.6422,11.954],[79.6473,11.9534],[79.6476,11.9643],[79.6485,11.9676],[79.6414,11.9705],[79.6403,11.9763],[79.6364,11.9778],[79.6379,11.9849],[79.6404,11.991],[79.636,11.996],[79.6372,11.9984],[79.6414,11.9983],[79.6425,11.9997],[79.6439,12.0052],[79.6453,12.0047],[79.6478,12.0188],[79.651,12.0218]]],[[[79.7197,11.9929],[79.7176,11.9978],[79.7151,12.0002],[79.7125,12.0014],[79.7114,12.0035],[79.7082,12.0042],[79.7065,12.0067],[79.703,12.0082],[79.7027,12.013],[79.7016,12.0138],[79.7033,12.0194],[79.7044,12.027],[79.7036,12.0314],[79.7025,12.0321],[79.6952,12.0331],[79.694,12.0348],[79.6915,12.0347],[79.6898,12.0279],[79.6851,12.0264],[79.6836,12.0225],[79.6815,12.0209],[79.6755,12.0214],[79.673,12.017],[79.6732,12.0157],[79.6711,12.0101],[79.6616,12.0123],[79.6598,12.0106],[79.6594,12.0081],[79.6576,12.005],[79.6584,12.0014],[79.6572,11.9955],[79.657,11.9914],[79.6616,11.9896],[79.6673,11.991],[79.6719,11.9947],[79.6743,11.9929],[79.678,11.9862],[79.6809,11.9834],[79.6855,11.9916],[79.691,11.9898],[79.6936,11.99],[79.6947,11.992],[79.7014,11.9919],[79.7023,11.9942],[79.7069,11.9943],[79.7146,11.9907],[79.718,11.9904],[79.7197,11.9929]]]]},"properties":{"id":"in:subdistrict:5911","level":"subdistrict","name":"Villianur Taluk","code":5911,"parent":"in:district:600","state":"in:state:34"}},{"type":"Feature","geometry":{"type":"MultiPolygon","coordinates":[[[[79.6814,11.7962],[79.6839,11.8022],[79.6897,11.8021],[79.6906,11.8086],[79.6881,11.8122],[79.6857,11.8125],[79.6794,11.8146],[79.6759,11.8143],[79.6748,11.8068],[79.6746,11.8035],[79.6784,11.7984],[79.6814,11.7962]]],[[[79.6992,11.823],[79.6946,11.823],[79.6943,11.8187],[79.693,11.8137],[79.7042,11.8135],[79.7029,11.8158],[79.702,11.8229],[79.6992,11.823]]],[[[79.6473,11.8442],[79.646,11.8423],[79.6459,11.8357],[79.6446,11.8337],[79.6432,11.8261],[79.6411,11.8228],[79.6443,11.8222],[79.6471,11.8197],[79.6463,11.8162],[79.648,11.8154],[79.6569,11.814],[79.66,11.813],[79.6634,11.8131],[79.6652,11.815],[79.6713,11.8149],[79.6713,11.8236],[79.6643,11.8249],[79.6624,11.8258],[79.6595,11.8294],[79.6619,11.8376],[79.6618,11.8394],[79.6546,11.8419],[79.6516,11.8438],[79.6473,11.8442]]],[[[79.8046,11.8335],[79.8014,11.8347],[79.8004,11.8377],[79.7977,11.8379],[79.7987,11.8333],[79.8007,11.8306],[79.7984,11.8276],[79.7981,11.825],[79.7952,11.8261],[79.7958,11.8285],[79.7917,11.8278],[79.7874,11.8294],[79.7865,11.831],[79.7831,11.8317],[79.7784,11.8317],[79.7762,11.8287],[79.7747,11.8286],[79.773,11.8227],[79.7678,11.8227],[79.765,11.8241],[79.7653,11.8319],[79.7644,11.8337],[79.758,11.8359],[79.7557,11.8375],[79.7508,11.8391],[79.7487,11.8407],[79.7424,11.8422],[79.7369,11.8423],[79.7382,11.8369],[79.7329,11.8372],[79.7298,11.8365],[79.7324,11.8334],[79.7317,11.8256],[79.7326,11.8243],[79.733,11.8181],[79.7348,11.8165],[79.7347,11.8131],[79.7357,11.8093],[79.7298,11.8093],[79.7245,11.8104],[79.7243,11.8069],[79.7252,11.8029],[79.7227,11.8016],[79.7228,11.7965],[79.7169,11.7975],[79.7139,11.7963],[79.7124,11.7915],[79.7199,11.7849],[79.7219,11.7869],[79.7247,11.7834],[79.7319,11.7808],[79.7397,11.781],[79.7512,11.7756],[79.756,11.7754],[79.7576,11.7834],[79.762,11.7908],[79.7659,11.7918],[79.7707,11.7895],[79.7702,11.7834],[79.7719,11.7822],[79.775,11.7825],[79.7805,11.7811],[79.7812,11.7843],[79.7844,11.7873],[79.7959,11.7857],[79.7985,11.802],[79.8016,11.815],[79.8049,11.8275],[79.8071,11.8335],[79.8046,11.8335]]],[[[79.6998,11.8739],[79.6972,11.8741],[79.696,11.8604],[79.6991,11.8613],[79.6998,11.8739]]],[[[79.7093,11.8833],[79.7083,11.8691],[79.7127,11.8666],[79.7134,11.8607],[79.7184,11.8535],[79.7211,11.8625],[79.7261,11.8622],[79.7326,11.8626],[79.7327,11.8656],[79.7402,11.8645],[79.742,11.8625],[79.7437,11.858],[79.7441,11.8529],[79.7425,11.8512],[79.7431,11.8483],[79.7487,11.8491],[79.7519,11.8483],[79.7539,11.8501],[79.7537,11.8642],[79.7555,11.8679],[79.754,11.8712],[79.7519,11.8718],[79.7519,11.881],[79.753,11.8846],[79.751,11.8857],[79.7459,11.8858],[79.7387,11.8866],[79.7293,11.8862],[79.7262,11.8827],[79.7238,11.8833],[79.7168,11.8805],[79.7134,11.8821],[79.7125,11.884],[79.7093,11.8833]]],[[[79.6171,11.8834],[79.6119,11.879],[79.6082,11.8769],[79.6051,11.881],[79.5994,11.883],[79.6001,11.8758],[79.6013,11.8713],[79.6031,11.8687],[79.602,11.8579],[79.6099,11.8602],[79.6141,11.863],[79.6195,11.8627],[79.6197,11.8681],[79.6192,11.8702],[79.6243,11.8695],[79.6285,11.8698],[79.6286,11.8653],[79.6273,11.8648],[79.6263,11.8547],[79.6287,11.8539],[79.6361,11.8529],[79.6471,11.8502],[79.652,11.8503],[79.6538,11.8517],[79.6569,11.8521],[79.6634,11.8612],[79.6627,11.8673],[79.6604,11.8673],[79.6577,11.8701],[79.6486,11.8705],[79.6484,11.8804],[79.6405,11.8806],[79.6412,11.8866],[79.6357,11.8881],[79.6348,11.8875],[79.6345,11.881],[79.6299,11.8813],[79.6298,11.8887],[79.6249,11.8892],[79.6212,11.8906],[79.6171,11.8834]]]]},"properties":{"id":"in:subdistrict:5912","level":"subdistrict","name":"Bahour Taluk","code":5912,"parent":"in:district:600","state":"in:state:34"}},{"type":"Feature","geometry":{"type":"MultiPolygon","coordinates":[[[[75.5362,11.6935],[75.5415,11.6968],[75.5423,11.7021],[75.5442,11.7045],[75.5393,11.709],[75.5343,11.709],[75.533,11.7058],[75.53,11.7036],[75.529,11.7013],[75.5338,11.698],[75.5362,11.6935]]],[[[75.5383,11.7627],[75.5324,11.7597],[75.5339,11.7569],[75.5357,11.7512],[75.5403,11.7485],[75.5417,11.7429],[75.5401,11.7349],[75.5361,11.7343],[75.5317,11.7347],[75.5308,11.731],[75.5283,11.7295],[75.5267,11.7266],[75.5271,11.7206],[75.5291,11.7168],[75.5316,11.7159],[75.5306,11.7104],[75.5359,11.7113],[75.5325,11.7162],[75.5365,11.7193],[75.5376,11.7161],[75.5409,11.7156],[75.544,11.7175],[75.5474,11.7155],[75.5513,11.719],[75.554,11.7194],[75.5553,11.7215],[75.5556,11.7276],[75.5515,11.7304],[75.5447,11.7327],[75.5421,11.7372],[75.5433,11.7414],[75.543,11.7429],[75.5445,11.7465],[75.5447,11.7535],[75.5464,11.756],[75.5441,11.7591],[75.5414,11.7594],[75.5383,11.7627]]]]},"properties":{"id":"in:subdistrict:5913","level":"subdistrict","name":"Mahe Taluk","code":5913,"parent":"in:district:599","state":"in:state:34"}},{"type":"Feature","geometry":{"type":"Polygon","coordinates":[[[82.3033,16.754],[82.3015,16.7552],[82.2969,16.7531],[82.2929,16.7467],[82.2885,16.7349],[82.2715,16.7315],[82.2528,16.7311],[82.2349,16.7293],[82.2282,16.7304],[82.2226,16.7373],[82.2188,16.74],[82.2178,16.7433],[82.2276,16.7569],[82.2296,16.7624],[82.2255,16.7637],[82.2189,16.7602],[82.215,16.7557],[82.2046,16.7485],[82.1966,16.7392],[82.1881,16.7401],[82.1824,16.7371],[82.1869,16.7283],[82.2014,16.7205],[82.2104,16.7198],[82.2233,16.7219],[82.2321,16.7181],[82.2352,16.7168],[82.2544,16.7036],[82.2613,16.7019],[82.2725,16.7027],[82.2842,16.7053],[82.293,16.7097],[82.3026,16.7183],[82.3073,16.7263],[82.3106,16.735],[82.3089,16.7455],[82.3055,16.7525],[82.3033,16.754]]]},"properties":{"id":"in:subdistrict:5908","level":"subdistrict","name":"Yanam Taluk","code":5908,"parent":"in:district:601","state":"in:state:34"}}]}