{"type":"FeatureCollection","features":[{"type":"Feature","geometry":{"type":"Polygon","coordinates":[[[77.9625,35.4612],[77.9485,35.4727],[77.9293,35.4903],[77.921,35.4879],[77.9189,35.4696],[77.9121,35.4611],[77.8938,35.4673],[77.8861,35.4774],[77.8748,35.4747],[77.8695,35.4727],[77.8626,35.4762],[77.8526,35.4854],[77.838,35.4919],[77.8292,35.5051],[77.822,35.5062],[77.8096,35.5],[77.8035,35.4909],[77.7863,35.488],[77.7674,35.4954],[77.7491,35.5087],[77.7359,35.5211],[77.7262,35.5128],[77.7272,35.4894],[77.7288,35.4773],[77.7078,35.4729],[77.6858,35.4722],[77.6852,35.4668],[77.6734,35.4659],[77.6654,35.4731],[77.6531,35.4812],[77.647,35.4792],[77.6371,35.4692],[77.6286,35.465],[77.6057,35.4691],[77.5566,35.4757],[77.4961,35.4778],[77.4743,35.465],[77.4437,35.4595],[77.4188,35.4666],[77.3852,35.4739],[77.3768,35.4834],[77.3632,35.4868],[77.3547,35.4958],[77.3529,35.5067],[77.3455,35.5192],[77.3301,35.5257],[77.332,35.5303],[77.3413,35.5351],[77.362,35.5432],[77.3887,35.5394],[77.4118,35.5234],[77.4305,35.5137],[77.443,35.514],[77.4582,35.5188],[77.4734,35.5177],[77.4798,35.5227],[77.4828,35.5296],[77.4735,35.5387],[77.4652,35.55],[77.4707,35.5598],[77.4756,35.5714],[77.4719,35.5843],[77.4587,35.5906],[77.4466,35.5939],[77.4401,35.6021],[77.4417,35.617],[77.441,35.6374],[77.4379,35.6561],[77.4281,35.6598],[77.4116,35.6563],[77.4028,35.6635],[77.4018,35.6815],[77.3853,35.6917],[77.378,35.7053],[77.3659,35.7152],[77.3437,35.721],[77.3355,35.7198],[77.3326,35.7128],[77.3211,35.701],[77.3124,35.7023],[77.2991,35.708],[77.2874,35.7226],[77.2803,35.7177],[77.2764,35.7084],[77.2583,35.7043],[77.2419,35.7085],[77.2292,35.7201],[77.213,35.7333],[77.1916,35.7324],[77.1797,35.7302],[77.169,35.7405],[77.1764,35.7681],[77.1621,35.765],[77.1522,35.7686],[77.1458,35.7775],[77.135,35.78],[77.1323,35.7892],[77.127,35.7943],[77.1157,35.7981],[77.0911,35.795],[77.062,35.7833],[77.0452,35.7773],[77.0105,35.7749],[77.001,35.7756],[76.9824,35.7876],[76.957,35.7899],[76.9356,35.789],[76.925,35.7933],[76.9038,35.8079],[76.8874,35.8126],[76.8611,35.836],[76.8235,35.8415],[76.8075,35.8497],[76.8046,35.8571],[76.7988,35.8796],[76.783,35.9052],[76.7578,35.932],[76.7394,35.9464],[76.7321,35.9546],[76.7329,35.9618],[76.7363,35.9663],[76.744,35.9706],[76.759,35.9803],[76.7704,35.9981],[76.7877,36.0167],[76.8104,36.0229],[76.8134,36.0311],[76.8137,36.0406],[76.7982,36.062],[76.7838,36.0719],[76.7522,36.08],[76.7201,36.0977],[76.7153,36.1082],[76.7164,36.1272],[76.7111,36.1401],[76.6962,36.1531],[76.6703,36.1739],[76.6559,36.1922],[76.6447,36.1977],[76.6343,36.19],[76.6169,36.178],[76.5941,36.1783],[76.5654,36.1862],[76.5493,36.2022],[76.5103,36.2107],[76.481,36.2197],[76.4683,36.2403],[76.4482,36.2463],[76.4368,36.2578],[76.4457,36.2656],[76.4485,36.272],[76.4459,36.2835],[76.4375,36.3104],[76.4134,36.328],[76.3798,36.3469],[76.3539,36.3694],[76.3399,36.3697],[76.321,36.365],[76.2744,36.3566],[76.2665,36.3588],[76.2441,36.3716],[76.2303,36.3814],[76.2007,36.397],[76.1767,36.4009],[76.164,36.4065],[76.1446,36.4285],[76.1117,36.4597],[76.0917,36.4746],[76.0712,36.4842],[76.0533,36.4913],[76.0101,36.4951],[75.9819,36.5028],[75.945,36.5116],[75.8908,36.5328],[75.8668,36.5455],[75.8593,36.5526],[75.8524,36.5583],[75.8319,36.5608],[75.807,36.5634],[75.7903,36.5752],[75.7694,36.5889],[75.7444,36.6077],[75.7347,36.6226],[75.7205,36.6383],[75.7107,36.6524],[75.7078,36.6573],[75.7014,36.6667],[75.6895,36.6828],[75.6628,36.7217],[75.6338,36.7538],[75.6127,36.7753],[75.5855,36.7864],[75.5408,36.8003],[75.488,36.8164],[75.4633,36.8303],[75.4583,36.8419],[75.455,36.8636],[75.4498,36.8889],[75.4418,36.8995],[75.4297,36.905],[75.4176,36.9033],[75.4088,36.9038],[75.4069,36.908],[75.4111,36.9215],[75.4249,36.9524],[75.4216,36.9657],[75.4184,36.9724],[75.4137,36.9774],[75.4037,36.9822],[75.3877,36.9777],[75.3792,36.9746],[75.3689,36.9752],[75.3544,36.9885],[75.3484,37.0049],[75.3504,37.0191],[75.3488,37.0359],[75.3466,37.0527],[75.3413,37.0608],[75.3363,37.0628],[75.3208,37.0643],[75.2765,37.0602],[75.211,37.05],[75.1969,37.0424],[75.1772,37.0202],[75.153,36.9882],[75.1092,36.9619],[75.0913,36.9611],[75.0552,36.9743],[75.0371,36.989],[75.0232,36.9921],[75.0157,36.9907],[74.954,36.9546],[74.9341,36.9384],[74.9227,36.9258],[74.9156,36.9203],[74.9098,36.9218],[74.8965,36.9415],[74.8657,36.9747],[74.8348,37.0053],[74.8334,37.0087],[74.8335,37.0147],[74.8352,37.0195],[74.8402,37.0297],[74.8409,37.0321],[74.8389,37.0358],[74.8358,37.038],[74.8292,37.039],[74.8048,37.035],[74.7985,37.0365],[74.7833,37.041],[74.7769,37.0416],[74.7691,37.0412],[74.7631,37.0384],[74.7602,37.036],[74.7571,37.0304],[74.7532,37.0219],[74.7494,37.0194],[74.7424,37.0233],[74.7331,37.0313],[74.7264,37.0385],[74.7222,37.0447],[74.7209,37.0476],[74.7159,37.0537],[74.7119,37.0638],[74.7089,37.0733],[74.7078,37.0857],[74.7057,37.0878],[74.6968,37.0883],[74.6901,37.0881],[74.6812,37.0867],[74.6671,37.0796],[74.6524,37.0701],[74.6448,37.0671],[74.6338,37.0637],[74.6224,37.0614],[74.6104,37.0602],[74.6048,37.0592],[74.5894,37.0592],[74.5817,37.0576],[74.5736,37.0545],[74.5681,37.0518],[74.5731,37.0507],[74.5767,37.0481],[74.5788,37.042],[74.5801,37.031],[74.5804,37.021],[74.5793,37.0126],[74.5766,37.0012],[74.5754,36.9989],[74.5742,36.99],[74.5711,36.9793],[74.5691,36.9703],[74.5657,36.9593],[74.5605,36.9572],[74.5511,36.9591],[74.5426,36.9614],[74.5393,36.9647],[74.538,36.9703],[74.5373,36.9774],[74.5343,36.9832],[74.5309,36.9876],[74.523,36.9951],[74.5138,36.9965],[74.4958,36.9962],[74.4751,36.9972],[74.4657,36.9973],[74.4568,36.9983],[74.4511,36.9982],[74.4381,36.996],[74.4264,36.9957],[74.4171,36.9934],[74.4127,36.9845],[74.4082,36.9816],[74.4011,36.979],[74.3957,36.9762],[74.3887,36.9735],[74.381,36.974],[74.3757,36.9734],[74.3709,36.9709],[74.3656,36.9672],[74.3561,36.9631],[74.3469,36.9572],[74.3301,36.9406],[74.3291,36.9381],[74.3211,36.9325],[74.3187,36.9301],[74.3044,36.9213],[74.2974,36.9177],[74.2826,36.9092],[74.2726,36.9041],[74.264,36.9014],[74.2538,36.8957],[74.249,36.8936],[74.2418,36.8952],[74.234,36.8986],[74.2259,36.9016],[74.2211,36.9027],[74.2047,36.9041],[74.189,36.9058],[74.1694,36.9093],[74.1558,36.9105],[74.1517,36.9044],[74.1442,36.8909],[74.1426,36.8865],[74.1399,36.8718],[74.137,36.863],[74.1362,36.8542],[74.1353,36.8501],[74.1335,36.8479],[74.126,36.843],[74.1163,36.8357],[74.1136,36.8357],[74.1028,36.8393],[74.0888,36.8421],[74.0855,36.8415],[74.0798,36.8388],[74.0724,36.8341],[74.0633,36.8267],[74.0499,36.8136],[74.0465,36.8108],[74.0397,36.8151],[74.0315,36.8236],[74.0251,36.8274],[74.0171,36.83],[74.0084,36.8338],[74.0044,36.8343],[73.9954,36.8342],[73.982,36.8296],[73.9685,36.8369],[73.9615,36.8393],[73.9572,36.8434],[73.9506,36.8458],[73.947,36.8504],[73.9413,36.8621],[73.933,36.8682],[73.921,36.8792],[73.9149,36.883],[73.9068,36.8838],[73.9019,36.8812],[73.8961,36.8767],[73.893,36.8755],[73.8826,36.881],[73.8705,36.8942],[73.8593,36.8973],[73.8519,36.8978],[73.8384,36.8995],[73.8315,36.9012],[73.8204,36.9031],[73.8147,36.8944],[73.8102,36.8886],[73.8007,36.8875],[73.7996,36.8936],[73.7968,36.8984],[73.7941,36.9002],[73.7869,36.9002],[73.7736,36.8963],[73.7702,36.9012],[73.7655,36.9052],[73.7588,36.9053],[73.7559,36.9077],[73.7513,36.9097],[73.7449,36.9089],[73.7388,36.9041],[73.7335,36.8989],[73.7287,36.898],[73.7206,36.9007],[73.7122,36.9065],[73.7035,36.9121],[73.6972,36.9143],[73.69,36.9143],[73.6711,36.9117],[73.6714,36.9045],[73.6677,36.9004],[73.6653,36.8918],[73.6655,36.8854],[73.667,36.8809],[73.6825,36.8734],[73.6873,36.8699],[73.6894,36.8659],[73.6995,36.8607],[73.7062,36.858],[73.707,36.8464],[73.7055,36.8378],[73.7118,36.8344],[73.7198,36.8363],[73.7253,36.8351],[73.732,36.831],[73.7366,36.8301],[73.7387,36.826],[73.7473,36.8277],[73.7491,36.8274],[73.7544,36.8189],[73.7588,36.8162],[73.7687,36.8151],[73.774,36.815],[73.7881,36.819],[73.7942,36.8192],[73.7976,36.8182],[73.7979,36.8165],[73.7959,36.8056],[73.7964,36.8025],[73.8004,36.7993],[73.8015,36.7942],[73.8064,36.7908],[73.8148,36.789],[73.8196,36.79],[73.827,36.7938],[73.8316,36.7953],[73.837,36.7951],[73.8401,36.7937],[73.8532,36.776],[73.8598,36.7714],[73.8638,36.7695],[73.868,36.7663],[73.8713,36.7621],[73.8756,36.7581],[73.8793,36.7533],[73.8834,36.7453],[73.8841,36.7392],[73.8829,36.7362],[73.8831,36.733],[73.8853,36.7299],[73.8835,36.7281],[73.8754,36.7231],[73.8736,36.7206],[73.8786,36.7099],[73.8787,36.7071],[73.8767,36.7047],[73.8718,36.7014],[73.867,36.7008],[73.8574,36.7023],[73.8487,36.7024],[73.8403,36.706],[73.8205,36.7115],[73.8125,36.7148],[73.7956,36.7188],[73.7845,36.7146],[73.7799,36.7104],[73.7748,36.7021],[73.7659,36.7047],[73.7567,36.7063],[73.749,36.7071],[73.7408,36.709],[73.7367,36.7088],[73.7329,36.7102],[73.7271,36.7133],[73.7246,36.7133],[73.7172,36.7117],[73.7099,36.7123],[73.7036,36.7052],[73.6999,36.7033],[73.695,36.6991],[73.6928,36.6939],[73.6922,36.6891],[73.6893,36.6876],[73.6831,36.6866],[73.6766,36.6871],[73.6693,36.6888],[73.6632,36.6911],[73.6555,36.6918],[73.6484,36.6931],[73.638,36.6979],[73.6348,36.6982],[73.6253,36.6914],[73.6216,36.6903],[73.6156,36.6911],[73.6126,36.6933],[73.6068,36.6949],[73.5927,36.6928],[73.59,36.6945],[73.5865,36.6994],[73.5856,36.7095],[73.5793,36.7224],[73.569,36.7169],[73.5635,36.7145],[73.5543,36.7096],[73.5498,36.7161],[73.5342,36.7114],[73.5249,36.7098],[73.5199,36.7103],[73.5151,36.7162],[73.5125,36.7217],[73.5098,36.7219],[73.5042,36.7189],[73.4999,36.7139],[73.4976,36.7131],[73.4913,36.7147],[73.4875,36.7172],[73.4793,36.7195],[73.4791,36.7231],[73.4686,36.7285],[73.4664,36.7324],[73.462,36.735],[73.4587,36.7326],[73.4534,36.7305],[73.4467,36.7289],[73.4339,36.731],[73.428,36.7331],[73.426,36.7363],[73.4253,36.7429],[73.4214,36.743],[73.4164,36.741],[73.4102,36.7348],[73.4033,36.7343],[73.3989,36.733],[73.3944,36.7301],[73.3899,36.7298],[73.3842,36.7329],[73.3738,36.7311],[73.367,36.7317],[73.3583,36.7341],[73.3516,36.735],[73.3521,36.7282],[73.3483,36.722],[73.3488,36.7184],[73.3478,36.7164],[73.3446,36.7147],[73.3336,36.7143],[73.3108,36.7143],[73.3039,36.7063],[73.2941,36.7042],[73.2857,36.7038],[73.2668,36.7062],[73.2556,36.7045],[73.2461,36.7054],[73.238,36.7115],[73.2348,36.7071],[73.2288,36.7015],[73.2198,36.6978],[73.2095,36.6955],[73.2014,36.6955],[73.1923,36.6977],[73.1867,36.7012],[73.1855,36.7049],[73.1866,36.7103],[73.1823,36.7125],[73.175,36.718],[73.1707,36.724],[73.1706,36.7191],[73.1679,36.713],[73.1642,36.7103],[73.1625,36.7076],[73.1527,36.7034],[73.1381,36.6985],[73.1341,36.6959],[73.1286,36.6934],[73.123,36.6896],[73.1194,36.6856],[73.1164,36.6842],[73.113,36.6843],[73.1058,36.6859],[73.0952,36.6834],[73.0845,36.6894],[73.076,36.6951],[73.0695,36.6999],[73.0676,36.7006],[73.0703,36.6887],[73.0707,36.6798],[73.0717,36.6776],[73.0804,36.67],[73.0803,36.6652],[73.078,36.6529],[73.0789,36.65],[73.0798,36.6388],[73.0761,36.6338],[73.0741,36.6288],[73.0813,36.6236],[73.0915,36.6178],[73.0963,36.6135],[73.0979,36.6099],[73.0972,36.606],[73.094,36.5999],[73.0896,36.5962],[73.0877,36.5933],[73.0827,36.5893],[73.0795,36.5856],[73.0787,36.5735],[73.078,36.5692],[73.0747,36.5666],[73.0619,36.5612],[73.0585,36.5582],[73.0525,36.5487],[73.0523,36.5459],[73.0537,36.5409],[73.0519,36.533],[73.0448,36.5307],[73.0393,36.5303],[73.0341,36.5292],[73.0253,36.5262],[73.0177,36.525],[73.0002,36.5181],[72.9984,36.5188],[72.995,36.5156],[72.9903,36.513],[72.9779,36.5115],[72.9788,36.5075],[72.9828,36.5015],[72.9789,36.4991],[72.9747,36.4943],[72.9745,36.488],[72.9748,36.4735],[72.9823,36.4747],[72.9875,36.4728],[72.9879,36.4693],[72.9826,36.4656],[72.9825,36.4617],[72.9794,36.4573],[72.9734,36.4538],[72.9689,36.4564],[72.9634,36.4584],[72.9556,36.4593],[72.9497,36.4619],[72.9461,36.4662],[72.9388,36.4611],[72.9286,36.4549],[72.9236,36.4535],[72.9187,36.455],[72.9081,36.4609],[72.9046,36.4601],[72.9008,36.456],[72.8942,36.4513],[72.8866,36.4443],[72.8734,36.4392],[72.8638,36.4374],[72.8597,36.4356],[72.8592,36.4337],[72.8677,36.4251],[72.8746,36.4196],[72.8758,36.4169],[72.8707,36.4118],[72.8701,36.4075],[72.8718,36.4004],[72.8755,36.3946],[72.8741,36.3904],[72.8641,36.3789],[72.8586,36.3751],[72.851,36.3724],[72.8537,36.3663],[72.8482,36.3658],[72.8401,36.3673],[72.8351,36.3658],[72.8245,36.3609],[72.8161,36.3564],[72.8086,36.351],[72.806,36.3451],[72.805,36.3353],[72.8033,36.3308],[72.7999,36.3279],[72.794,36.3277],[72.7889,36.3261],[72.7843,36.3218],[72.7782,36.3173],[72.7739,36.3159],[72.7703,36.3091],[72.7659,36.3084],[72.7609,36.3046],[72.7609,36.3007],[72.7565,36.2973],[72.7519,36.3003],[72.7483,36.3012],[72.7394,36.3003],[72.7311,36.2983],[72.7299,36.2951],[72.7266,36.2907],[72.7211,36.2898],[72.7197,36.285],[72.7141,36.2847],[72.7134,36.2786],[72.7112,36.2763],[72.7076,36.2744],[72.6926,36.2734],[72.689,36.2714],[72.6854,36.2707],[72.6806,36.271],[72.6773,36.2653],[72.6742,36.2622],[72.6782,36.2578],[72.6834,36.2493],[72.6848,36.2439],[72.68,36.2433],[72.6769,36.2465],[72.6702,36.2545],[72.6651,36.2557],[72.6622,36.2581],[72.6545,36.2592],[72.6445,36.2584],[72.6355,36.2626],[72.624,36.2688],[72.6117,36.2695],[72.6051,36.2634],[72.5987,36.2619],[72.5942,36.2592],[72.5877,36.2589],[72.5847,36.2569],[72.5807,36.2526],[72.5777,36.2469],[72.5769,36.2426],[72.5727,36.2391],[72.5733,36.2342],[72.5722,36.2311],[72.5739,36.2238],[72.5649,36.2144],[72.5575,36.214],[72.5555,36.2117],[72.5503,36.2083],[72.5473,36.2054],[72.5505,36.1985],[72.5456,36.1954],[72.5445,36.1868],[72.5402,36.1791],[72.5358,36.1755],[72.5359,36.1733],[72.5381,36.1715],[72.5455,36.1679],[72.5491,36.1646],[72.5512,36.1613],[72.5503,36.1539],[72.5507,36.15],[72.5535,36.1467],[72.5612,36.144],[72.5617,36.1399],[72.5591,36.1374],[72.5478,36.1301],[72.5404,36.1277],[72.5341,36.1167],[72.5276,36.1102],[72.5237,36.1027],[72.5208,36.0983],[72.5201,36.0863],[72.5185,36.0753],[72.5167,36.0673],[72.5259,36.0598],[72.5357,36.0473],[72.5445,36.0464],[72.5583,36.0461],[72.5644,36.0472],[72.5688,36.0446],[72.5739,36.0392],[72.5794,36.0358],[72.5827,36.0299],[72.5846,36.0251],[72.5816,36.0217],[72.5835,36.0171],[72.5809,36.0133],[72.5742,36.0104],[72.5711,36.0084],[72.5678,36.0028],[72.5673,35.9981],[72.5593,35.9936],[72.5623,35.9891],[72.56,35.987],[72.5488,35.9824],[72.5393,35.9862],[72.5387,35.9851],[72.5425,35.9742],[72.5424,35.9695],[72.5358,35.9611],[72.5344,35.9574],[72.5354,35.9521],[72.5315,35.9498],[72.5264,35.9503],[72.5131,35.9387],[72.5137,35.9345],[72.5169,35.9321],[72.515,35.9267],[72.5168,35.912],[72.5185,35.9055],[72.5237,35.9037],[72.5316,35.9031],[72.5345,35.9014],[72.5369,35.8978],[72.543,35.8945],[72.5465,35.896],[72.551,35.896],[72.5565,35.8979],[72.5595,35.8958],[72.5606,35.8894],[72.5654,35.8876],[72.5705,35.8821],[72.5742,35.8736],[72.58,35.8644],[72.5851,35.8594],[72.6046,35.8617],[72.6115,35.8609],[72.6167,35.8546],[72.62,35.8535],[72.6252,35.8578],[72.6308,35.8565],[72.6422,35.8464],[72.6497,35.8389],[72.6646,35.8303],[72.6779,35.8237],[72.6844,35.8225],[72.6874,35.8234],[72.6905,35.8257],[72.6999,35.831],[72.7126,35.8429],[72.7234,35.8522],[72.7266,35.8531],[72.7316,35.8505],[72.7362,35.8472],[72.7429,35.8447],[72.7483,35.8407],[72.7614,35.8323],[72.7648,35.8331],[72.7752,35.8415],[72.7794,35.8426],[72.7843,35.8415],[72.7865,35.8425],[72.7875,35.8494],[72.7874,35.8553],[72.7918,35.8594],[72.7966,35.8602],[72.8034,35.8586],[72.8082,35.8591],[72.8125,35.8659],[72.814,35.8751],[72.8157,35.8801],[72.8192,35.8817],[72.8326,35.8709],[72.8393,35.8671],[72.8433,35.8673],[72.8552,35.8711],[72.8728,35.8747],[72.8827,35.8755],[72.8911,35.8737],[72.8936,35.8714],[72.8929,35.8674],[72.889,35.8543],[72.8893,35.8488],[72.8924,35.8445],[72.8984,35.8408],[72.9184,35.8391],[72.9296,35.8402],[72.9583,35.8472],[72.9733,35.8542],[72.9776,35.8574],[72.9833,35.8593],[72.9871,35.8598],[72.9944,35.8595],[73.0002,35.8578],[73.0063,35.8526],[73.0123,35.8493],[73.0243,35.8467],[73.0288,35.8471],[73.0349,35.8497],[73.058,35.8627],[73.0682,35.8777],[73.0743,35.8786],[73.0798,35.8784],[73.0839,35.8775],[73.09,35.8727],[73.096,35.8654],[73.1059,35.8575],[73.1203,35.8478],[73.1408,35.8383],[73.1473,35.8337],[73.1487,35.8312],[73.1479,35.8287],[73.1412,35.8251],[73.1372,35.8192],[73.1335,35.8018],[73.1279,35.7853],[73.1265,35.7762],[73.1258,35.7673],[73.1257,35.7569],[73.1273,35.7514],[73.1264,35.7356],[73.1264,35.721],[73.1281,35.7164],[73.1329,35.7108],[73.138,35.7066],[73.1536,35.7003],[73.1577,35.7001],[73.1586,35.6973],[73.1624,35.6932],[73.1839,35.6793],[73.1943,35.6737],[73.2037,35.6708],[73.2126,35.6689],[73.2159,35.6663],[73.2239,35.6576],[73.2312,35.6512],[73.2398,35.6444],[73.2496,35.6385],[73.2599,35.6289],[73.2687,35.6244],[73.2887,35.6152],[73.2997,35.6112],[73.3063,35.6097],[73.3274,35.6062],[73.3318,35.6046],[73.3416,35.6018],[73.3524,35.5994],[73.3607,35.5983],[73.3635,35.5972],[73.3732,35.5889],[73.3918,35.5677],[73.3939,35.5624],[73.3981,35.5571],[73.4027,35.5574],[73.4246,35.5624],[73.4387,35.5644],[73.4546,35.5674],[73.4702,35.5708],[73.4774,35.5719],[73.4811,35.5713],[73.4959,35.5599],[73.5015,35.5576],[73.5073,35.5579],[73.5129,35.5605],[73.5221,35.5662],[73.5279,35.5673],[73.5331,35.5657],[73.5367,35.5635],[73.5418,35.5582],[73.5502,35.5506],[73.5568,35.5468],[73.5616,35.5464],[73.5685,35.5481],[73.5867,35.5539],[73.6017,35.5556],[73.6093,35.5582],[73.6221,35.5678],[73.6284,35.569],[73.638,35.563],[73.6455,35.5561],[73.6518,35.551],[73.6588,35.5476],[73.6657,35.5459],[73.6734,35.5447],[73.691,35.5455],[73.7141,35.5489],[73.7213,35.5492],[73.7228,35.5474],[73.7253,35.5395],[73.7253,35.5349],[73.7269,35.5318],[73.7296,35.5295],[73.7364,35.5277],[73.7436,35.5268],[73.7525,35.5263],[73.7785,35.5229],[73.7803,35.5181],[73.7813,35.5124],[73.7827,35.4951],[73.7838,35.4852],[73.7854,35.4771],[73.7872,35.4706],[73.7886,35.463],[73.792,35.4542],[73.7903,35.4529],[73.7796,35.4479],[73.763,35.441],[73.7524,35.436],[73.7396,35.429],[73.727,35.419],[73.7232,35.412],[73.7213,35.407],[73.7149,35.3944],[73.7105,35.3881],[73.6983,35.3757],[73.6954,35.3691],[73.6929,35.3508],[73.6951,35.3322],[73.6948,35.3184],[73.6985,35.3101],[73.7066,35.3],[73.7152,35.2868],[73.7206,35.2799],[73.725,35.273],[73.7241,35.2672],[73.7207,35.2496],[73.7191,35.2425],[73.7137,35.2321],[73.708,35.2225],[73.7202,35.2144],[73.7294,35.2097],[73.7335,35.2085],[73.7412,35.2149],[73.7471,35.2183],[73.7566,35.2229],[73.7664,35.2333],[73.7705,35.236],[73.7757,35.2369],[73.7922,35.2382],[73.7991,35.2384],[73.8044,35.2397],[73.8083,35.2395],[73.8284,35.2301],[73.8348,35.2262],[73.842,35.2255],[73.8454,35.2246],[73.8483,35.2218],[73.8528,35.2141],[73.8567,35.2099],[73.8612,35.2071],[73.8662,35.2062],[73.8841,35.2101],[73.897,35.2117],[73.9152,35.208],[73.9245,35.2039],[73.9417,35.1865],[73.9517,35.1728],[73.9543,35.1716],[73.9568,35.168],[73.9624,35.1705],[73.9695,35.1759],[73.9777,35.1806],[73.9831,35.1813],[73.993,35.1799],[74.0003,35.18],[73.9996,35.1828],[74.0028,35.1836],[74.0041,35.1817],[74.0053,35.1718],[74.0048,35.1677],[74.009,35.1653],[74.0134,35.1647],[74.0166,35.1632],[74.0254,35.1527],[74.0308,35.148],[74.0338,35.1469],[74.0406,35.1483],[74.0441,35.1498],[74.0465,35.1481],[74.0512,35.1465],[74.0634,35.147],[74.0662,35.1488],[74.0696,35.1523],[74.0741,35.1526],[74.0801,35.1495],[74.0852,35.1489],[74.0911,35.1416],[74.0958,35.1407],[74.0992,35.1424],[74.1066,35.148],[74.1098,35.149],[74.1133,35.1478],[74.114,35.1442],[74.1136,35.1377],[74.1113,35.1339],[74.1071,35.1303],[74.1059,35.1257],[74.111,35.1253],[74.119,35.1184],[74.1279,35.1161],[74.131,35.1138],[74.1337,35.11],[74.1337,35.1046],[74.1447,35.0958],[74.1561,35.0909],[74.1723,35.0912],[74.1913,35.0909],[74.2053,35.093],[74.2151,35.0937],[74.2202,35.0886],[74.2175,35.0822],[74.2199,35.0753],[74.2235,35.0736],[74.227,35.0743],[74.2352,35.0814],[74.2402,35.0791],[74.2425,35.0722],[74.2414,35.0601],[74.2451,35.0521],[74.2559,35.0442],[74.2652,35.0409],[74.2777,35.044],[74.2882,35.0477],[74.2915,35.0547],[74.2927,35.0645],[74.3052,35.0676],[74.3312,35.0669],[74.3475,35.0649],[74.3609,35.0651],[74.3757,35.066],[74.382,35.0678],[74.3908,35.0795],[74.3996,35.0918],[74.4106,35.1013],[74.4153,35.1117],[74.427,35.1195],[74.4387,35.1301],[74.4399,35.1259],[74.4585,35.1253],[74.4831,35.1197],[74.4994,35.1156],[74.5122,35.1035],[74.5197,35.0929],[74.5295,35.0846],[74.5398,35.075],[74.5389,35.0686],[74.5301,35.0601],[74.5291,35.0513],[74.5307,35.0462],[74.5495,35.0347],[74.5555,35.0313],[74.5605,35.026],[74.5688,35.0247],[74.5784,35.0243],[74.5851,35.0181],[74.5878,35.0064],[74.585,34.9979],[74.581,34.9915],[74.5763,34.9865],[74.5705,34.9756],[74.5698,34.9623],[74.577,34.9139],[74.5903,34.9158],[74.5965,34.9218],[74.6042,34.9248],[74.6201,34.9206],[74.6343,34.9099],[74.6464,34.9036],[74.6625,34.9068],[74.6641,34.9004],[74.6727,34.8913],[74.6842,34.8788],[74.6982,34.8807],[74.7017,34.883],[74.7115,34.8809],[74.7115,34.8786],[74.7167,34.8665],[74.7202,34.8648],[74.7294,34.8632],[74.7395,34.8541],[74.7403,34.8484],[74.7502,34.845],[74.7628,34.8441],[74.7769,34.8408],[74.7804,34.8432],[74.7878,34.8525],[74.7985,34.8521],[74.8076,34.8505],[74.8133,34.8436],[74.8233,34.8374],[74.831,34.8398],[74.8397,34.8407],[74.8532,34.8311],[74.861,34.8283],[74.8722,34.8302],[74.8871,34.8223],[74.8986,34.8097],[74.9015,34.8016],[74.9073,34.7925],[74.9186,34.7851],[74.9298,34.787],[74.9416,34.7947],[74.9506,34.8017],[74.9567,34.8081],[74.9665,34.8135],[74.9796,34.8235],[75.0025,34.8388],[75.0163,34.8483],[75.0311,34.8484],[75.0438,34.8434],[75.0571,34.8423],[75.064,34.8471],[75.0653,34.8575],[75.0636,34.8708],[75.0644,34.8884],[75.0641,34.9052],[75.0716,34.9192],[75.0856,34.9194],[75.1013,34.9191],[75.117,34.9013],[75.1316,34.8862],[75.142,34.875],[75.1428,34.8616],[75.1442,34.8503],[75.1581,34.8455],[75.1726,34.8427],[75.1906,34.8349],[75.2106,34.8248],[75.2232,34.8175],[75.2397,34.8018],[75.2477,34.7876],[75.2563,34.7739],[75.2541,34.76],[75.2509,34.7499],[75.2636,34.7446],[75.2626,34.7317],[75.2543,34.7217],[75.2557,34.7113],[75.2582,34.7025],[75.2583,34.6976],[75.2482,34.6945],[75.2321,34.6908],[75.225,34.6824],[75.2162,34.6729],[75.2079,34.6654],[75.2056,34.6594],[75.2045,34.6535],[75.2104,34.6536],[75.2164,34.6527],[75.2182,34.6516],[75.2095,34.6477],[75.206,34.6438],[75.2081,34.6387],[75.2115,34.6386],[75.2206,34.6338],[75.2253,34.6346],[75.2306,34.6332],[75.2329,34.6362],[75.2415,34.6378],[75.2469,34.634],[75.2504,34.6302],[75.2541,34.6283],[75.2576,34.6186],[75.2583,34.6146],[75.2566,34.6105],[75.2533,34.6075],[75.2534,34.6041],[75.2641,34.6027],[75.2665,34.6015],[75.2691,34.5979],[75.2736,34.597],[75.278,34.5944],[75.2864,34.5954],[75.2882,34.5904],[75.2952,34.5873],[75.2986,34.5875],[75.3011,34.5858],[75.303,34.5823],[75.3064,34.5787],[75.3119,34.5767],[75.315,34.5696],[75.3199,34.5648],[75.3237,34.5658],[75.3285,34.5688],[75.3337,34.568],[75.3379,34.5647],[75.3442,34.563],[75.3527,34.5532],[75.3535,34.5498],[75.3585,34.5441],[75.3618,34.5421],[75.3611,34.5402],[75.3656,34.5381],[75.3656,34.5338],[75.3643,34.53],[75.3664,34.5245],[75.364,34.5219],[75.3572,34.5213],[75.3545,34.5196],[75.3517,34.5144],[75.3502,34.5077],[75.3473,34.5016],[75.3473,34.4956],[75.3432,34.4902],[75.3446,34.485],[75.3502,34.4801],[75.3496,34.4753],[75.3532,34.4691],[75.3491,34.4635],[75.3427,34.4609],[75.3392,34.4586],[75.3372,34.4517],[75.3326,34.4519],[75.3305,34.4503],[75.3329,34.4471],[75.3328,34.4426],[75.3283,34.4408],[75.3286,34.4374],[75.3342,34.4332],[75.3348,34.4295],[75.3432,34.4268],[75.3459,34.4273],[75.3538,34.4246],[75.3574,34.418],[75.3651,34.4185],[75.3712,34.4138],[75.3728,34.4109],[75.3716,34.4087],[75.3691,34.4005],[75.3666,34.3977],[75.3668,34.3936],[75.3721,34.3997],[75.3835,34.4017],[75.3881,34.41],[75.3844,34.4131],[75.3792,34.413],[75.3801,34.4162],[75.3776,34.4194],[75.3734,34.421],[75.37,34.4275],[75.368,34.4334],[75.3762,34.4431],[75.376,34.4452],[75.3853,34.454],[75.3902,34.4607],[75.3967,34.4651],[75.4003,34.4682],[75.4014,34.475],[75.4014,34.4827],[75.4005,34.4858],[75.398,34.4879],[75.3983,34.4911],[75.4067,34.5054],[75.4094,34.5159],[75.4144,34.5228],[75.4218,34.5263],[75.4293,34.5262],[75.4306,34.5287],[75.4316,34.5354],[75.4276,34.5411],[75.4237,34.549],[75.4193,34.5546],[75.4168,34.5615],[75.4135,34.5686],[75.4062,34.5738],[75.4124,34.6013],[75.4127,34.6203],[75.3995,34.6695],[75.3981,34.7089],[75.3987,34.7796],[75.4276,34.8358],[75.5458,34.9002],[75.5718,34.9145],[75.6293,34.9304],[75.6668,34.9444],[75.723,34.9497],[75.8043,34.9614],[75.8609,34.9631],[75.9172,34.9499],[75.951,34.9413],[76.0205,34.9483],[76.0686,34.9801],[76.1258,35.0241],[76.222,35.0282],[76.2992,35.0312],[76.3709,34.9995],[76.366,34.9957],[76.3673,34.9859],[76.3688,34.9811],[76.379,34.9762],[76.3781,34.9713],[76.3845,34.9684],[76.3878,34.9651],[76.3874,34.9607],[76.3861,34.9581],[76.3819,34.9553],[76.3803,34.9523],[76.3833,34.9514],[76.3871,34.9487],[76.3877,34.9472],[76.3956,34.9437],[76.3964,34.9418],[76.395,34.9332],[76.3965,34.9288],[76.4011,34.9231],[76.4057,34.9185],[76.4067,34.9144],[76.4089,34.9117],[76.4154,34.9063],[76.4103,34.9038],[76.4088,34.8972],[76.4111,34.8956],[76.4299,34.9142],[76.4638,34.9397],[76.7574,35.0627],[76.8604,35.1234],[77.0527,35.1641],[77.2037,35.1935],[77.3699,35.1839],[77.4827,35.2569],[77.5112,35.3044],[77.5643,35.3195],[77.6173,35.3161],[77.6632,35.2674],[77.74,35.2569],[77.7425,35.2583],[77.7227,35.2924],[77.8559,35.3876],[77.8583,35.3875],[77.8861,35.4051],[77.9646,35.4388],[77.9625,35.4612]]]},"properties":{"id":"in:subdistrict:x9-unnamed","level":"subdistrict","name":"Unnamed sub-district","code":0,"parent":"in:district:9","state":"in:state:37"}},{"type":"Feature","geometry":{"type":"Polygon","coordinates":[[[77.0109,32.9886],[77.0239,32.9913],[77.032,32.9899],[77.0372,32.9949],[77.0388,32.9975],[77.0474,32.9986],[77.054,32.9949],[77.0564,32.992],[77.0617,32.9894],[77.0692,32.9865],[77.0712,32.9844],[77.0776,32.983],[77.0798,32.9832],[77.0827,32.9784],[77.0818,32.9756],[77.0865,32.9724],[77.0901,32.9728],[77.0953,32.9713],[77.1013,32.9721],[77.1108,32.9751],[77.1118,32.9795],[77.1159,32.9846],[77.1262,32.9813],[77.1337,32.9801],[77.1426,32.9813],[77.1468,32.9785],[77.1505,32.9782],[77.1492,32.9735],[77.1493,32.9692],[77.1474,32.9654],[77.1492,32.9606],[77.1487,32.9562],[77.1611,32.9527],[77.1619,32.9506],[77.1595,32.9389],[77.1638,32.9374],[77.1641,32.9346],[77.1624,32.9336],[77.1618,32.9306],[77.1642,32.9205],[77.1635,32.9175],[77.1599,32.913],[77.1616,32.9116],[77.1691,32.9104],[77.1739,32.9133],[77.1785,32.9231],[77.188,32.9287],[77.1929,32.9234],[77.1932,32.917],[77.1982,32.9118],[77.1992,32.9094],[77.2019,32.9087],[77.2032,32.9063],[77.2076,32.9062],[77.2103,32.905],[77.2191,32.9041],[77.2248,32.901],[77.2344,32.8942],[77.243,32.8922],[77.2398,32.8843],[77.2371,32.8828],[77.2376,32.8802],[77.2434,32.8746],[77.2443,32.8727],[77.25,32.8724],[77.2547,32.8676],[77.2555,32.8636],[77.2627,32.8641],[77.2663,32.8688],[77.2714,32.8727],[77.274,32.8739],[77.2754,32.8768],[77.2781,32.8785],[77.2857,32.8791],[77.2957,32.8856],[77.2988,32.8832],[77.3031,32.8826],[77.3116,32.8886],[77.3158,32.8912],[77.3183,32.8944],[77.3147,32.8992],[77.3142,32.9039],[77.3112,32.906],[77.3089,32.9131],[77.3085,32.9203],[77.3064,32.9243],[77.3027,32.9263],[77.3006,32.931],[77.3017,32.9369],[77.3013,32.9386],[77.2963,32.9416],[77.2931,32.9484],[77.2894,32.9512],[77.2874,32.9588],[77.287,32.9673],[77.2852,32.9727],[77.2871,32.9779],[77.2819,32.9804],[77.2793,32.9832],[77.2796,32.9906],[77.2771,32.9929],[77.2764,32.9974],[77.2794,33.0009],[77.2802,33.0045],[77.2826,33.0076],[77.2841,33.0137],[77.2837,33.0178],[77.2846,33.0202],[77.2872,33.0222],[77.2903,33.027],[77.2891,33.0318],[77.292,33.0393],[77.2961,33.0349],[77.3018,33.0357],[77.306,33.0375],[77.3103,33.0347],[77.3137,33.0348],[77.3167,33.037],[77.3165,33.043],[77.3175,33.0441],[77.3243,33.0424],[77.3282,33.0448],[77.3307,33.0487],[77.3339,33.0489],[77.3363,33.0506],[77.3379,33.0606],[77.3371,33.0649],[77.3379,33.0686],[77.335,33.0736],[77.3367,33.0818],[77.3386,33.0868],[77.3529,33.0849],[77.3572,33.0817],[77.3636,33.0803],[77.3696,33.0813],[77.3802,33.0857],[77.3961,33.0821],[77.4001,33.0844],[77.4067,33.0856],[77.4082,33.087],[77.4102,33.0925],[77.4132,33.0964],[77.4156,33.1017],[77.4144,33.107],[77.4146,33.1109],[77.4133,33.1135],[77.4132,33.1173],[77.4143,33.1189],[77.4112,33.1274],[77.4139,33.1333],[77.4177,33.1362],[77.4134,33.1421],[77.4095,33.1437],[77.41,33.1492],[77.4069,33.1561],[77.4095,33.1593],[77.4102,33.164],[77.4097,33.1661],[77.4025,33.1721],[77.407,33.1793],[77.412,33.1824],[77.413,33.189],[77.416,33.1914],[77.4171,33.1959],[77.4192,33.1991],[77.4217,33.1995],[77.4283,33.203],[77.4328,33.2046],[77.4412,33.2063],[77.4451,33.2048],[77.4484,33.2066],[77.4538,33.2062],[77.4608,33.2023],[77.464,33.2013],[77.4686,33.2012],[77.4744,33.1947],[77.4834,33.1938],[77.4843,33.1911],[77.4882,33.1884],[77.4905,33.1846],[77.4942,33.1823],[77.4984,33.1815],[77.505,33.1789],[77.5098,33.1757],[77.518,33.1733],[77.5186,33.1714],[77.5243,33.1636],[77.5297,33.1606],[77.5379,33.1582],[77.5381,33.1615],[77.5367,33.1693],[77.5355,33.1719],[77.5375,33.1755],[77.5375,33.1809],[77.533,33.185],[77.5308,33.1898],[77.5287,33.1902],[77.5247,33.1946],[77.5251,33.1964],[77.5229,33.2022],[77.5239,33.2067],[77.5218,33.2112],[77.5224,33.2138],[77.52,33.2207],[77.5152,33.2237],[77.5099,33.2253],[77.5052,33.2306],[77.5027,33.2376],[77.4992,33.2414],[77.4956,33.2432],[77.4921,33.2469],[77.4955,33.2533],[77.4936,33.2596],[77.491,33.2619],[77.4865,33.2685],[77.4829,33.2687],[77.4801,33.2723],[77.4767,33.2748],[77.4762,33.2766],[77.4801,33.2799],[77.4822,33.2844],[77.4861,33.2884],[77.4873,33.2911],[77.49,33.2936],[77.4958,33.2974],[77.4992,33.3012],[77.4993,33.3042],[77.4946,33.3102],[77.4946,33.3136],[77.4999,33.316],[77.5059,33.3215],[77.5076,33.324],[77.5154,33.3258],[77.527,33.3255],[77.5304,33.3242],[77.5345,33.3246],[77.5399,33.3298],[77.5429,33.3292],[77.5515,33.3332],[77.558,33.3338],[77.5615,33.3366],[77.5596,33.3434],[77.5554,33.3465],[77.5549,33.348],[77.558,33.3516],[77.5564,33.355],[77.5523,33.3577],[77.5474,33.3599],[77.5388,33.3592],[77.5352,33.3569],[77.5323,33.3603],[77.5257,33.3589],[77.5246,33.3605],[77.5249,33.3651],[77.5154,33.3671],[77.5138,33.3684],[77.5127,33.3748],[77.5161,33.3776],[77.5167,33.3801],[77.5154,33.3862],[77.5165,33.3891],[77.5202,33.3924],[77.52,33.3995],[77.5224,33.4061],[77.5214,33.4084],[77.5182,33.4097],[77.5166,33.4118],[77.5085,33.4126],[77.503,33.4157],[77.4987,33.4139],[77.4957,33.4138],[77.4882,33.4153],[77.4807,33.4197],[77.4778,33.4245],[77.4754,33.4268],[77.4718,33.4327],[77.4682,33.4401],[77.4667,33.4449],[77.4633,33.4473],[77.4625,33.4512],[77.4592,33.4593],[77.4544,33.4636],[77.4519,33.469],[77.4489,33.4801],[77.4449,33.4865],[77.4423,33.494],[77.4387,33.4957],[77.4297,33.4955],[77.4254,33.4939],[77.4203,33.4944],[77.4116,33.4942],[77.4064,33.4926],[77.4022,33.4922],[77.3967,33.4928],[77.3958,33.4885],[77.3915,33.4868],[77.389,33.4868],[77.383,33.4849],[77.381,33.483],[77.3771,33.4828],[77.3725,33.4795],[77.3633,33.4768],[77.36,33.477],[77.3517,33.4816],[77.3473,33.4829],[77.3425,33.4862],[77.3421,33.4887],[77.3377,33.4928],[77.332,33.4908],[77.3213,33.4894],[77.3171,33.4909],[77.3106,33.4861],[77.3086,33.4856],[77.3035,33.4872],[77.2985,33.4878],[77.2948,33.4955],[77.2928,33.4973],[77.2853,33.4994],[77.2822,33.5015],[77.2842,33.5091],[77.282,33.5093],[77.2767,33.5134],[77.2726,33.5196],[77.2674,33.5199],[77.2604,33.524],[77.2558,33.5292],[77.2565,33.5325],[77.2552,33.5338],[77.2546,33.542],[77.2488,33.549],[77.2476,33.5524],[77.241,33.56],[77.2407,33.5618],[77.2422,33.5664],[77.2411,33.5713],[77.2391,33.5836],[77.2374,33.5878],[77.2332,33.5904],[77.2336,33.5929],[77.2382,33.5984],[77.2385,33.6012],[77.2327,33.6086],[77.2293,33.6117],[77.2236,33.6156],[77.218,33.6172],[77.2149,33.6197],[77.2078,33.6227],[77.2078,33.6302],[77.2101,33.6333],[77.207,33.6395],[77.1991,33.6411],[77.1933,33.6433],[77.1926,33.6452],[77.1833,33.6497],[77.1808,33.6539],[77.1808,33.6568],[77.1756,33.6629],[77.1708,33.6615],[77.1658,33.6627],[77.1597,33.6667],[77.1585,33.6691],[77.1531,33.6747],[77.1497,33.6794],[77.1424,33.6808],[77.1406,33.6823],[77.1291,33.6854],[77.1197,33.6797],[77.12,33.6763],[77.1142,33.6754],[77.1102,33.6761],[77.1069,33.6732],[77.101,33.672],[77.0972,33.6737],[77.0913,33.6787],[77.0734,33.6923],[77.0722,33.6942],[77.0728,33.6983],[77.0692,33.7008],[77.0659,33.7007],[77.0609,33.7055],[77.0578,33.7074],[77.0526,33.709],[77.0476,33.7067],[77.0451,33.7081],[77.0423,33.7076],[77.039,33.7087],[77.0319,33.7084],[77.0228,33.705],[77.0192,33.7044],[77.0159,33.7054],[77.0128,33.7091],[77.003,33.7136],[76.9977,33.7181],[76.9924,33.7198],[76.9894,33.7232],[76.9854,33.7241],[76.98,33.7227],[76.9721,33.718],[76.9693,33.7139],[76.9657,33.7115],[76.9591,33.7134],[76.9534,33.7124],[76.9501,33.7132],[76.9496,33.7155],[76.9445,33.7178],[76.9416,33.7163],[76.9392,33.7176],[76.9362,33.7226],[76.9329,33.7249],[76.9277,33.7258],[76.9244,33.7299],[76.924,33.7336],[76.9209,33.7356],[76.9171,33.7362],[76.909,33.739],[76.9061,33.7393],[76.9011,33.7419],[76.9045,33.7448],[76.9087,33.7495],[76.9134,33.7559],[76.9137,33.7588],[76.9081,33.7636],[76.9086,33.7688],[76.902,33.7709],[76.9012,33.7742],[76.8963,33.7746],[76.8928,33.7759],[76.8926,33.7775],[76.8893,33.781],[76.8869,33.7778],[76.8821,33.7756],[76.8774,33.7749],[76.8741,33.7728],[76.8679,33.7741],[76.8596,33.7743],[76.8563,33.7777],[76.8436,33.783],[76.842,33.7864],[76.8347,33.7904],[76.8325,33.7905],[76.8286,33.7938],[76.8199,33.7941],[76.8144,33.7936],[76.8095,33.7948],[76.8018,33.7955],[76.7967,33.7952],[76.7931,33.7962],[76.7893,33.7995],[76.7821,33.8031],[76.7787,33.8037],[76.7776,33.8074],[76.7757,33.808],[76.7688,33.8053],[76.7659,33.8048],[76.7554,33.8053],[76.7488,33.8023],[76.7457,33.8021],[76.7395,33.7991],[76.7354,33.7979],[76.7305,33.7954],[76.7191,33.8009],[76.7169,33.8034],[76.7168,33.8076],[76.7141,33.8111],[76.7111,33.8132],[76.7088,33.8164],[76.7065,33.8232],[76.7017,33.8241],[76.6968,33.8284],[76.6914,33.8294],[76.6869,33.8318],[76.6815,33.8367],[76.6735,33.84],[76.6715,33.8416],[76.6697,33.8452],[76.6634,33.8496],[76.66,33.8577],[76.6566,33.861],[76.651,33.8617],[76.6469,33.8633],[76.6402,33.86],[76.6346,33.8592],[76.6234,33.8559],[76.6193,33.8521],[76.6156,33.85],[76.6105,33.8433],[76.6071,33.8409],[76.6044,33.836],[76.6,33.8294],[76.5948,33.8271],[76.592,33.828],[76.585,33.8287],[76.5796,33.8265],[76.5735,33.8258],[76.5671,33.8267],[76.5663,33.8288],[76.5676,33.8342],[76.5637,33.8392],[76.5569,33.8419],[76.5475,33.8436],[76.5357,33.8449],[76.5278,33.8465],[76.525,33.8517],[76.5255,33.8574],[76.5186,33.8608],[76.5169,33.8624],[76.5178,33.8659],[76.5261,33.8687],[76.529,33.8711],[76.5304,33.8784],[76.5276,33.8805],[76.5242,33.8863],[76.5183,33.8868],[76.5158,33.8883],[76.5099,33.8891],[76.511,33.8919],[76.516,33.8954],[76.5192,33.9004],[76.5244,33.9041],[76.5254,33.9133],[76.5282,33.9134],[76.5344,33.9174],[76.536,33.9198],[76.5371,33.9242],[76.5413,33.9266],[76.5418,33.9303],[76.5378,33.9329],[76.5336,33.9369],[76.5315,33.9407],[76.5333,33.9426],[76.5345,33.9484],[76.5339,33.9509],[76.537,33.953],[76.536,33.9553],[76.5314,33.957],[76.527,33.962],[76.5254,33.967],[76.523,33.9604],[76.5207,33.9588],[76.5166,33.9652],[76.5098,33.9705],[76.4989,33.9743],[76.491,33.9741],[76.4838,33.972],[76.4732,33.9718],[76.4659,33.9721],[76.4553,33.9732],[76.4312,33.9693],[76.4204,33.9669],[76.413,33.9647],[76.4062,33.9594],[76.4024,33.9556],[76.3909,33.948],[76.3783,33.942],[76.3778,33.939],[76.3811,33.9312],[76.3768,33.9248],[76.3772,33.9211],[76.3794,33.9197],[76.3773,33.917],[76.3724,33.9128],[76.3642,33.9114],[76.3613,33.9147],[76.3564,33.9167],[76.3525,33.9155],[76.3493,33.9115],[76.3529,33.903],[76.3531,33.8966],[76.3523,33.8863],[76.344,33.8803],[76.3378,33.8765],[76.331,33.8699],[76.3277,33.862],[76.3179,33.8448],[76.3119,33.8408],[76.3059,33.8395],[76.3033,33.8347],[76.2979,33.8292],[76.288,33.8254],[76.2869,33.8202],[76.2794,33.8196],[76.2685,33.8162],[76.2411,33.7912],[76.2481,33.7856],[76.2602,33.7749],[76.2622,33.772],[76.2604,33.7653],[76.2623,33.757],[76.2628,33.7485],[76.2652,33.7469],[76.2671,33.7397],[76.2654,33.7357],[76.2673,33.7324],[76.2712,33.7307],[76.2674,33.7247],[76.2671,33.7171],[76.2634,33.7129],[76.2632,33.7107],[76.2659,33.7075],[76.2631,33.703],[76.2657,33.6974],[76.2649,33.6939],[76.2658,33.6919],[76.2647,33.6894],[76.2696,33.6851],[76.2664,33.6808],[76.2663,33.679],[76.2705,33.6756],[76.273,33.6701],[76.2801,33.6639],[76.2846,33.6619],[76.28,33.6547],[76.2748,33.6532],[76.2699,33.643],[76.2646,33.6432],[76.2565,33.639],[76.2522,33.6379],[76.2496,33.6388],[76.2462,33.6365],[76.2402,33.6348],[76.2299,33.6307],[76.2283,33.6252],[76.2319,33.6237],[76.235,33.621],[76.2391,33.6144],[76.241,33.6096],[76.2403,33.6048],[76.2386,33.6024],[76.2307,33.603],[76.2271,33.6022],[76.2242,33.6003],[76.2241,33.5971],[76.2274,33.5947],[76.2293,33.59],[76.2314,33.5869],[76.2302,33.5842],[76.2262,33.5795],[76.2249,33.577],[76.2188,33.5739],[76.2138,33.5742],[76.2065,33.5733],[76.2055,33.5677],[76.2091,33.5665],[76.2108,33.5637],[76.2135,33.5619],[76.2165,33.5581],[76.2217,33.553],[76.225,33.5477],[76.2312,33.5452],[76.2373,33.5463],[76.2421,33.548],[76.246,33.5457],[76.2489,33.5507],[76.2516,33.5529],[76.2585,33.5618],[76.2596,33.565],[76.2691,33.566],[76.2779,33.5675],[76.2853,33.5668],[76.2919,33.5667],[76.2941,33.5674],[76.303,33.5676],[76.3053,33.5699],[76.3098,33.5715],[76.3101,33.5786],[76.3076,33.5833],[76.3018,33.5898],[76.2996,33.5982],[76.3001,33.6008],[76.3065,33.6096],[76.3121,33.6092],[76.3174,33.6072],[76.3222,33.6023],[76.3295,33.6043],[76.3341,33.6077],[76.3362,33.6105],[76.3419,33.6086],[76.3469,33.6049],[76.3554,33.6049],[76.3593,33.6033],[76.3589,33.5979],[76.3608,33.5932],[76.3668,33.5854],[76.371,33.5841],[76.3766,33.5789],[76.3807,33.577],[76.3801,33.5745],[76.3761,33.5695],[76.3748,33.5659],[76.3793,33.5582],[76.3803,33.5525],[76.3841,33.5524],[76.3975,33.5479],[76.4007,33.5456],[76.4102,33.5431],[76.4152,33.5391],[76.4249,33.5371],[76.4297,33.5384],[76.4359,33.5422],[76.4375,33.5455],[76.4407,33.5492],[76.4417,33.5549],[76.4434,33.5598],[76.4474,33.5643],[76.4507,33.5625],[76.4546,33.5574],[76.4593,33.553],[76.4624,33.5516],[76.4647,33.5452],[76.4622,33.5434],[76.458,33.5371],[76.4602,33.5331],[76.471,33.5274],[76.4791,33.5268],[76.4919,33.5169],[76.4957,33.5166],[76.4993,33.5174],[76.5026,33.5155],[76.5067,33.51],[76.5081,33.5033],[76.5075,33.5004],[76.511,33.4966],[76.5149,33.495],[76.5195,33.4947],[76.5229,33.4934],[76.5243,33.4892],[76.528,33.4834],[76.5355,33.4811],[76.5358,33.4785],[76.5392,33.4728],[76.5425,33.4696],[76.5455,33.4687],[76.5496,33.4641],[76.5555,33.4637],[76.5576,33.462],[76.5628,33.4626],[76.5687,33.4653],[76.5717,33.4611],[76.5738,33.4567],[76.5765,33.453],[76.5762,33.4484],[76.5771,33.4433],[76.58,33.4383],[76.5779,33.4299],[76.5818,33.4258],[76.5929,33.4256],[76.5996,33.4308],[76.6044,33.431],[76.6109,33.4349],[76.6138,33.4393],[76.6205,33.4396],[76.6252,33.4376],[76.629,33.4349],[76.6295,33.431],[76.6288,33.4276],[76.6301,33.4226],[76.6324,33.4194],[76.637,33.4155],[76.6361,33.4114],[76.6323,33.4094],[76.6381,33.4038],[76.6366,33.4022],[76.6394,33.3974],[76.6398,33.3927],[76.6419,33.3899],[76.6473,33.3868],[76.6515,33.3834],[76.6524,33.3761],[76.6516,33.3727],[76.653,33.369],[76.6577,33.3655],[76.659,33.3621],[76.6584,33.3587],[76.662,33.3548],[76.6682,33.3525],[76.6726,33.3482],[76.671,33.3418],[76.6739,33.3393],[76.6769,33.3388],[76.6833,33.3363],[76.6871,33.3327],[76.6965,33.3278],[76.7041,33.3278],[76.7121,33.3311],[76.7177,33.329],[76.7232,33.3187],[76.7259,33.3152],[76.7252,33.3113],[76.7288,33.3078],[76.7283,33.305],[76.732,33.2986],[76.7302,33.2973],[76.7285,33.291],[76.7299,33.2887],[76.7277,33.2835],[76.7327,33.2815],[76.7325,33.2755],[76.7359,33.2729],[76.7385,33.2687],[76.7369,33.2645],[76.7371,33.2611],[76.7405,33.2598],[76.7472,33.2534],[76.7543,33.2487],[76.7592,33.2483],[76.7707,33.2494],[76.7729,33.2521],[76.7774,33.2538],[76.7819,33.2543],[76.7848,33.2535],[76.793,33.2564],[76.7992,33.2562],[76.802,33.2545],[76.8043,33.2515],[76.8068,33.245],[76.8201,33.2358],[76.8224,33.2368],[76.823,33.2417],[76.8246,33.2446],[76.8307,33.2492],[76.8349,33.2479],[76.8432,33.2467],[76.8446,33.2423],[76.8416,33.2405],[76.8384,33.2366],[76.8377,33.234],[76.8328,33.2303],[76.8301,33.2248],[76.8277,33.2226],[76.8284,33.2186],[76.8256,33.2148],[76.8318,33.2123],[76.8313,33.2099],[76.8341,33.2086],[76.8345,33.2048],[76.8293,33.2033],[76.8266,33.2014],[76.8236,33.1976],[76.8184,33.1955],[76.8197,33.1891],[76.8224,33.1851],[76.8223,33.1836],[76.8188,33.1799],[76.8138,33.1775],[76.8129,33.1719],[76.8174,33.1667],[76.8167,33.1603],[76.8205,33.1534],[76.8254,33.1482],[76.8291,33.147],[76.83,33.1428],[76.8348,33.1407],[76.8388,33.1412],[76.844,33.1378],[76.8429,33.1339],[76.843,33.1303],[76.8455,33.1301],[76.8521,33.1267],[76.8528,33.1248],[76.8499,33.1226],[76.8501,33.1186],[76.8544,33.116],[76.8551,33.1144],[76.8624,33.1127],[76.8705,33.1134],[76.8772,33.1188],[76.8826,33.1199],[76.8851,33.1214],[76.8915,33.1141],[76.8933,33.1099],[76.893,33.105],[76.8975,33.1008],[76.8977,33.0987],[76.9069,33.0955],[76.9093,33.0938],[76.91,33.0896],[76.9057,33.085],[76.9047,33.0819],[76.9059,33.0783],[76.9113,33.0752],[76.9113,33.0713],[76.9139,33.0684],[76.9142,33.0634],[76.9158,33.0618],[76.9185,33.0565],[76.9221,33.0534],[76.9227,33.0505],[76.9255,33.0474],[76.9265,33.0423],[76.9258,33.0383],[76.9299,33.0314],[76.933,33.0282],[76.941,33.0283],[76.946,33.0243],[76.9507,33.0182],[76.9597,33.0153],[76.9615,33.0113],[76.9606,33.0091],[76.9651,33.0041],[76.9681,33.0042],[76.9721,33],[76.9808,33],[76.9876,33.0015],[76.989,33.0026],[76.9923,33.0018],[76.9967,32.997],[77.0008,32.9941],[77.006,32.9919],[77.0109,32.9886]]]},"properties":{"id":"in:subdistrict:15","level":"subdistrict","name":"Zanskar","code":15,"parent":"in:district:6","state":"in:state:37"}},{"type":"Feature","geometry":{"type":"Polygon","coordinates":[[[76.7688,33.8053],[76.811,33.8494],[76.968,33.9172],[76.9716,34.01],[77.2036,34.0208],[77.2072,34.1778],[77.2,34.2492],[77.2143,34.2933],[77.1964,34.3277],[77.2601,34.3637],[77.1058,34.4265],[77.0043,34.4678],[76.7902,34.5897],[76.7277,34.7027],[76.613,34.759],[76.576,34.7771],[76.4383,34.8012],[76.4437,34.8],[76.4492,34.7979],[76.4521,34.7976],[76.4538,34.7894],[76.4551,34.7879],[76.465,34.7862],[76.4599,34.7822],[76.4577,34.7795],[76.459,34.7749],[76.4549,34.7721],[76.4539,34.7681],[76.4458,34.7668],[76.4435,34.7651],[76.4443,34.7617],[76.444,34.7531],[76.4421,34.7512],[76.4419,34.75],[76.4306,34.7466],[76.4265,34.7422],[76.4194,34.7374],[76.4196,34.7335],[76.4209,34.7309],[76.4204,34.7259],[76.421,34.7196],[76.4246,34.7169],[76.4257,34.7134],[76.4281,34.7099],[76.4306,34.7092],[76.44,34.6961],[76.4404,34.6918],[76.4433,34.6886],[76.4453,34.6849],[76.4451,34.6809],[76.446,34.6744],[76.4485,34.6723],[76.4498,34.6692],[76.4479,34.6662],[76.45,34.6572],[76.4569,34.6523],[76.4596,34.6464],[76.464,34.6439],[76.4673,34.6395],[76.4709,34.6364],[76.4729,34.6336],[76.4701,34.6259],[76.4759,34.6227],[76.4818,34.6214],[76.4911,34.6183],[76.4951,34.6149],[76.5016,34.6064],[76.5113,34.6004],[76.5168,34.6003],[76.5255,34.5942],[76.5291,34.586],[76.5283,34.5807],[76.5298,34.5742],[76.5385,34.5726],[76.5427,34.5728],[76.5583,34.5711],[76.5624,34.5698],[76.5667,34.5665],[76.5718,34.5603],[76.5762,34.5582],[76.5853,34.5583],[76.5892,34.5601],[76.5986,34.5602],[76.6025,34.5567],[76.6043,34.5517],[76.6066,34.5491],[76.6144,34.5436],[76.6185,34.5415],[76.6225,34.535],[76.6227,34.5286],[76.6258,34.5224],[76.6254,34.5182],[76.6268,34.5146],[76.6247,34.5124],[76.6257,34.5097],[76.6222,34.5078],[76.6238,34.5047],[76.63,34.5029],[76.6393,34.4988],[76.6405,34.4978],[76.6418,34.4888],[76.6461,34.4877],[76.6489,34.4888],[76.6524,34.4885],[76.6584,34.4818],[76.659,34.4797],[76.6578,34.4714],[76.654,34.4657],[76.6521,34.4615],[76.65,34.4541],[76.6466,34.449],[76.637,34.4411],[76.632,34.4396],[76.6279,34.437],[76.626,34.4347],[76.6206,34.4236],[76.6193,34.4185],[76.6047,34.4076],[76.6026,34.4055],[76.6059,34.4],[76.6091,34.3975],[76.6113,34.3943],[76.6156,34.3916],[76.6183,34.389],[76.6166,34.3858],[76.624,34.3807],[76.6254,34.379],[76.6303,34.3779],[76.6394,34.373],[76.6506,34.3697],[76.657,34.3692],[76.66,34.3649],[76.67,34.3581],[76.6722,34.3577],[76.6804,34.353],[76.6821,34.3495],[76.6916,34.3429],[76.6934,34.3431],[76.7064,34.3372],[76.7177,34.3292],[76.7224,34.3272],[76.7157,34.3225],[76.7132,34.3201],[76.7095,34.3182],[76.7066,34.3119],[76.7034,34.3093],[76.7019,34.3065],[76.7035,34.2996],[76.7007,34.2948],[76.703,34.2917],[76.7,34.2888],[76.698,34.2838],[76.6982,34.281],[76.6967,34.2788],[76.6984,34.276],[76.6973,34.2745],[76.7002,34.2709],[76.6992,34.2666],[76.7012,34.2621],[76.7012,34.2586],[76.6983,34.2528],[76.6963,34.2512],[76.6952,34.2468],[76.6898,34.2418],[76.6855,34.2422],[76.6748,34.2398],[76.6779,34.2333],[76.6752,34.2277],[76.672,34.2251],[76.6708,34.2226],[76.6722,34.2187],[76.672,34.2146],[76.6753,34.2113],[76.6746,34.2093],[76.6787,34.2029],[76.6786,34.2001],[76.6819,34.1958],[76.6809,34.1912],[76.6806,34.1842],[76.6816,34.1805],[76.6783,34.1784],[76.6753,34.1746],[76.6713,34.171],[76.668,34.1659],[76.6684,34.1618],[76.6666,34.1567],[76.667,34.1536],[76.6639,34.1514],[76.6608,34.1478],[76.6647,34.1418],[76.6686,34.1372],[76.6716,34.1289],[76.6736,34.1201],[76.6731,34.1171],[76.6707,34.1149],[76.6726,34.1085],[76.6728,34.1046],[76.6773,34.0986],[76.6783,34.0954],[76.6806,34.092],[76.6809,34.088],[76.6882,34.085],[76.6872,34.082],[76.6845,34.0796],[76.6841,34.0766],[76.6807,34.0756],[76.6724,34.0772],[76.6695,34.068],[76.6635,34.0657],[76.6603,34.0637],[76.6546,34.0643],[76.6468,34.0628],[76.6408,34.0605],[76.6356,34.0613],[76.6321,34.0638],[76.6288,34.0604],[76.6257,34.0593],[76.6225,34.0596],[76.6196,34.0616],[76.6169,34.0648],[76.6102,34.0668],[76.6075,34.0661],[76.6059,34.064],[76.6012,34.0631],[76.5927,34.0597],[76.5898,34.0579],[76.5908,34.0518],[76.5857,34.0484],[76.5793,34.0473],[76.5795,34.045],[76.5852,34.0366],[76.5844,34.0313],[76.586,34.0274],[76.5857,34.0242],[76.5886,34.0204],[76.5832,34.0149],[76.5826,34.0126],[76.584,34.0103],[76.5791,34.0062],[76.5753,34.0076],[76.5723,34.0031],[76.5685,34.0024],[76.5636,34.0054],[76.5554,34.0063],[76.5527,34.004],[76.5535,33.9996],[76.5518,33.9955],[76.5493,33.9942],[76.5468,33.9966],[76.5411,33.9974],[76.5415,33.9907],[76.5424,33.987],[76.5376,33.9816],[76.5333,33.9818],[76.5303,33.9787],[76.5315,33.9753],[76.5308,33.9702],[76.5261,33.969],[76.5254,33.967],[76.527,33.962],[76.5314,33.957],[76.536,33.9553],[76.537,33.953],[76.5339,33.9509],[76.5345,33.9484],[76.5333,33.9426],[76.5315,33.9407],[76.5336,33.9369],[76.5378,33.9329],[76.5418,33.9303],[76.5413,33.9266],[76.5371,33.9242],[76.536,33.9198],[76.5344,33.9174],[76.5282,33.9134],[76.5254,33.9133],[76.5244,33.9041],[76.5192,33.9004],[76.516,33.8954],[76.511,33.8919],[76.5099,33.8891],[76.5158,33.8883],[76.5183,33.8868],[76.5242,33.8863],[76.5276,33.8805],[76.5304,33.8784],[76.529,33.8711],[76.5261,33.8687],[76.5178,33.8659],[76.5169,33.8624],[76.5186,33.8608],[76.5255,33.8574],[76.525,33.8517],[76.5278,33.8465],[76.5357,33.8449],[76.5475,33.8436],[76.5569,33.8419],[76.5637,33.8392],[76.5676,33.8342],[76.5663,33.8288],[76.5671,33.8267],[76.5735,33.8258],[76.5796,33.8265],[76.585,33.8287],[76.592,33.828],[76.5948,33.8271],[76.6,33.8294],[76.6044,33.836],[76.6071,33.8409],[76.6105,33.8433],[76.6156,33.85],[76.6193,33.8521],[76.6234,33.8559],[76.6346,33.8592],[76.6402,33.86],[76.6469,33.8633],[76.651,33.8617],[76.6566,33.861],[76.66,33.8577],[76.6634,33.8496],[76.6697,33.8452],[76.6715,33.8416],[76.6735,33.84],[76.6815,33.8367],[76.6869,33.8318],[76.6914,33.8294],[76.6968,33.8284],[76.7017,33.8241],[76.7065,33.8232],[76.7088,33.8164],[76.7111,33.8132],[76.7141,33.8111],[76.7168,33.8076],[76.7169,33.8034],[76.7191,33.8009],[76.7305,33.7954],[76.7354,33.7979],[76.7395,33.7991],[76.7457,33.8021],[76.7488,33.8023],[76.7554,33.8053],[76.7659,33.8048],[76.7688,33.8053]]]},"properties":{"id":"in:subdistrict:12","level":"subdistrict","name":"Khalsi","code":12,"parent":"in:district:9","state":"in:state:37"}},{"type":"Feature","geometry":{"type":"Polygon","coordinates":[[[75.4954,34.2324],[75.5029,34.2343],[75.5099,34.2288],[75.5146,34.2267],[75.5231,34.229],[75.5271,34.2267],[75.5297,34.2268],[75.5343,34.2237],[75.5382,34.2231],[75.5456,34.2183],[75.5487,34.2149],[75.5553,34.2114],[75.5648,34.2118],[75.5717,34.2115],[75.5786,34.2141],[75.5821,34.2122],[75.5848,34.209],[75.5886,34.2023],[75.5909,34.2009],[75.5934,34.1977],[75.5981,34.1976],[75.6046,34.1952],[75.6126,34.1974],[75.6153,34.1999],[75.6178,34.1999],[75.6218,34.2018],[75.6261,34.2013],[75.6283,34.2036],[75.6321,34.2057],[75.6381,34.2103],[75.6412,34.2097],[75.644,34.2116],[75.6503,34.2115],[75.6565,34.2063],[75.6574,34.2029],[75.6624,34.1991],[75.6708,34.198],[75.6805,34.201],[75.6853,34.1996],[75.6907,34.1953],[75.689,34.19],[75.6873,34.1869],[75.6881,34.1849],[75.6841,34.178],[75.6842,34.1733],[75.6828,34.1706],[75.6845,34.1668],[75.6807,34.1636],[75.6792,34.1608],[75.6786,34.1547],[75.6737,34.1513],[75.6702,34.15],[75.6686,34.1481],[75.6679,34.1443],[75.6736,34.1452],[75.6772,34.144],[75.6824,34.144],[75.6858,34.1413],[75.6823,34.1356],[75.6844,34.1309],[75.691,34.1281],[75.6902,34.1253],[75.6856,34.1209],[75.6874,34.1161],[75.6924,34.1138],[75.6985,34.1128],[75.7077,34.1072],[75.7188,34.1033],[75.7197,34.1016],[75.7215,34.0944],[75.7251,34.0897],[75.7289,34.0877],[75.7334,34.0841],[75.7347,34.079],[75.739,34.0764],[75.7428,34.0725],[75.7416,34.0681],[75.737,34.0589],[75.7415,34.0562],[75.7445,34.0565],[75.75,34.0548],[75.7527,34.0565],[75.7599,34.0567],[75.7685,34.0549],[75.7691,34.053],[75.7681,34.0428],[75.7703,34.0408],[75.7779,34.0386],[75.7807,34.0367],[75.7822,34.0341],[75.7895,34.0303],[75.7969,34.0304],[75.7975,34.026],[75.8024,34.021],[75.8042,34.021],[75.8143,34.0145],[75.8178,34.0079],[75.8223,34.0076],[75.8292,34.0063],[75.8358,34.0071],[75.8416,34.0061],[75.8437,34.0032],[75.8416,33.9996],[75.8302,33.9924],[75.8289,33.9893],[75.8256,33.9778],[75.8207,33.9735],[75.8201,33.9692],[75.8221,33.9656],[75.8307,33.9587],[75.8341,33.9581],[75.8366,33.9559],[75.8405,33.9541],[75.8452,33.9545],[75.8504,33.961],[75.8525,33.9623],[75.8626,33.9616],[75.8667,33.9625],[75.8736,33.962],[75.8763,33.9636],[75.8814,33.9648],[75.8852,33.9676],[75.8921,33.9691],[75.8986,33.9674],[75.9085,33.9689],[75.9142,33.966],[75.9175,33.9629],[75.9231,33.9629],[75.9429,33.9605],[75.9456,33.9594],[75.9478,33.9566],[75.954,33.9556],[75.9587,33.9568],[75.9657,33.9545],[75.9671,33.9555],[75.9692,33.9605],[75.9727,33.9625],[75.9777,33.9717],[75.9823,33.9716],[75.9905,33.9724],[75.9962,33.9745],[76.0062,33.9767],[76.0086,33.9753],[76.0134,33.9742],[76.0187,33.9755],[76.0244,33.9821],[76.0252,33.9777],[76.0264,33.9765],[76.0265,33.9716],[76.0332,33.9647],[76.0339,33.9629],[76.0383,33.9591],[76.0432,33.9521],[76.0452,33.9454],[76.0483,33.9404],[76.0483,33.9364],[76.0495,33.9327],[76.0462,33.9301],[76.0445,33.9275],[76.0406,33.925],[76.0339,33.9242],[76.0326,33.9197],[76.038,33.9189],[76.0431,33.916],[76.0467,33.9128],[76.0545,33.9122],[76.0606,33.9101],[76.0692,33.909],[76.0741,33.9074],[76.0826,33.9035],[76.0919,33.9024],[76.0969,33.9004],[76.0996,33.8969],[76.1073,33.8918],[76.1153,33.8902],[76.1179,33.8887],[76.123,33.889],[76.125,33.8853],[76.1367,33.8786],[76.1385,33.8724],[76.1375,33.8701],[76.1421,33.8668],[76.1452,33.8618],[76.1472,33.8559],[76.1495,33.8536],[76.1486,33.8512],[76.1501,33.8491],[76.1554,33.8472],[76.1544,33.8454],[76.1543,33.8406],[76.1598,33.8373],[76.16,33.8354],[76.1568,33.8306],[76.159,33.8257],[76.1626,33.8212],[76.166,33.8193],[76.163,33.817],[76.1616,33.812],[76.1596,33.8079],[76.1614,33.8019],[76.1664,33.798],[76.1744,33.7987],[76.178,33.8001],[76.1842,33.8006],[76.1874,33.7967],[76.1907,33.7953],[76.1981,33.7881],[76.2,33.7823],[76.1994,33.7778],[76.2013,33.775],[76.2053,33.7726],[76.2108,33.7712],[76.2126,33.7635],[76.2126,33.7612],[76.2179,33.7588],[76.2315,33.759],[76.2361,33.7599],[76.2413,33.7583],[76.247,33.7576],[76.2479,33.7546],[76.2521,33.7514],[76.2602,33.75],[76.2628,33.7485],[76.2623,33.757],[76.2604,33.7653],[76.2622,33.772],[76.2602,33.7749],[76.2481,33.7856],[76.2411,33.7912],[76.2685,33.8162],[76.2794,33.8196],[76.2869,33.8202],[76.288,33.8254],[76.2979,33.8292],[76.3033,33.8347],[76.3059,33.8395],[76.3119,33.8408],[76.3179,33.8448],[76.3277,33.862],[76.331,33.8699],[76.3378,33.8765],[76.344,33.8803],[76.3523,33.8863],[76.3531,33.8966],[76.3529,33.903],[76.3493,33.9115],[76.3525,33.9155],[76.3564,33.9167],[76.3613,33.9147],[76.3642,33.9114],[76.3724,33.9128],[76.3773,33.917],[76.3794,33.9197],[76.3772,33.9211],[76.3768,33.9248],[76.3811,33.9312],[76.3778,33.939],[76.3783,33.942],[76.3909,33.948],[76.4024,33.9556],[76.4062,33.9594],[76.413,33.9647],[76.4204,33.9669],[76.4312,33.9693],[76.4553,33.9732],[76.4659,33.9721],[76.4732,33.9718],[76.4838,33.972],[76.491,33.9741],[76.4989,33.9743],[76.5098,33.9705],[76.5166,33.9652],[76.5207,33.9588],[76.523,33.9604],[76.5254,33.967],[76.5261,33.969],[76.5308,33.9702],[76.5315,33.9753],[76.5303,33.9787],[76.5333,33.9818],[76.5376,33.9816],[76.5424,33.987],[76.5415,33.9907],[76.5411,33.9974],[76.5468,33.9966],[76.5493,33.9942],[76.5518,33.9955],[76.5535,33.9996],[76.5527,34.004],[76.5554,34.0063],[76.5636,34.0054],[76.5685,34.0024],[76.5723,34.0031],[76.5753,34.0076],[76.5791,34.0062],[76.584,34.0103],[76.5826,34.0126],[76.5832,34.0149],[76.5886,34.0204],[76.5857,34.0242],[76.586,34.0274],[76.5844,34.0313],[76.5852,34.0366],[76.5795,34.045],[76.5793,34.0473],[76.5857,34.0484],[76.5908,34.0518],[76.5898,34.0579],[76.5927,34.0597],[76.6012,34.0631],[76.6059,34.064],[76.6075,34.0661],[76.6102,34.0668],[76.6169,34.0648],[76.6196,34.0616],[76.6225,34.0596],[76.6257,34.0593],[76.6288,34.0604],[76.6321,34.0638],[76.6356,34.0613],[76.6408,34.0605],[76.6468,34.0628],[76.6546,34.0643],[76.6603,34.0637],[76.6635,34.0657],[76.6695,34.068],[76.6724,34.0772],[76.6807,34.0756],[76.6841,34.0766],[76.6845,34.0796],[76.6872,34.082],[76.6882,34.085],[76.6809,34.088],[76.6806,34.092],[76.6783,34.0954],[76.6773,34.0986],[76.6728,34.1046],[76.6726,34.1085],[76.6707,34.1149],[76.6731,34.1171],[76.6736,34.1201],[76.6716,34.1289],[76.6686,34.1372],[76.6647,34.1418],[76.6608,34.1478],[76.6639,34.1514],[76.667,34.1536],[76.6666,34.1567],[76.6684,34.1618],[76.668,34.1659],[76.6713,34.171],[76.6753,34.1746],[76.6783,34.1784],[76.6816,34.1805],[76.6806,34.1842],[76.6809,34.1912],[76.6819,34.1958],[76.6786,34.2001],[76.6787,34.2029],[76.6746,34.2093],[76.6753,34.2113],[76.672,34.2146],[76.6722,34.2187],[76.6708,34.2226],[76.672,34.2251],[76.6752,34.2277],[76.6779,34.2333],[76.6748,34.2398],[76.6855,34.2422],[76.6898,34.2418],[76.6952,34.2468],[76.6963,34.2512],[76.6983,34.2528],[76.7012,34.2586],[76.7012,34.2621],[76.6992,34.2666],[76.7002,34.2709],[76.6973,34.2745],[76.6984,34.276],[76.6967,34.2788],[76.6982,34.281],[76.698,34.2838],[76.7,34.2888],[76.703,34.2917],[76.7007,34.2948],[76.7035,34.2996],[76.7019,34.3065],[76.7034,34.3093],[76.7066,34.3119],[76.7095,34.3182],[76.7132,34.3201],[76.7157,34.3225],[76.7224,34.3272],[76.7177,34.3292],[76.7064,34.3372],[76.6934,34.3431],[76.6916,34.3429],[76.6821,34.3495],[76.6804,34.353],[76.6722,34.3577],[76.67,34.3581],[76.66,34.3649],[76.657,34.3692],[76.6506,34.3697],[76.6394,34.373],[76.6303,34.3779],[76.6254,34.379],[76.624,34.3807],[76.6166,34.3858],[76.6183,34.389],[76.6156,34.3916],[76.6113,34.3943],[76.6091,34.3975],[76.6059,34.4],[76.6026,34.4055],[76.6047,34.4076],[76.6193,34.4185],[76.6206,34.4236],[76.626,34.4347],[76.6279,34.437],[76.632,34.4396],[76.637,34.4411],[76.6466,34.449],[76.65,34.4541],[76.6521,34.4615],[76.654,34.4657],[76.6578,34.4714],[76.659,34.4797],[76.6584,34.4818],[76.6524,34.4885],[76.6489,34.4888],[76.6461,34.4877],[76.6418,34.4888],[76.6405,34.4978],[76.6393,34.4988],[76.63,34.5029],[76.6238,34.5047],[76.6222,34.5078],[76.6257,34.5097],[76.6247,34.5124],[76.6268,34.5146],[76.6254,34.5182],[76.6258,34.5224],[76.6227,34.5286],[76.6225,34.535],[76.6185,34.5415],[76.6144,34.5436],[76.6066,34.5491],[76.6043,34.5517],[76.6025,34.5567],[76.5986,34.5602],[76.5892,34.5601],[76.5853,34.5583],[76.5762,34.5582],[76.5718,34.5603],[76.5667,34.5665],[76.5624,34.5698],[76.5583,34.5711],[76.5427,34.5728],[76.5385,34.5726],[76.5298,34.5742],[76.5283,34.5807],[76.5291,34.586],[76.5255,34.5942],[76.5168,34.6003],[76.5113,34.6004],[76.5016,34.6064],[76.4951,34.6149],[76.4911,34.6183],[76.4818,34.6214],[76.4759,34.6227],[76.4701,34.6259],[76.4729,34.6336],[76.4709,34.6364],[76.4673,34.6395],[76.464,34.6439],[76.4596,34.6464],[76.4569,34.6523],[76.45,34.6572],[76.4479,34.6662],[76.4498,34.6692],[76.4485,34.6723],[76.446,34.6744],[76.4451,34.6809],[76.4453,34.6849],[76.4433,34.6886],[76.4404,34.6918],[76.44,34.6961],[76.4306,34.7092],[76.4281,34.7099],[76.4257,34.7134],[76.4246,34.7169],[76.421,34.7196],[76.4204,34.7259],[76.4209,34.7309],[76.4196,34.7335],[76.4194,34.7374],[76.4265,34.7422],[76.4306,34.7466],[76.4419,34.75],[76.4421,34.7512],[76.4348,34.7501],[76.428,34.7478],[76.4226,34.7432],[76.4201,34.7424],[76.4098,34.7417],[76.4004,34.7396],[76.3917,34.7363],[76.3849,34.735],[76.3737,34.7344],[76.3637,34.7344],[76.36,34.7335],[76.3542,34.7293],[76.3471,34.7258],[76.3361,34.7192],[76.3315,34.7176],[76.3225,34.717],[76.3128,34.7142],[76.3067,34.711],[76.3032,34.7076],[76.2869,34.7083],[76.2764,34.7066],[76.2696,34.7032],[76.2469,34.6884],[76.2303,34.6824],[76.2236,34.6825],[76.2145,34.6858],[76.2059,34.6943],[76.1968,34.6967],[76.1904,34.6956],[76.1841,34.6925],[76.1658,34.6894],[76.1478,34.6902],[76.1193,34.6841],[76.0998,34.6875],[76.0819,34.6943],[76.0668,34.6971],[76.0483,34.6999],[76.0347,34.7051],[76.0207,34.7145],[76.0009,34.7275],[75.9848,34.7363],[75.9792,34.7369],[75.9722,34.7367],[75.9633,34.7301],[75.9544,34.7206],[75.9487,34.7169],[75.9438,34.6835],[75.9322,34.6543],[75.9236,34.6331],[75.9055,34.6032],[75.8957,34.5788],[75.8888,34.5613],[75.8786,34.5515],[75.8622,34.544],[75.8486,34.5441],[75.8402,34.5396],[75.8366,34.5336],[75.8302,34.5277],[75.82,34.5263],[75.8081,34.5266],[75.804,34.5218],[75.795,34.514],[75.7781,34.5126],[75.7554,34.5148],[75.7116,34.5145],[75.6394,34.5149],[75.5576,34.5139],[75.5355,34.503],[75.5098,34.4834],[75.4987,34.4695],[75.49,34.4546],[75.4876,34.4412],[75.4822,34.4215],[75.4525,34.3928],[75.427,34.3823],[75.3833,34.367],[75.3836,34.3639],[75.3805,34.3583],[75.3848,34.354],[75.3859,34.3504],[75.382,34.3457],[75.3784,34.3445],[75.376,34.3423],[75.384,34.3367],[75.3847,34.3282],[75.3897,34.3219],[75.3961,34.3167],[75.3954,34.3148],[75.3914,34.3123],[75.3893,34.3095],[75.3889,34.3055],[75.392,34.3012],[75.3928,34.2971],[75.3974,34.2928],[75.4035,34.2847],[75.4109,34.2847],[75.4149,34.2827],[75.4192,34.2819],[75.4226,34.2839],[75.4261,34.2822],[75.4309,34.2836],[75.4337,34.2823],[75.4368,34.2825],[75.4395,34.2795],[75.4442,34.2803],[75.4489,34.2841],[75.4536,34.2859],[75.4581,34.2799],[75.4701,34.2794],[75.4749,34.2776],[75.4822,34.2716],[75.483,34.269],[75.481,34.2624],[75.4838,34.2587],[75.4824,34.2551],[75.4872,34.2495],[75.4886,34.2466],[75.4959,34.241],[75.497,34.2376],[75.4954,34.2324]]]},"properties":{"id":"in:subdistrict:14","level":"subdistrict","name":"Sanku","code":14,"parent":"in:district:6","state":"in:state:37"}},{"type":"Feature","geometry":{"type":"Polygon","coordinates":[[[75.3668,34.3936],[75.367,34.391],[75.3733,34.3881],[75.3771,34.3871],[75.3788,34.3821],[75.3768,34.3757],[75.3751,34.3749],[75.3734,34.3715],[75.3785,34.3703],[75.3833,34.367],[75.427,34.3823],[75.4525,34.3928],[75.4822,34.4215],[75.4876,34.4412],[75.49,34.4546],[75.4987,34.4695],[75.5098,34.4834],[75.5355,34.503],[75.5576,34.5139],[75.6394,34.5149],[75.7116,34.5145],[75.7554,34.5148],[75.7781,34.5126],[75.795,34.514],[75.804,34.5218],[75.8081,34.5266],[75.82,34.5263],[75.8302,34.5277],[75.8366,34.5336],[75.8402,34.5396],[75.8486,34.5441],[75.8622,34.544],[75.8786,34.5515],[75.8888,34.5613],[75.8957,34.5788],[75.9055,34.6032],[75.9236,34.6331],[75.9322,34.6543],[75.9438,34.6835],[75.9487,34.7169],[75.9544,34.7206],[75.9633,34.7301],[75.9722,34.7367],[75.9792,34.7369],[75.9848,34.7363],[76.0009,34.7275],[76.0207,34.7145],[76.0347,34.7051],[76.0483,34.6999],[76.0668,34.6971],[76.0819,34.6943],[76.0998,34.6875],[76.1193,34.6841],[76.1478,34.6902],[76.1658,34.6894],[76.1841,34.6925],[76.1904,34.6956],[76.1968,34.6967],[76.2059,34.6943],[76.2145,34.6858],[76.2236,34.6825],[76.2303,34.6824],[76.2469,34.6884],[76.2696,34.7032],[76.2764,34.7066],[76.2869,34.7083],[76.3032,34.7076],[76.3067,34.711],[76.3128,34.7142],[76.3225,34.717],[76.3315,34.7176],[76.3361,34.7192],[76.3471,34.7258],[76.3542,34.7293],[76.36,34.7335],[76.3637,34.7344],[76.3737,34.7344],[76.3849,34.735],[76.3917,34.7363],[76.4004,34.7396],[76.4098,34.7417],[76.4201,34.7424],[76.4226,34.7432],[76.428,34.7478],[76.4348,34.7501],[76.4421,34.7512],[76.444,34.7531],[76.4443,34.7617],[76.4435,34.7651],[76.4458,34.7668],[76.4539,34.7681],[76.4549,34.7721],[76.459,34.7749],[76.4577,34.7795],[76.4599,34.7822],[76.465,34.7862],[76.4551,34.7879],[76.4538,34.7894],[76.4521,34.7976],[76.4492,34.7979],[76.4437,34.8],[76.4383,34.8012],[76.4347,34.8026],[76.4344,34.809],[76.4332,34.8188],[76.4293,34.8237],[76.429,34.8258],[76.4255,34.8345],[76.4259,34.8377],[76.4297,34.8415],[76.4301,34.8459],[76.429,34.8477],[76.4228,34.8484],[76.418,34.8512],[76.4159,34.8552],[76.4201,34.8614],[76.4147,34.8654],[76.4144,34.8675],[76.4155,34.8723],[76.4131,34.8767],[76.416,34.8798],[76.4142,34.8855],[76.4144,34.8882],[76.4124,34.8908],[76.4135,34.8945],[76.4111,34.8956],[76.4088,34.8972],[76.4103,34.9038],[76.4154,34.9063],[76.4089,34.9117],[76.4067,34.9144],[76.4057,34.9185],[76.4011,34.9231],[76.3965,34.9288],[76.395,34.9332],[76.3964,34.9418],[76.3956,34.9437],[76.3877,34.9472],[76.3871,34.9487],[76.3833,34.9514],[76.3803,34.9523],[76.3819,34.9553],[76.3861,34.9581],[76.3874,34.9607],[76.3878,34.9651],[76.3845,34.9684],[76.3781,34.9713],[76.379,34.9762],[76.3688,34.9811],[76.3673,34.9859],[76.366,34.9957],[76.3709,34.9995],[76.2992,35.0312],[76.222,35.0282],[76.1258,35.0241],[76.0686,34.9801],[76.0205,34.9483],[75.951,34.9413],[75.9172,34.9499],[75.8609,34.9631],[75.8043,34.9614],[75.723,34.9497],[75.6668,34.9444],[75.6293,34.9304],[75.5718,34.9145],[75.5458,34.9002],[75.4276,34.8358],[75.3987,34.7796],[75.3981,34.7089],[75.3995,34.6695],[75.4127,34.6203],[75.4124,34.6013],[75.4062,34.5738],[75.4135,34.5686],[75.4168,34.5615],[75.4193,34.5546],[75.4237,34.549],[75.4276,34.5411],[75.4316,34.5354],[75.4306,34.5287],[75.4293,34.5262],[75.4218,34.5263],[75.4144,34.5228],[75.4094,34.5159],[75.4067,34.5054],[75.3983,34.4911],[75.398,34.4879],[75.4005,34.4858],[75.4014,34.4827],[75.4014,34.475],[75.4003,34.4682],[75.3967,34.4651],[75.3902,34.4607],[75.3853,34.454],[75.376,34.4452],[75.3762,34.4431],[75.368,34.4334],[75.37,34.4275],[75.3734,34.421],[75.3776,34.4194],[75.3801,34.4162],[75.3792,34.413],[75.3844,34.4131],[75.3881,34.41],[75.3835,34.4017],[75.3721,34.3997],[75.3668,34.3936]]]},"properties":{"id":"in:subdistrict:13","level":"subdistrict","name":"Kargil","code":13,"parent":"in:district:9","state":"in:state:37"}},{"type":"Feature","geometry":{"type":"Polygon","coordinates":[[[77.7425,35.2583],[77.8237,35.3046],[77.8492,35.3161],[77.8692,35.3032],[77.9219,35.3022],[77.9559,35.305],[77.9735,35.3061],[77.9804,35.297],[77.9845,35.285],[78.0159,35.249],[78.0326,35.2252],[78.0593,35.2123],[78.0697,35.2152],[78.0827,35.2168],[78.1133,35.1893],[78.1234,35.1579],[78.1354,35.1194],[78.1442,35.0768],[78.14,35.0609],[78.1326,35.0481],[78.1426,35.0243],[78.1561,35.0041],[78.1732,34.9826],[78.1862,34.9689],[78.1834,34.9483],[78.1743,34.9194],[78.2002,34.8924],[78.2174,34.8728],[78.2361,34.8349],[78.2456,34.8103],[78.2502,34.7864],[78.2649,34.7729],[78.2901,34.7604],[78.3185,34.7422],[78.3393,34.7237],[78.3495,34.7094],[78.3581,34.6993],[78.3622,34.6842],[78.3615,34.6622],[78.3487,34.6493],[78.338,34.6406],[78.3391,34.6281],[78.3423,34.6072],[78.3353,34.5408],[78.3273,34.5282],[78.3205,34.5025],[78.3079,34.4844],[78.2854,34.4838],[78.2743,34.4898],[78.2518,34.4705],[78.2433,34.4299],[78.2309,34.3798],[78.2176,34.355],[78.2035,34.3364],[78.1861,34.3209],[78.1678,34.3066],[78.1783,34.2896],[78.1918,34.2808],[78.2555,34.2437],[78.2591,34.1791],[78.2632,34.1608],[78.2892,34.1137],[78.3223,34.075],[78.3403,34.0529],[78.3635,34.0419],[78.3834,34.0337],[78.4193,34.023],[78.446,34.0049],[78.462,33.9786],[78.4871,33.9769],[78.4927,33.9724],[78.5101,33.9759],[78.5389,33.9828],[78.5575,33.9944],[78.5947,34.0103],[78.7498,34.0576],[78.7785,34.0632],[78.8481,34.0814],[78.8853,34.0609],[78.8608,33.9742],[78.7683,33.9584],[78.7708,33.9232],[78.7892,33.8911],[78.8639,33.8601],[78.8777,33.8555],[78.9551,33.7936],[79.0046,33.7588],[79.0205,33.746],[79.0356,33.7413],[79.038,33.7454],[79.0587,33.7562],[79.0641,33.7647],[79.0605,33.7758],[79.0436,33.7791],[79.0304,33.7881],[79.0132,33.7829],[79.0096,33.7946],[79.0023,33.8055],[78.9867,33.8362],[78.9559,33.9013],[78.9453,33.9262],[78.9227,33.9527],[78.9183,33.9639],[78.9256,33.9825],[78.9532,34.0131],[78.9759,34.022],[79.0011,34.0336],[79.0248,34.0328],[79.046,34.0237],[79.0804,34.01],[79.1127,34.0089],[79.1382,34.0175],[79.1467,34.033],[79.148,34.0551],[79.1729,34.0583],[79.1869,34.0487],[79.206,34.0404],[79.2184,34.0417],[79.2321,34.0471],[79.2604,34.0374],[79.2829,34.0276],[79.3005,34.0297],[79.3329,34.0292],[79.3737,34.0268],[79.3988,34.0095],[79.4155,33.999],[79.4375,34.0126],[79.4429,34.0212],[79.4299,34.0319],[79.4145,34.0417],[79.4157,34.0506],[79.4193,34.0623],[79.4211,34.0759],[79.4275,34.0808],[79.447,34.0862],[79.466,34.0941],[79.4858,34.1134],[79.496,34.1244],[79.491,34.1471],[79.4937,34.1847],[79.5037,34.1952],[79.5131,34.2009],[79.5324,34.1992],[79.5401,34.1913],[79.5488,34.1971],[79.571,34.2125],[79.5921,34.2358],[79.5974,34.2648],[79.597,34.278],[79.5796,34.3],[79.5685,34.3202],[79.57,34.3369],[79.5614,34.3815],[79.5689,34.4006],[79.5667,34.4056],[79.5433,34.4041],[79.5316,34.4088],[79.5276,34.4163],[79.528,34.4421],[79.5215,34.4583],[79.5222,34.4636],[79.5404,34.4698],[79.5582,34.4736],[79.5835,34.4785],[79.5984,34.4868],[79.6148,34.4793],[79.6335,34.4782],[79.6534,34.4806],[79.6629,34.4755],[79.6818,34.4708],[79.7042,34.4699],[79.7259,34.4698],[79.7444,34.4621],[79.7538,34.4672],[79.7712,34.4668],[79.7914,34.4668],[79.8038,34.4728],[79.8161,34.4831],[79.821,34.5145],[79.8091,34.5228],[79.787,34.5308],[79.7698,34.5378],[79.7688,34.5523],[79.7771,34.5653],[79.7944,34.5805],[79.7899,34.5906],[79.7755,34.6021],[79.7766,34.6104],[79.8161,34.629],[79.8294,34.6355],[79.8481,34.656],[79.8582,34.6665],[79.8751,34.6679],[79.8783,34.6749],[79.9216,34.6727],[79.9447,34.6609],[79.954,34.6654],[79.9737,34.6768],[80.0043,34.6824],[80.0433,34.6859],[80.0653,34.6929],[80.0693,34.7009],[80.0692,34.7687],[80.075,34.8054],[80.0898,34.828],[80.1272,34.8725],[80.1528,34.9254],[80.1714,34.965],[80.1869,35.008],[80.1881,35.0529],[80.187,35.1028],[80.185,35.1306],[80.1992,35.1533],[80.2262,35.1796],[80.2427,35.208],[80.2512,35.248],[80.2652,35.2743],[80.2839,35.3139],[80.2975,35.3529],[80.2962,35.3902],[80.2985,35.417],[80.3212,35.4376],[80.3398,35.4497],[80.3451,35.4612],[80.3346,35.4958],[80.3268,35.5289],[80.3146,35.5361],[80.3135,35.5434],[80.3179,35.5646],[80.3117,35.588],[80.295,35.5997],[80.2686,35.6154],[80.2131,35.6387],[80.1517,35.6516],[80.1289,35.6567],[80.1122,35.6895],[80.1005,35.7062],[80.0775,35.7257],[80.0621,35.7685],[80.0426,35.8027],[80.0157,35.8262],[79.9997,35.8276],[79.9677,35.8252],[79.9383,35.8099],[79.9154,35.7928],[79.9045,35.7782],[79.899,35.7751],[79.8871,35.7744],[79.8285,35.7869],[79.7511,35.7969],[79.7284,35.814],[79.6823,35.8325],[79.6193,35.8453],[79.5912,35.8556],[79.5624,35.8659],[79.5362,35.8796],[79.468,35.8874],[79.4402,35.8941],[79.4303,35.9081],[79.4104,35.986],[79.4009,35.9928],[79.358,35.9917],[79.2888,35.9869],[79.2517,35.9848],[79.2309,35.9722],[79.2131,35.9545],[79.2045,35.9277],[79.2095,35.9039],[79.2128,35.8779],[79.1816,35.8536],[79.1647,35.8382],[79.1424,35.8348],[79.1272,35.8367],[79.0322,35.8477],[79.0131,35.8595],[78.9824,35.8897],[78.9692,35.8902],[78.9521,35.8772],[78.9251,35.8675],[78.8722,35.8623],[78.8391,35.8561],[78.82,35.8565],[78.7862,35.8689],[78.7692,35.8679],[78.7489,35.8648],[78.7283,35.8647],[78.7105,35.8577],[78.6952,35.859],[78.6733,35.8542],[78.6652,35.8363],[78.6464,35.8211],[78.6217,35.8111],[78.61,35.8121],[78.5997,35.8057],[78.5843,35.7944],[78.5603,35.7778],[78.5342,35.7625],[78.5264,35.7655],[78.5125,35.772],[78.4754,35.775],[78.4427,35.7836],[78.4302,35.7781],[78.4261,35.7682],[78.4159,35.763],[78.4124,35.7519],[78.4091,35.7486],[78.4087,35.7391],[78.4039,35.7358],[78.3683,35.7273],[78.338,35.7189],[78.3193,35.7222],[78.2979,35.7281],[78.2877,35.7223],[78.277,35.7184],[78.2755,35.7125],[78.2775,35.692],[78.2772,35.677],[78.2845,35.6645],[78.2827,35.6616],[78.2687,35.6544],[78.2656,35.6474],[78.2559,35.6458],[78.2287,35.6575],[78.212,35.666],[78.207,35.6604],[78.2077,35.6478],[78.2011,35.6417],[78.1959,35.6349],[78.1974,35.6228],[78.176,35.6275],[78.1698,35.625],[78.1734,35.6056],[78.1706,35.5944],[78.1596,35.5815],[78.1605,35.57],[78.1649,35.5517],[78.1572,35.5487],[78.1491,35.5416],[78.1368,35.5366],[78.1316,35.5424],[78.1058,35.5534],[78.0929,35.5496],[78.0844,35.552],[78.0749,35.5593],[78.0556,35.5818],[78.0369,35.585],[78.0014,35.5824],[77.9907,35.585],[77.9735,35.5947],[77.9578,35.6049],[77.9538,35.6016],[77.9679,35.5718],[77.9635,35.5583],[77.9519,35.5407],[77.9375,35.5172],[77.9393,35.5069],[77.9603,35.4861],[77.9705,35.4668],[77.986,35.4548],[77.9853,35.4483],[77.9773,35.4489],[77.9625,35.4612],[77.9646,35.4388],[77.8861,35.4051],[77.8583,35.3875],[77.8559,35.3876],[77.7227,35.2924],[77.7425,35.2583]]]},"properties":{"id":"in:subdistrict:x9-unnamed~9","level":"subdistrict","name":"Unnamed sub-district","code":0,"parent":"in:district:9","state":"in:state:37"}},{"type":"Feature","geometry":{"type":"Polygon","coordinates":[[[76.4111,34.8956],[76.4135,34.8945],[76.4124,34.8908],[76.4144,34.8882],[76.4142,34.8855],[76.416,34.8798],[76.4131,34.8767],[76.4155,34.8723],[76.4144,34.8675],[76.4147,34.8654],[76.4201,34.8614],[76.4159,34.8552],[76.418,34.8512],[76.4228,34.8484],[76.429,34.8477],[76.4301,34.8459],[76.4297,34.8415],[76.4259,34.8377],[76.4255,34.8345],[76.429,34.8258],[76.4293,34.8237],[76.4332,34.8188],[76.4344,34.809],[76.4347,34.8026],[76.4383,34.8012],[76.576,34.7771],[76.613,34.759],[76.7277,34.7027],[76.7902,34.5897],[77.0043,34.4678],[77.1058,34.4265],[77.2601,34.3637],[77.3582,34.3547],[77.6111,34.3399],[77.7443,34.1714],[77.7687,34.1406],[77.849,34.0305],[78.1316,34.0127],[78.3223,34.075],[78.2892,34.1137],[78.2632,34.1608],[78.2591,34.1791],[78.2555,34.2437],[78.1918,34.2808],[78.1783,34.2896],[78.1678,34.3066],[78.1861,34.3209],[78.2035,34.3364],[78.2176,34.355],[78.2309,34.3798],[78.2433,34.4299],[78.2518,34.4705],[78.2743,34.4898],[78.2854,34.4838],[78.3079,34.4844],[78.3205,34.5025],[78.3273,34.5282],[78.3353,34.5408],[78.3423,34.6072],[78.3391,34.6281],[78.338,34.6406],[78.3487,34.6493],[78.3615,34.6622],[78.3622,34.6842],[78.3581,34.6993],[78.3495,34.7094],[78.3393,34.7237],[78.3185,34.7422],[78.2901,34.7604],[78.2649,34.7729],[78.2502,34.7864],[78.2456,34.8103],[78.2361,34.8349],[78.2174,34.8728],[78.2002,34.8924],[78.1743,34.9194],[78.1834,34.9483],[78.1862,34.9689],[78.1732,34.9826],[78.1561,35.0041],[78.1426,35.0243],[78.1326,35.0481],[78.14,35.0609],[78.1442,35.0768],[78.1354,35.1194],[78.1234,35.1579],[78.1133,35.1893],[78.0827,35.2168],[78.0697,35.2152],[78.0593,35.2123],[78.0326,35.2252],[78.0159,35.249],[77.9845,35.285],[77.9804,35.297],[77.9735,35.3061],[77.9559,35.305],[77.9219,35.3022],[77.8692,35.3032],[77.8492,35.3161],[77.8237,35.3046],[77.7425,35.2583],[77.74,35.2569],[77.6632,35.2674],[77.6173,35.3161],[77.5643,35.3195],[77.5112,35.3044],[77.4827,35.2569],[77.3699,35.1839],[77.2037,35.1935],[77.0527,35.1641],[76.8604,35.1234],[76.7574,35.0627],[76.4638,34.9397],[76.4299,34.9142],[76.4111,34.8956]]]},"properties":{"id":"in:subdistrict:11","level":"subdistrict","name":"Nubra","code":11,"parent":"in:district:9","state":"in:state:37"}},{"type":"Feature","geometry":{"type":"Polygon","coordinates":[[[78.4099,32.524],[78.4078,32.5266],[78.4162,32.5439],[78.4277,32.5634],[78.4513,32.5776],[78.4756,32.5792],[78.5034,32.587],[78.5153,32.6041],[78.5243,32.6081],[78.5428,32.6089],[78.5655,32.6148],[78.5877,32.6046],[78.6053,32.5911],[78.6146,32.5981],[78.6293,32.6209],[78.6484,32.6439],[78.6568,32.6491],[78.6803,32.6556],[78.7087,32.6561],[78.722,32.6664],[78.7406,32.6912],[78.7507,32.6928],[78.7532,32.6841],[78.7497,32.667],[78.7433,32.655],[78.7622,32.6288],[78.7755,32.621],[78.7824,32.5958],[78.7675,32.5785],[78.7592,32.5678],[78.7655,32.5438],[78.7701,32.529],[78.7748,32.5054],[78.7753,32.504],[78.7851,32.4887],[78.8046,32.4558],[78.8067,32.4442],[78.8224,32.4339],[78.8394,32.4336],[78.8599,32.4102],[78.9029,32.3849],[78.9301,32.3705],[78.9467,32.3613],[78.9588,32.344],[78.9712,32.3357],[78.9833,32.3484],[79.0035,32.3749],[79.0454,32.3874],[79.0785,32.3803],[79.0937,32.3771],[79.0992,32.382],[79.1039,32.3966],[79.1134,32.4108],[79.1298,32.4172],[79.1352,32.4323],[79.1214,32.4581],[79.125,32.465],[79.132,32.4698],[79.1389,32.4686],[79.1535,32.4715],[79.1821,32.4738],[79.1933,32.4842],[79.2302,32.5133],[79.2409,32.5195],[79.2598,32.5227],[79.2813,32.5477],[79.2936,32.5719],[79.3053,32.5858],[79.3119,32.5876],[79.325,32.5846],[79.3395,32.5701],[79.3624,32.5662],[79.373,32.5605],[79.379,32.5353],[79.3845,32.5228],[79.3966,32.5175],[79.4165,32.5181],[79.4293,32.5235],[79.4387,32.5359],[79.4515,32.5587],[79.4588,32.5659],[79.4747,32.574],[79.4956,32.5986],[79.5253,32.6307],[79.5375,32.6596],[79.5672,32.6701],[79.5723,32.6876],[79.5802,32.6935],[79.5924,32.711],[79.6096,32.7232],[79.6119,32.735],[79.5979,32.7483],[79.5944,32.7595],[79.5881,32.7661],[79.5704,32.7659],[79.5571,32.7677],[79.5381,32.7864],[79.5339,32.8035],[79.5177,32.8266],[79.4655,32.88],[79.4527,32.9022],[79.4461,32.9118],[79.4334,32.9238],[79.421,32.9327],[79.4139,32.9448],[79.3976,32.9618],[79.3771,32.9631],[79.369,32.9662],[79.3717,32.9768],[79.3682,32.9825],[79.3581,32.9816],[79.3534,32.9839],[79.3462,32.9893],[79.34,33.0019],[79.3299,33.007],[79.3249,33.0122],[79.3438,33.0153],[79.3567,33.016],[79.3803,33.0277],[79.3871,33.0421],[79.3795,33.0608],[79.3682,33.0834],[79.3732,33.1064],[79.3886,33.126],[79.4228,33.165],[79.443,33.2004],[79.4518,33.235],[79.4461,33.2577],[79.4346,33.2624],[79.3939,33.2745],[79.3556,33.2821],[79.3311,33.2753],[79.3001,33.2733],[79.2613,33.2887],[79.2237,33.2963],[79.1971,33.295],[79.149,33.2939],[79.1077,33.2891],[79.0816,33.2974],[79.058,33.3091],[79.016,33.3283],[78.987,33.3309],[78.9784,33.3364],[78.9718,33.364],[78.9554,33.3816],[78.94,33.4136],[78.9271,33.4543],[78.9275,33.4867],[78.9412,33.5113],[78.9438,33.5261],[78.9232,33.5602],[78.9063,33.5737],[78.9074,33.5826],[78.9145,33.606],[78.9029,33.622],[78.9095,33.6292],[78.9272,33.6271],[78.9403,33.6176],[78.9642,33.6137],[78.9895,33.6145],[79.0308,33.6242],[79.0661,33.6193],[79.0954,33.6125],[79.1002,33.6163],[79.0904,33.6358],[79.0817,33.6756],[79.078,33.6861],[79.0635,33.6795],[79.0463,33.6738],[79.0341,33.6797],[79.022,33.6861],[79.0161,33.7023],[79.0198,33.7145],[79.0356,33.7413],[79.0205,33.746],[79.0046,33.7588],[78.9551,33.7936],[78.8777,33.8555],[78.8639,33.8601],[78.7892,33.8911],[78.7708,33.9232],[78.7683,33.9584],[78.8608,33.9742],[78.8853,34.0609],[78.8481,34.0814],[78.7785,34.0632],[78.7498,34.0576],[78.5947,34.0103],[78.5575,33.9944],[78.5389,33.9828],[78.5101,33.9759],[78.4927,33.9724],[78.4871,33.9769],[78.462,33.9786],[78.446,34.0049],[78.4193,34.023],[78.3834,34.0337],[78.3635,34.0419],[78.3403,34.0529],[78.3223,34.075],[78.1316,34.0127],[77.849,34.0305],[77.7687,34.1406],[77.7443,34.1714],[77.6111,34.3399],[77.3582,34.3547],[77.2601,34.3637],[77.1964,34.3277],[77.2143,34.2933],[77.2,34.2492],[77.2072,34.1778],[77.2036,34.0208],[76.9716,34.01],[76.968,33.9172],[76.811,33.8494],[76.7688,33.8053],[76.7757,33.808],[76.7776,33.8074],[76.7787,33.8037],[76.7821,33.8031],[76.7893,33.7995],[76.7931,33.7962],[76.7967,33.7952],[76.8018,33.7955],[76.8095,33.7948],[76.8144,33.7936],[76.8199,33.7941],[76.8286,33.7938],[76.8325,33.7905],[76.8347,33.7904],[76.842,33.7864],[76.8436,33.783],[76.8563,33.7777],[76.8596,33.7743],[76.8679,33.7741],[76.8741,33.7728],[76.8774,33.7749],[76.8821,33.7756],[76.8869,33.7778],[76.8893,33.781],[76.8926,33.7775],[76.8928,33.7759],[76.8963,33.7746],[76.9012,33.7742],[76.902,33.7709],[76.9086,33.7688],[76.9081,33.7636],[76.9137,33.7588],[76.9134,33.7559],[76.9087,33.7495],[76.9045,33.7448],[76.9011,33.7419],[76.9061,33.7393],[76.909,33.739],[76.9171,33.7362],[76.9209,33.7356],[76.924,33.7336],[76.9244,33.7299],[76.9277,33.7258],[76.9329,33.7249],[76.9362,33.7226],[76.9392,33.7176],[76.9416,33.7163],[76.9445,33.7178],[76.9496,33.7155],[76.9501,33.7132],[76.9534,33.7124],[76.9591,33.7134],[76.9657,33.7115],[76.9693,33.7139],[76.9721,33.718],[76.98,33.7227],[76.9854,33.7241],[76.9894,33.7232],[76.9924,33.7198],[76.9977,33.7181],[77.003,33.7136],[77.0128,33.7091],[77.0159,33.7054],[77.0192,33.7044],[77.0228,33.705],[77.0319,33.7084],[77.039,33.7087],[77.0423,33.7076],[77.0451,33.7081],[77.0476,33.7067],[77.0526,33.709],[77.0578,33.7074],[77.0609,33.7055],[77.0659,33.7007],[77.0692,33.7008],[77.0728,33.6983],[77.0722,33.6942],[77.0734,33.6923],[77.0913,33.6787],[77.0972,33.6737],[77.101,33.672],[77.1069,33.6732],[77.1102,33.6761],[77.1142,33.6754],[77.12,33.6763],[77.1197,33.6797],[77.1291,33.6854],[77.1406,33.6823],[77.1424,33.6808],[77.1497,33.6794],[77.1531,33.6747],[77.1585,33.6691],[77.1597,33.6667],[77.1658,33.6627],[77.1708,33.6615],[77.1756,33.6629],[77.1808,33.6568],[77.1808,33.6539],[77.1833,33.6497],[77.1926,33.6452],[77.1933,33.6433],[77.1991,33.6411],[77.207,33.6395],[77.2101,33.6333],[77.2078,33.6302],[77.2078,33.6227],[77.2149,33.6197],[77.218,33.6172],[77.2236,33.6156],[77.2293,33.6117],[77.2327,33.6086],[77.2385,33.6012],[77.2382,33.5984],[77.2336,33.5929],[77.2332,33.5904],[77.2374,33.5878],[77.2391,33.5836],[77.2411,33.5713],[77.2422,33.5664],[77.2407,33.5618],[77.241,33.56],[77.2476,33.5524],[77.2488,33.549],[77.2546,33.542],[77.2552,33.5338],[77.2565,33.5325],[77.2558,33.5292],[77.2604,33.524],[77.2674,33.5199],[77.2726,33.5196],[77.2767,33.5134],[77.282,33.5093],[77.2842,33.5091],[77.2822,33.5015],[77.2853,33.4994],[77.2928,33.4973],[77.2948,33.4955],[77.2985,33.4878],[77.3035,33.4872],[77.3086,33.4856],[77.3106,33.4861],[77.3171,33.4909],[77.3213,33.4894],[77.332,33.4908],[77.3377,33.4928],[77.3421,33.4887],[77.3425,33.4862],[77.3473,33.4829],[77.3517,33.4816],[77.36,33.477],[77.3633,33.4768],[77.3725,33.4795],[77.3771,33.4828],[77.381,33.483],[77.383,33.4849],[77.389,33.4868],[77.3915,33.4868],[77.3958,33.4885],[77.3967,33.4928],[77.4022,33.4922],[77.4064,33.4926],[77.4116,33.4942],[77.4203,33.4944],[77.4254,33.4939],[77.4297,33.4955],[77.4387,33.4957],[77.4423,33.494],[77.4449,33.4865],[77.4489,33.4801],[77.4519,33.469],[77.4544,33.4636],[77.4592,33.4593],[77.4625,33.4512],[77.4633,33.4473],[77.4667,33.4449],[77.4682,33.4401],[77.4718,33.4327],[77.4754,33.4268],[77.4778,33.4245],[77.4807,33.4197],[77.4882,33.4153],[77.4957,33.4138],[77.4987,33.4139],[77.503,33.4157],[77.5085,33.4126],[77.5166,33.4118],[77.5182,33.4097],[77.5214,33.4084],[77.5224,33.4061],[77.52,33.3995],[77.5202,33.3924],[77.5165,33.3891],[77.5154,33.3862],[77.5167,33.3801],[77.5161,33.3776],[77.5127,33.3748],[77.5138,33.3684],[77.5154,33.3671],[77.5249,33.3651],[77.5246,33.3605],[77.5257,33.3589],[77.5323,33.3603],[77.5352,33.3569],[77.5388,33.3592],[77.5474,33.3599],[77.5523,33.3577],[77.5564,33.355],[77.558,33.3516],[77.5549,33.348],[77.5554,33.3465],[77.5596,33.3434],[77.5615,33.3366],[77.558,33.3338],[77.5515,33.3332],[77.5429,33.3292],[77.5399,33.3298],[77.5345,33.3246],[77.5304,33.3242],[77.527,33.3255],[77.5154,33.3258],[77.5076,33.324],[77.5059,33.3215],[77.4999,33.316],[77.4946,33.3136],[77.4946,33.3102],[77.4993,33.3042],[77.4992,33.3012],[77.4958,33.2974],[77.49,33.2936],[77.4873,33.2911],[77.4861,33.2884],[77.4822,33.2844],[77.4801,33.2799],[77.4762,33.2766],[77.4767,33.2748],[77.4801,33.2723],[77.4829,33.2687],[77.4865,33.2685],[77.491,33.2619],[77.4936,33.2596],[77.4955,33.2533],[77.4921,33.2469],[77.4956,33.2432],[77.4992,33.2414],[77.5027,33.2376],[77.5052,33.2306],[77.5099,33.2253],[77.5152,33.2237],[77.52,33.2207],[77.5224,33.2138],[77.5218,33.2112],[77.5239,33.2067],[77.5229,33.2022],[77.5251,33.1964],[77.5247,33.1946],[77.5287,33.1902],[77.5308,33.1898],[77.533,33.185],[77.5375,33.1809],[77.5375,33.1755],[77.5355,33.1719],[77.5367,33.1693],[77.5381,33.1615],[77.5379,33.1582],[77.5297,33.1606],[77.5243,33.1636],[77.5186,33.1714],[77.518,33.1733],[77.5098,33.1757],[77.505,33.1789],[77.4984,33.1815],[77.4942,33.1823],[77.4905,33.1846],[77.4882,33.1884],[77.4843,33.1911],[77.4834,33.1938],[77.4744,33.1947],[77.4686,33.2012],[77.464,33.2013],[77.4608,33.2023],[77.4538,33.2062],[77.4484,33.2066],[77.4451,33.2048],[77.4412,33.2063],[77.4328,33.2046],[77.4283,33.203],[77.4217,33.1995],[77.4192,33.1991],[77.4171,33.1959],[77.416,33.1914],[77.413,33.189],[77.412,33.1824],[77.407,33.1793],[77.4025,33.1721],[77.4097,33.1661],[77.4102,33.164],[77.4095,33.1593],[77.4069,33.1561],[77.41,33.1492],[77.4095,33.1437],[77.4134,33.1421],[77.4177,33.1362],[77.4139,33.1333],[77.4112,33.1274],[77.4143,33.1189],[77.4132,33.1173],[77.4133,33.1135],[77.4146,33.1109],[77.4144,33.107],[77.4156,33.1017],[77.4132,33.0964],[77.4102,33.0925],[77.4082,33.087],[77.4067,33.0856],[77.4001,33.0844],[77.3961,33.0821],[77.3802,33.0857],[77.3696,33.0813],[77.3636,33.0803],[77.3572,33.0817],[77.3529,33.0849],[77.3386,33.0868],[77.3367,33.0818],[77.335,33.0736],[77.3379,33.0686],[77.3371,33.0649],[77.3379,33.0606],[77.3363,33.0506],[77.3339,33.0489],[77.3307,33.0487],[77.3282,33.0448],[77.3243,33.0424],[77.3175,33.0441],[77.3165,33.043],[77.3167,33.037],[77.3137,33.0348],[77.3103,33.0347],[77.306,33.0375],[77.3018,33.0357],[77.2961,33.0349],[77.292,33.0393],[77.2891,33.0318],[77.2903,33.027],[77.2872,33.0222],[77.2846,33.0202],[77.2837,33.0178],[77.2841,33.0137],[77.2826,33.0076],[77.2802,33.0045],[77.2794,33.0009],[77.2764,32.9974],[77.2771,32.9929],[77.2796,32.9906],[77.2793,32.9832],[77.2819,32.9804],[77.2871,32.9779],[77.2852,32.9727],[77.287,32.9673],[77.2874,32.9588],[77.2894,32.9512],[77.2931,32.9484],[77.2963,32.9416],[77.3013,32.9386],[77.3017,32.9369],[77.3006,32.931],[77.3027,32.9263],[77.3064,32.9243],[77.3085,32.9203],[77.3089,32.9131],[77.3112,32.906],[77.3142,32.9039],[77.3147,32.8992],[77.3183,32.8944],[77.3158,32.8912],[77.3116,32.8886],[77.3031,32.8826],[77.2988,32.8832],[77.2957,32.8856],[77.2857,32.8791],[77.2781,32.8785],[77.2754,32.8768],[77.274,32.8739],[77.2815,32.8689],[77.2861,32.8645],[77.2904,32.8571],[77.2992,32.8522],[77.3009,32.8499],[77.3045,32.8496],[77.3095,32.8516],[77.3138,32.8506],[77.3204,32.8524],[77.3234,32.8504],[77.3253,32.846],[77.3287,32.843],[77.3265,32.84],[77.3253,32.8355],[77.327,32.8315],[77.3303,32.8295],[77.332,32.8261],[77.336,32.825],[77.3365,32.8201],[77.3386,32.8169],[77.3462,32.8168],[77.3496,32.8155],[77.3532,32.816],[77.3565,32.8176],[77.3602,32.8176],[77.3662,32.8209],[77.3701,32.8216],[77.3729,32.8232],[77.3747,32.8269],[77.3766,32.8333],[77.3764,32.8365],[77.3792,32.8389],[77.3799,32.8455],[77.3754,32.8501],[77.3745,32.8542],[77.376,32.857],[77.3815,32.8619],[77.3875,32.8633],[77.3921,32.8703],[77.3942,32.8713],[77.3952,32.8756],[77.3972,32.8784],[77.4073,32.884],[77.4134,32.8841],[77.4186,32.8803],[77.428,32.8756],[77.4317,32.8756],[77.4378,32.8786],[77.4448,32.8799],[77.448,32.8753],[77.4474,32.8717],[77.4486,32.8687],[77.4521,32.8641],[77.4612,32.86],[77.4692,32.8587],[77.4749,32.8616],[77.4808,32.8705],[77.4862,32.8737],[77.491,32.8796],[77.4972,32.8804],[77.4974,32.8816],[77.5015,32.8856],[77.5053,32.8837],[77.5095,32.8786],[77.5126,32.8774],[77.5208,32.8792],[77.526,32.8811],[77.5296,32.8835],[77.5385,32.8861],[77.5454,32.8916],[77.5504,32.9003],[77.5587,32.9065],[77.5637,32.9123],[77.5754,32.9137],[77.5794,32.9167],[77.5889,32.922],[77.5944,32.9259],[77.5963,32.9283],[77.6,32.937],[77.6021,32.9394],[77.6031,32.9429],[77.6199,32.9437],[77.6263,32.9455],[77.6333,32.9454],[77.6405,32.9472],[77.6432,32.9465],[77.6436,32.9492],[77.6468,32.9503],[77.6542,32.9563],[77.656,32.9589],[77.6641,32.9583],[77.6734,32.9609],[77.6748,32.9618],[77.6741,32.9674],[77.6787,32.9696],[77.682,32.9748],[77.6807,32.9838],[77.6825,32.9888],[77.6895,32.988],[77.6949,32.9834],[77.6978,32.9827],[77.6971,32.9798],[77.7087,32.9823],[77.7131,32.9825],[77.7143,32.976],[77.7196,32.9687],[77.7249,32.9693],[77.731,32.9746],[77.7328,32.9718],[77.7362,32.9701],[77.741,32.969],[77.7436,32.9653],[77.7459,32.9603],[77.7498,32.9577],[77.7509,32.9546],[77.7566,32.9518],[77.7587,32.9516],[77.7635,32.9491],[77.7665,32.9463],[77.7647,32.9436],[77.7658,32.9415],[77.7718,32.938],[77.7769,32.9333],[77.7775,32.9318],[77.7857,32.9264],[77.7885,32.9228],[77.7938,32.9206],[77.7981,32.9139],[77.8003,32.912],[77.8054,32.9103],[77.8106,32.907],[77.8118,32.9045],[77.8103,32.8995],[77.8049,32.8942],[77.8025,32.8933],[77.7938,32.8932],[77.7899,32.891],[77.7875,32.8863],[77.7843,32.8831],[77.7824,32.8775],[77.7829,32.8746],[77.7812,32.8715],[77.781,32.8658],[77.7846,32.8615],[77.791,32.8564],[77.7987,32.8559],[77.8044,32.8505],[77.8064,32.8497],[77.8132,32.8497],[77.817,32.8472],[77.8206,32.8424],[77.8261,32.8362],[77.8324,32.8363],[77.8346,32.8401],[77.839,32.842],[77.8469,32.839],[77.8513,32.835],[77.8554,32.8323],[77.8692,32.827],[77.8713,32.8225],[77.8775,32.8202],[77.879,32.8182],[77.8799,32.8137],[77.8821,32.8104],[77.8811,32.8041],[77.8851,32.8002],[77.8878,32.7989],[77.8876,32.7959],[77.8841,32.7877],[77.8925,32.7822],[77.8936,32.7793],[77.8974,32.7758],[77.9037,32.7719],[77.9087,32.7733],[77.9117,32.7729],[77.9162,32.7738],[77.919,32.7724],[77.9259,32.7717],[77.9259,32.769],[77.9291,32.7634],[77.9319,32.7624],[77.9337,32.7601],[77.9341,32.7565],[77.9331,32.7517],[77.9314,32.7505],[77.9329,32.7465],[77.9294,32.7431],[77.9307,32.737],[77.9268,32.7364],[77.9283,32.7328],[77.931,32.7323],[77.9344,32.7259],[77.9319,32.725],[77.9273,32.7213],[77.9246,32.7165],[77.9246,32.7113],[77.9218,32.7088],[77.9228,32.7059],[77.9215,32.7032],[77.9224,32.6988],[77.9183,32.6957],[77.9192,32.6946],[77.9186,32.6905],[77.9208,32.6886],[77.9266,32.6863],[77.9315,32.6818],[77.9341,32.6814],[77.9356,32.6791],[77.941,32.6734],[77.9424,32.6663],[77.9461,32.6619],[77.9497,32.6597],[77.9551,32.6582],[77.9659,32.6576],[77.9718,32.6543],[77.9719,32.6499],[77.9702,32.6469],[77.9761,32.6451],[77.9797,32.6425],[77.9847,32.6415],[77.9876,32.6361],[77.9916,32.6327],[77.9915,32.6306],[77.9962,32.6268],[78.0037,32.6246],[78.009,32.6256],[78.0121,32.6247],[78.0126,32.6221],[78.0151,32.62],[78.018,32.6197],[78.0221,32.6216],[78.029,32.6235],[78.0252,32.6272],[78.0334,32.6338],[78.0348,32.6373],[78.0428,32.6403],[78.0441,32.6433],[78.0469,32.6446],[78.0516,32.6387],[78.0564,32.6347],[78.0602,32.627],[78.066,32.6261],[78.0747,32.6309],[78.0827,32.6257],[78.0867,32.6244],[78.0896,32.626],[78.0926,32.6289],[78.0989,32.6304],[78.0993,32.6357],[78.0959,32.6444],[78.0926,32.6478],[78.1088,32.6609],[78.1105,32.6628],[78.1155,32.6606],[78.1206,32.6607],[78.1235,32.6561],[78.1271,32.6522],[78.1309,32.6534],[78.1379,32.6545],[78.1472,32.654],[78.148,32.6553],[78.1485,32.6663],[78.1479,32.6719],[78.1455,32.6775],[78.1429,32.6797],[78.1424,32.6818],[78.1497,32.6817],[78.1542,32.6834],[78.1584,32.684],[78.1602,32.6828],[78.1655,32.6831],[78.172,32.6803],[78.1758,32.681],[78.1804,32.678],[78.1827,32.6776],[78.1869,32.675],[78.1902,32.6748],[78.1979,32.6701],[78.2013,32.6704],[78.2043,32.667],[78.2194,32.6647],[78.2264,32.6694],[78.2332,32.6718],[78.2393,32.6713],[78.2459,32.6716],[78.248,32.6752],[78.2507,32.6834],[78.2544,32.6892],[78.2538,32.692],[78.2558,32.6971],[78.2585,32.7014],[78.2605,32.7029],[78.2685,32.7011],[78.2731,32.7025],[78.2812,32.701],[78.2935,32.7006],[78.2946,32.7036],[78.3018,32.7041],[78.306,32.7071],[78.3068,32.7104],[78.3142,32.7167],[78.3148,32.7182],[78.3116,32.7246],[78.3081,32.7282],[78.3058,32.733],[78.3099,32.7351],[78.3129,32.7398],[78.3177,32.7417],[78.3333,32.7497],[78.3571,32.7577],[78.3619,32.7541],[78.3675,32.7535],[78.3726,32.7554],[78.3755,32.7541],[78.3828,32.7553],[78.3858,32.757],[78.388,32.7567],[78.386,32.7497],[78.3866,32.7452],[78.3893,32.7402],[78.3859,32.7357],[78.3843,32.7295],[78.3855,32.7193],[78.3881,32.7157],[78.3881,32.7131],[78.3906,32.7107],[78.397,32.7076],[78.3974,32.6981],[78.4007,32.6946],[78.3977,32.69],[78.3917,32.6854],[78.3898,32.6808],[78.3875,32.6778],[78.3868,32.6745],[78.387,32.6666],[78.3841,32.658],[78.3815,32.6538],[78.3847,32.6507],[78.3877,32.6451],[78.3879,32.6408],[78.3923,32.6328],[78.4004,32.6287],[78.4051,32.6284],[78.4095,32.6261],[78.4097,32.6231],[78.4036,32.6197],[78.4023,32.6171],[78.3975,32.6176],[78.3904,32.6144],[78.3892,32.6097],[78.3848,32.6091],[78.38,32.605],[78.3789,32.6031],[78.3792,32.5992],[78.3781,32.5977],[78.3746,32.5974],[78.3696,32.5944],[78.3665,32.5938],[78.3638,32.5903],[78.3532,32.5897],[78.3491,32.5874],[78.3483,32.5842],[78.3448,32.5819],[78.3433,32.5781],[78.3396,32.5786],[78.3315,32.5766],[78.3215,32.5717],[78.3139,32.5663],[78.313,32.5638],[78.3145,32.5599],[78.3129,32.5566],[78.3126,32.5511],[78.3153,32.5499],[78.3135,32.5457],[78.3098,32.5438],[78.3081,32.5417],[78.307,32.5375],[78.3087,32.5255],[78.3058,32.5211],[78.3046,32.5167],[78.3065,32.5109],[78.3031,32.5075],[78.3011,32.5039],[78.2962,32.502],[78.2925,32.499],[78.2921,32.4954],[78.2926,32.4898],[78.2875,32.4817],[78.2913,32.476],[78.2904,32.4742],[78.2857,32.4716],[78.2847,32.4685],[78.289,32.4637],[78.2978,32.4623],[78.2983,32.458],[78.3019,32.454],[78.305,32.4534],[78.3091,32.4505],[78.3112,32.4465],[78.3208,32.444],[78.3241,32.4444],[78.3298,32.4435],[78.3327,32.4461],[78.3342,32.4511],[78.3291,32.4535],[78.3258,32.4596],[78.3284,32.465],[78.333,32.4645],[78.339,32.4629],[78.3437,32.4628],[78.349,32.4643],[78.3531,32.4699],[78.35,32.4733],[78.3494,32.477],[78.3522,32.4787],[78.3582,32.4797],[78.3638,32.4823],[78.3671,32.487],[78.3675,32.4945],[78.3651,32.4994],[78.372,32.5036],[78.3793,32.5069],[78.3837,32.5103],[78.386,32.513],[78.3942,32.5148],[78.3989,32.5209],[78.3995,32.5246],[78.4091,32.5233],[78.4099,32.524]]]},"properties":{"id":"in:subdistrict:10","level":"subdistrict","name":"Leh","code":10,"parent":"in:district:9","state":"in:state:37"}}]}