{"type":"FeatureCollection","features":[{"type":"Feature","geometry":{"type":"MultiPolygon","coordinates":[[[[72.9708,20.2969],[72.9724,20.3041],[72.9735,20.3053],[72.9729,20.3087],[72.9772,20.3121],[72.9787,20.3151],[72.9824,20.3183],[72.9826,20.3204],[72.9795,20.3274],[72.9791,20.3322],[72.9741,20.3319],[72.9696,20.3327],[72.9611,20.3324],[72.9593,20.3256],[72.957,20.3237],[72.9566,20.3204],[72.9528,20.3142],[72.9545,20.3112],[72.9645,20.3046],[72.9688,20.2976],[72.9708,20.2969]]],[[[73.0137,20.0965],[73.0195,20.0925],[73.0218,20.09],[73.0234,20.0847],[73.0305,20.0797],[73.0337,20.0753],[73.0383,20.068],[73.0432,20.0652],[73.0474,20.0657],[73.0511,20.0647],[73.0521,20.0853],[73.0552,20.0999],[73.0637,20.0996],[73.0682,20.0968],[73.0754,20.0961],[73.0786,20.0947],[73.081,20.0923],[73.084,20.0914],[73.0903,20.092],[73.0963,20.0907],[73.1023,20.0912],[73.106,20.0875],[73.1065,20.0856],[73.1057,20.0785],[73.107,20.0754],[73.1108,20.0737],[73.112,20.0712],[73.1118,20.0736],[73.1143,20.0762],[73.1192,20.0754],[73.119,20.0787],[73.1241,20.078],[73.1251,20.0828],[73.1263,20.0839],[73.1307,20.0818],[73.1334,20.0862],[73.1351,20.0867],[73.1374,20.0848],[73.1362,20.0816],[73.1371,20.0791],[73.1395,20.0788],[73.1427,20.08],[73.1431,20.0764],[73.1467,20.0739],[73.1487,20.0748],[73.1486,20.0785],[73.1518,20.0777],[73.1546,20.0751],[73.1518,20.073],[73.1545,20.0704],[73.1563,20.0639],[73.1616,20.062],[73.1635,20.0606],[73.1653,20.0552],[73.1678,20.0558],[73.1707,20.052],[73.1743,20.0512],[73.1766,20.052],[73.178,20.047],[73.1797,20.049],[73.1833,20.0503],[73.1849,20.0493],[73.1878,20.0507],[73.1912,20.0505],[73.1921,20.0547],[73.1877,20.057],[73.1861,20.0592],[73.1877,20.0634],[73.1879,20.0697],[73.1892,20.0733],[73.1885,20.0781],[73.1969,20.0759],[73.1982,20.0778],[73.2033,20.079],[73.2095,20.085],[73.2127,20.1048],[73.2126,20.1099],[73.2139,20.119],[73.2084,20.1201],[73.2041,20.1192],[73.2023,20.1199],[73.2004,20.1234],[73.1974,20.1263],[73.1926,20.1278],[73.1887,20.1277],[73.187,20.1294],[73.1871,20.133],[73.1855,20.1374],[73.1845,20.1472],[73.1854,20.1558],[73.1878,20.1577],[73.1897,20.1643],[73.201,20.1653],[73.2055,20.1642],[73.2142,20.1717],[73.2182,20.1815],[73.2177,20.1859],[73.2151,20.1874],[73.2116,20.1879],[73.2082,20.1895],[73.2067,20.1881],[73.2031,20.1899],[73.1988,20.1945],[73.1917,20.1974],[73.19,20.1951],[73.1818,20.1944],[73.1804,20.1923],[73.1779,20.1926],[73.1793,20.1956],[73.1767,20.1993],[73.1715,20.1984],[73.1687,20.203],[73.1683,20.2082],[73.1572,20.1983],[73.1528,20.2035],[73.1476,20.2007],[73.145,20.2023],[73.1385,20.2045],[73.1375,20.2076],[73.133,20.2058],[73.1323,20.1998],[73.1326,20.192],[73.1349,20.185],[73.139,20.1845],[73.1419,20.1774],[73.1386,20.1747],[73.136,20.17],[73.1335,20.1693],[73.1311,20.1702],[73.1284,20.1734],[73.1246,20.1706],[73.1224,20.1707],[73.1188,20.1675],[73.1191,20.1638],[73.1157,20.1622],[73.1148,20.1589],[73.1165,20.1558],[73.1157,20.1522],[73.1136,20.1521],[73.1105,20.1563],[73.1067,20.158],[73.0994,20.1562],[73.095,20.1589],[73.0903,20.1603],[73.0901,20.1635],[73.087,20.1703],[73.0834,20.1723],[73.0793,20.1732],[73.0777,20.1696],[73.076,20.1625],[73.0746,20.1606],[73.0741,20.1565],[73.0725,20.155],[73.0643,20.1587],[73.0602,20.1619],[73.0604,20.1669],[73.0626,20.1698],[73.0621,20.1729],[73.0628,20.1776],[73.0621,20.1843],[73.0595,20.1939],[73.0532,20.1954],[73.0488,20.2002],[73.0534,20.2054],[73.055,20.2091],[73.0551,20.2122],[73.0581,20.2178],[73.06,20.2233],[73.0626,20.224],[73.0642,20.2282],[73.0672,20.2293],[73.0705,20.2321],[73.0824,20.2309],[73.0855,20.2276],[73.0893,20.2268],[73.0916,20.2284],[73.0977,20.2293],[73.099,20.2319],[73.0971,20.2361],[73.0978,20.2393],[73.1006,20.2405],[73.1033,20.2445],[73.1055,20.2453],[73.1075,20.2486],[73.107,20.2507],[73.1102,20.2532],[73.1144,20.2585],[73.1196,20.2586],[73.127,20.2618],[73.1292,20.2676],[73.1305,20.2695],[73.1312,20.275],[73.1373,20.2731],[73.1393,20.2732],[73.1423,20.2764],[73.1422,20.2811],[73.1441,20.2862],[73.1458,20.2886],[73.1503,20.2916],[73.1523,20.2912],[73.1537,20.2852],[73.1555,20.2826],[73.1582,20.2813],[73.1649,20.284],[73.1664,20.2908],[73.1654,20.2952],[73.1635,20.2982],[73.1662,20.3053],[73.1657,20.3104],[73.1631,20.3104],[73.1599,20.3087],[73.1576,20.3103],[73.1508,20.3183],[73.1407,20.3183],[73.1389,20.3176],[73.1294,20.3183],[73.1265,20.3088],[73.127,20.3055],[73.1248,20.3046],[73.1198,20.3049],[73.1166,20.3062],[73.1115,20.304],[73.1085,20.3053],[73.1028,20.3018],[73.1004,20.3048],[73.103,20.312],[73.1029,20.3141],[73.1084,20.3246],[73.1075,20.3286],[73.1085,20.333],[73.1113,20.3378],[73.1081,20.3406],[73.107,20.3445],[73.104,20.3475],[73.105,20.3491],[73.1017,20.3547],[73.0986,20.3547],[73.0983,20.3584],[73.0958,20.3613],[73.0933,20.3596],[73.0901,20.3596],[73.0894,20.3525],[73.0884,20.3503],[73.0903,20.3469],[73.0903,20.3439],[73.0878,20.3412],[73.0845,20.3318],[73.0813,20.3282],[73.0781,20.3259],[73.0772,20.3235],[73.0703,20.3255],[73.0674,20.3299],[73.0627,20.3292],[73.0572,20.3267],[73.0515,20.3249],[73.0472,20.3243],[73.0417,20.326],[73.0387,20.321],[73.0377,20.3177],[73.038,20.3142],[73.0362,20.3047],[73.0349,20.2919],[73.0296,20.2905],[73.0234,20.2913],[73.0218,20.293],[73.0153,20.294],[73.017,20.3098],[73.0124,20.3093],[73.0124,20.3114],[73.0094,20.3126],[73.0096,20.305],[73.0114,20.2998],[73.0104,20.297],[73.011,20.2934],[73.01,20.2912],[73.0052,20.2892],[73.0017,20.2917],[72.9968,20.2908],[72.9944,20.2923],[72.9873,20.2909],[72.9854,20.2881],[72.9812,20.2893],[72.9807,20.2828],[72.9819,20.2755],[72.9792,20.2729],[72.9736,20.2711],[72.9712,20.2691],[72.9652,20.2698],[72.9622,20.2713],[72.9618,20.275],[72.9564,20.2779],[72.9553,20.2796],[72.9553,20.2842],[72.9516,20.285],[72.9451,20.2885],[72.9416,20.2931],[72.9357,20.2946],[72.9313,20.2929],[72.9293,20.2874],[72.9268,20.2852],[72.9204,20.2834],[72.9204,20.2813],[72.9172,20.2808],[72.916,20.276],[72.9124,20.2754],[72.9117,20.2703],[72.9132,20.2679],[72.9175,20.2634],[72.9185,20.2586],[72.9229,20.2575],[72.9283,20.2495],[72.9289,20.2466],[72.9306,20.2444],[72.9376,20.2448],[72.954,20.2383],[72.9583,20.2354],[72.9606,20.2303],[72.9649,20.2267],[72.966,20.2249],[72.9645,20.2173],[72.9645,20.2138],[72.962,20.21],[72.9621,20.2085],[72.9598,20.2012],[72.9606,20.1945],[72.9618,20.192],[72.9609,20.1861],[72.963,20.1822],[72.9689,20.1834],[72.973,20.1813],[72.9768,20.1809],[72.9769,20.1787],[72.9739,20.1747],[72.9736,20.1672],[72.9744,20.1602],[72.969,20.1503],[72.9659,20.1456],[72.9616,20.1371],[72.9608,20.1333],[72.9613,20.1307],[72.9639,20.1257],[72.9685,20.1237],[72.9705,20.1156],[72.9728,20.114],[72.9774,20.1128],[72.9796,20.1157],[72.9918,20.1177],[72.9954,20.1341],[72.9942,20.1374],[72.9949,20.1397],[72.9974,20.1423],[72.9992,20.1426],[73.0033,20.1403],[73.0041,20.1372],[73.0094,20.1339],[73.0116,20.134],[73.0132,20.1296],[73.0111,20.128],[73.0042,20.1249],[73.0014,20.1246],[72.9996,20.123],[72.9991,20.1204],[73.0006,20.1156],[73.0007,20.1123],[73.0052,20.1105],[73.0104,20.1058],[73.0134,20.1004],[73.0137,20.0965]],[[72.9821,20.2139],[72.979,20.2156],[72.9748,20.2193],[72.9746,20.2257],[72.9792,20.234],[72.9895,20.2388],[72.9984,20.2368],[73.0055,20.232],[73.0083,20.229],[73.0056,20.2234],[73.0025,20.2206],[73.0011,20.2144],[72.9929,20.215],[72.9903,20.2133],[72.9838,20.2131],[72.9821,20.2139]]]]},"properties":{"id":"in:subdistrict:3949","level":"subdistrict","name":"Dadra & Nagar Haveli","code":3949,"parent":"in:district:465","state":"in:state:38"}},{"type":"Feature","geometry":{"type":"Polygon","coordinates":[[[72.8806,20.3714],[72.883,20.3723],[72.8907,20.3726],[72.8915,20.3757],[72.8955,20.3781],[72.8962,20.3804],[72.8898,20.3833],[72.8869,20.3855],[72.8871,20.3882],[72.884,20.3906],[72.8828,20.3978],[72.8851,20.3979],[72.8877,20.4],[72.8916,20.3991],[72.899,20.4032],[72.9026,20.4058],[72.9032,20.4099],[72.9019,20.4107],[72.9041,20.4148],[72.9014,20.4161],[72.8979,20.4206],[72.8932,20.4217],[72.8892,20.419],[72.8815,20.4194],[72.8802,20.417],[72.875,20.4165],[72.8747,20.4153],[72.8702,20.4139],[72.8684,20.4164],[72.8649,20.4173],[72.8604,20.4174],[72.8573,20.4189],[72.8585,20.4233],[72.8616,20.4279],[72.8651,20.4291],[72.868,20.4338],[72.8701,20.44],[72.8747,20.4455],[72.8768,20.4446],[72.8789,20.4417],[72.887,20.4383],[72.8902,20.4387],[72.8939,20.4429],[72.8953,20.4443],[72.8887,20.4495],[72.8871,20.4549],[72.888,20.4607],[72.8853,20.4626],[72.8773,20.4618],[72.8705,20.4635],[72.8666,20.4634],[72.8598,20.4646],[72.8581,20.4656],[72.8563,20.4705],[72.8497,20.475],[72.8484,20.478],[72.8463,20.478],[72.8465,20.4714],[72.8442,20.4668],[72.8371,20.4619],[72.8331,20.4551],[72.828,20.4499],[72.8256,20.4464],[72.8201,20.4339],[72.8209,20.4234],[72.819,20.4218],[72.8171,20.4175],[72.8166,20.4067],[72.8152,20.4031],[72.8133,20.3901],[72.8097,20.3823],[72.8052,20.3761],[72.8046,20.3723],[72.8084,20.3726],[72.8156,20.3706],[72.8238,20.3672],[72.8262,20.3664],[72.8304,20.3679],[72.8359,20.3733],[72.8414,20.3736],[72.8458,20.3749],[72.8561,20.372],[72.8581,20.374],[72.8639,20.3752],[72.8657,20.3723],[72.8767,20.3698],[72.8806,20.3714]]]},"properties":{"id":"in:subdistrict:3948","level":"subdistrict","name":"Daman","code":3948,"parent":"in:district:463","state":"in:state:38"}},{"type":"Feature","geometry":{"type":"MultiPolygon","coordinates":[[[[70.8742,20.7064],[70.8747,20.7089],[70.878,20.7098],[70.8877,20.7093],[70.8932,20.7076],[70.8986,20.7038],[70.8969,20.701],[70.8992,20.6997],[70.9066,20.7009],[70.9133,20.6995],[70.9168,20.7017],[70.915,20.7053],[70.9162,20.7078],[70.9198,20.7105],[70.928,20.7123],[70.9323,20.7119],[70.9377,20.7104],[70.9382,20.708],[70.9443,20.7059],[70.9508,20.7061],[70.9533,20.7039],[70.9595,20.707],[70.9646,20.7061],[70.9699,20.7077],[70.9717,20.7045],[70.9758,20.7046],[70.9768,20.7028],[70.9799,20.706],[70.9874,20.7103],[70.9944,20.7113],[70.9983,20.7158],[70.9977,20.7183],[70.9956,20.7194],[70.9927,20.7246],[70.9937,20.728],[71,20.7352],[71.004,20.7368],[71.0054,20.7392],[71.0022,20.7419],[70.9956,20.7388],[70.9938,20.7363],[70.99,20.7351],[70.9887,20.7334],[70.9856,20.7329],[70.9836,20.731],[70.9818,20.7235],[70.9806,20.7227],[70.9748,20.7275],[70.9712,20.7287],[70.9644,20.7296],[70.9633,20.7336],[70.9599,20.7368],[70.9541,20.7349],[70.9469,20.7346],[70.9385,20.7324],[70.931,20.737],[70.9266,20.7371],[70.9243,20.7407],[70.9195,20.7431],[70.9159,20.742],[70.9114,20.7374],[70.9053,20.7366],[70.902,20.7349],[70.8939,20.7324],[70.8849,20.7317],[70.8781,20.7285],[70.876,20.7258],[70.8753,20.7229],[70.8721,20.7184],[70.8708,20.7103],[70.8709,20.7076],[70.8742,20.7064]]],[[[71.1552,20.7599],[71.1521,20.7628],[71.15,20.7601],[71.1515,20.7591],[71.1552,20.7599]]],[[[71.1461,20.759],[71.1481,20.7583],[71.1497,20.7619],[71.1491,20.7664],[71.1496,20.7714],[71.1464,20.7713],[71.1468,20.7678],[71.1461,20.759]]]]},"properties":{"id":"in:subdistrict:3947","level":"subdistrict","name":"Diu","code":3947,"parent":"in:district:464","state":"in:state:38"}}]}