{"type":"FeatureCollection","features":[{"type":"Feature","geometry":{"type":"Polygon","coordinates":[[[76.8291,30.6809],[76.8319,30.6832],[76.8276,30.6877],[76.8274,30.692],[76.8286,30.6947],[76.8353,30.7016],[76.8357,30.7037],[76.8387,30.7059],[76.8439,30.708],[76.8484,30.7145],[76.8468,30.7169],[76.8436,30.7192],[76.8461,30.7223],[76.8494,30.7234],[76.8456,30.7317],[76.8372,30.7335],[76.833,30.7388],[76.8349,30.7418],[76.8334,30.7466],[76.8338,30.7498],[76.8381,30.7518],[76.8375,30.7541],[76.8264,30.7633],[76.8242,30.761],[76.8202,30.761],[76.8181,30.7574],[76.8178,30.7544],[76.8156,30.7527],[76.8054,30.765],[76.8074,30.7666],[76.8181,30.7713],[76.8196,30.7737],[76.8181,30.7754],[76.8186,30.7779],[76.8154,30.778],[76.8135,30.7802],[76.8105,30.7796],[76.8055,30.7767],[76.8021,30.7756],[76.7983,30.7711],[76.7958,30.771],[76.7917,30.7687],[76.7905,30.7707],[76.7835,30.7706],[76.7796,30.7777],[76.7873,30.7789],[76.7828,30.7892],[76.7756,30.7905],[76.7715,30.7952],[76.7678,30.7944],[76.7617,30.7915],[76.7573,30.7868],[76.7517,30.7842],[76.7523,30.7803],[76.7481,30.7783],[76.7445,30.7751],[76.7455,30.7723],[76.7438,30.7699],[76.7313,30.7649],[76.7287,30.7647],[76.7257,30.7664],[76.7211,30.7642],[76.7173,30.7635],[76.7108,30.761],[76.7056,30.7565],[76.7079,30.7497],[76.7059,30.7472],[76.7067,30.7451],[76.7052,30.7429],[76.7075,30.7395],[76.7128,30.7412],[76.7144,30.7401],[76.7178,30.7342],[76.7213,30.73],[76.7268,30.727],[76.7296,30.7235],[76.7312,30.7174],[76.7286,30.7158],[76.7314,30.7126],[76.7291,30.7118],[76.73,30.7068],[76.7391,30.7057],[76.7393,30.6929],[76.7432,30.6937],[76.7472,30.6955],[76.748,30.6884],[76.7503,30.6883],[76.7528,30.6845],[76.7593,30.6866],[76.7643,30.6864],[76.7673,30.6823],[76.7702,30.6798],[76.7743,30.6728],[76.7769,30.6703],[76.7819,30.6737],[76.7902,30.6756],[76.7943,30.6695],[76.7968,30.6675],[76.8005,30.6702],[76.8026,30.6665],[76.8088,30.6673],[76.8117,30.67],[76.8165,30.6714],[76.8169,30.673],[76.8209,30.6749],[76.821,30.6776],[76.8274,30.6821],[76.8291,30.6809]]]},"properties":{"id":"in:subdistrict:277","level":"subdistrict","name":"Chandigarh","code":277,"parent":"in:district:44","state":"in:state:4"}}]}