{"type":"FeatureCollection","features":[{"type":"Feature","geometry":{"type":"Polygon","coordinates":[[[77.2968,28.7045],[77.2982,28.6952],[77.2971,28.6923],[77.2992,28.6898],[77.3032,28.6903],[77.3044,28.6888],[77.3019,28.6841],[77.3018,28.6806],[77.3,28.6771],[77.3002,28.6679],[77.3041,28.6667],[77.3093,28.6666],[77.321,28.6642],[77.3237,28.669],[77.3233,28.6717],[77.3239,28.6772],[77.3301,28.6782],[77.3329,28.682],[77.3303,28.6904],[77.3254,28.6956],[77.3233,28.6986],[77.3258,28.7036],[77.3245,28.7071],[77.326,28.7099],[77.3307,28.7128],[77.3245,28.7133],[77.3221,28.7121],[77.3177,28.714],[77.3167,28.7129],[77.3048,28.7129],[77.2999,28.71],[77.2968,28.7045]]]},"properties":{"id":"in:subdistrict:438","level":"subdistrict","name":"Seema Puri","code":438,"parent":"in:district:671","state":"in:state:7"}},{"type":"Feature","geometry":{"type":"Polygon","coordinates":[[[77.216,28.7852],[77.2185,28.7824],[77.2189,28.7803],[77.2176,28.7753],[77.22,28.7703],[77.2179,28.767],[77.2189,28.7638],[77.222,28.7587],[77.2223,28.7469],[77.2268,28.745],[77.2286,28.7484],[77.2384,28.7456],[77.2418,28.7434],[77.2418,28.7393],[77.2402,28.7352],[77.2419,28.7338],[77.2412,28.73],[77.2383,28.729],[77.2371,28.725],[77.2385,28.7243],[77.2369,28.7145],[77.2378,28.7123],[77.2421,28.7142],[77.251,28.7131],[77.2512,28.7124],[77.2531,28.7138],[77.258,28.7134],[77.2613,28.7112],[77.2657,28.7193],[77.2733,28.7163],[77.2776,28.7154],[77.278,28.713],[77.2813,28.7111],[77.2874,28.7116],[77.2862,28.7145],[77.2891,28.7168],[77.2888,28.7196],[77.2908,28.7224],[77.2863,28.7246],[77.2857,28.7262],[77.2764,28.7354],[77.2719,28.7355],[77.2608,28.7342],[77.2556,28.7389],[77.2546,28.7436],[77.2562,28.7439],[77.2592,28.75],[77.2589,28.7527],[77.2561,28.7544],[77.2564,28.7562],[77.2503,28.7552],[77.2449,28.7567],[77.2356,28.7609],[77.2361,28.7636],[77.2359,28.7707],[77.2318,28.7708],[77.2314,28.7744],[77.2254,28.7769],[77.2219,28.7774],[77.2341,28.7837],[77.2285,28.7865],[77.216,28.7852]]]},"properties":{"id":"in:subdistrict:6083","level":"subdistrict","name":"Karawal Nagar","code":6083,"parent":"in:district:81","state":"in:state:7"}},{"type":"Feature","geometry":{"type":"Polygon","coordinates":[[[77.2078,28.7881],[77.1982,28.7839],[77.1989,28.7817],[77.1953,28.778],[77.1873,28.7718],[77.1852,28.7709],[77.1792,28.7703],[77.1724,28.7727],[77.1715,28.7672],[77.1743,28.7657],[77.1752,28.7629],[77.1746,28.7596],[77.1795,28.7575],[77.1815,28.7547],[77.1821,28.751],[77.1779,28.7491],[77.175,28.7447],[77.1767,28.7405],[77.1789,28.7385],[77.1845,28.7356],[77.1866,28.7329],[77.1902,28.7318],[77.1922,28.729],[77.2062,28.7271],[77.2154,28.7266],[77.2152,28.7223],[77.222,28.7162],[77.2182,28.707],[77.215,28.7024],[77.2124,28.7002],[77.207,28.6922],[77.2036,28.6891],[77.2038,28.6851],[77.2008,28.6859],[77.197,28.6847],[77.1915,28.6903],[77.1858,28.6928],[77.1836,28.6896],[77.1772,28.6841],[77.1733,28.6852],[77.1696,28.6891],[77.168,28.6839],[77.173,28.6793],[77.1753,28.6749],[77.1791,28.6742],[77.1769,28.6698],[77.1782,28.6676],[77.1753,28.6657],[77.1705,28.6603],[77.1679,28.6561],[77.1686,28.6534],[77.1766,28.653],[77.1812,28.6503],[77.1869,28.6488],[77.1895,28.6537],[77.1931,28.6576],[77.1934,28.661],[77.1963,28.6614],[77.2059,28.6652],[77.2103,28.666],[77.2173,28.6638],[77.2186,28.6669],[77.2239,28.6677],[77.2345,28.6708],[77.2329,28.6739],[77.2308,28.6813],[77.231,28.6875],[77.23,28.691],[77.23,28.7003],[77.2311,28.7047],[77.2318,28.7109],[77.2357,28.7128],[77.2369,28.7145],[77.2385,28.7243],[77.2371,28.725],[77.2383,28.729],[77.2412,28.73],[77.2419,28.7338],[77.2402,28.7352],[77.2418,28.7393],[77.2418,28.7434],[77.2384,28.7456],[77.2286,28.7484],[77.2268,28.745],[77.2223,28.7469],[77.222,28.7587],[77.2189,28.7638],[77.2179,28.767],[77.22,28.7703],[77.2176,28.7753],[77.2189,28.7803],[77.2185,28.7824],[77.216,28.7852],[77.2143,28.7852],[77.2078,28.7881]]]},"properties":{"id":"in:subdistrict:433","level":"subdistrict","name":"Civil Lines","code":433,"parent":"in:district:77","state":"in:state:7"}},{"type":"Feature","geometry":{"type":"Polygon","coordinates":[[[77.2971,28.6923],[77.2921,28.693],[77.2865,28.6958],[77.2846,28.6935],[77.2816,28.6963],[77.2783,28.6978],[77.272,28.697],[77.271,28.69],[77.2706,28.6831],[77.2694,28.6805],[77.2699,28.6732],[77.2738,28.6725],[77.2762,28.6768],[77.2794,28.6795],[77.2798,28.6818],[77.2842,28.6814],[77.2893,28.6791],[77.2935,28.6784],[77.2977,28.6849],[77.2992,28.6898],[77.2971,28.6923]]]},"properties":{"id":"in:subdistrict:437","level":"subdistrict","name":"Shahdara","code":437,"parent":"in:district:671","state":"in:state:7"}},{"type":"Feature","geometry":{"type":"Polygon","coordinates":[[[77.2512,28.7124],[77.2527,28.7104],[77.2509,28.7059],[77.2465,28.7072],[77.242,28.6908],[77.2468,28.6879],[77.2495,28.6877],[77.2489,28.6847],[77.2549,28.6846],[77.2577,28.6836],[77.2544,28.6708],[77.2587,28.6701],[77.266,28.6711],[77.2699,28.6732],[77.2694,28.6805],[77.2706,28.6831],[77.271,28.69],[77.272,28.697],[77.2705,28.6983],[77.2712,28.7012],[77.2652,28.703],[77.2683,28.7057],[77.2662,28.7072],[77.2647,28.7107],[77.2613,28.7112],[77.258,28.7134],[77.2531,28.7138],[77.2512,28.7124]]]},"properties":{"id":"in:subdistrict:436","level":"subdistrict","name":"Seelam Pur","code":436,"parent":"in:district:81","state":"in:state:7"}},{"type":"Feature","geometry":{"type":"Polygon","coordinates":[[[77.2874,28.7116],[77.2813,28.7111],[77.278,28.713],[77.2776,28.7154],[77.2733,28.7163],[77.2657,28.7193],[77.2613,28.7112],[77.2647,28.7107],[77.2662,28.7072],[77.2683,28.7057],[77.2652,28.703],[77.2712,28.7012],[77.2705,28.6983],[77.272,28.697],[77.2783,28.6978],[77.2816,28.6963],[77.2846,28.6935],[77.2865,28.6958],[77.2921,28.693],[77.2971,28.6923],[77.2982,28.6952],[77.2968,28.7045],[77.2915,28.7062],[77.2889,28.7081],[77.2874,28.7116]]]},"properties":{"id":"in:subdistrict:6082","level":"subdistrict","name":"Yamuna Vihar","code":6082,"parent":"in:district:81","state":"in:state:7"}},{"type":"Feature","geometry":{"type":"Polygon","coordinates":[[[77.321,28.6642],[77.3093,28.6666],[77.3041,28.6667],[77.3002,28.6679],[77.3,28.6771],[77.3018,28.6806],[77.3019,28.6841],[77.3044,28.6888],[77.3032,28.6903],[77.2992,28.6898],[77.2977,28.6849],[77.2935,28.6784],[77.2893,28.6791],[77.2842,28.6814],[77.2798,28.6818],[77.2794,28.6795],[77.2762,28.6768],[77.2738,28.6725],[77.2699,28.6732],[77.266,28.6711],[77.2587,28.6701],[77.2544,28.6708],[77.2512,28.6694],[77.2499,28.666],[77.2518,28.6625],[77.2595,28.6593],[77.2612,28.6563],[77.269,28.6609],[77.272,28.6615],[77.2739,28.6557],[77.2745,28.6516],[77.2808,28.6554],[77.2892,28.6579],[77.2934,28.6538],[77.2972,28.6481],[77.3027,28.6435],[77.3077,28.6426],[77.3153,28.64],[77.3163,28.6412],[77.3199,28.6511],[77.32,28.6554],[77.321,28.6642]]]},"properties":{"id":"in:subdistrict:440","level":"subdistrict","name":"Vivek Vihar","code":440,"parent":"in:district:671","state":"in:state:7"}},{"type":"Feature","geometry":{"type":"Polygon","coordinates":[[[77.3032,28.5838],[77.2959,28.5939],[77.2904,28.6022],[77.2883,28.6074],[77.2809,28.6182],[77.2792,28.6197],[77.271,28.6313],[77.2699,28.633],[77.2696,28.6386],[77.2712,28.6396],[77.2721,28.651],[77.2745,28.6516],[77.2739,28.6557],[77.272,28.6615],[77.269,28.6609],[77.2612,28.6563],[77.2595,28.6593],[77.2518,28.6625],[77.2499,28.666],[77.2512,28.6694],[77.2544,28.6708],[77.2577,28.6836],[77.2549,28.6846],[77.2489,28.6847],[77.2495,28.6877],[77.2468,28.6879],[77.242,28.6908],[77.2465,28.7072],[77.2509,28.7059],[77.2527,28.7104],[77.2512,28.7124],[77.251,28.7131],[77.2421,28.7142],[77.2378,28.7123],[77.2369,28.7145],[77.2357,28.7128],[77.2318,28.7109],[77.2311,28.7047],[77.23,28.7003],[77.23,28.691],[77.231,28.6875],[77.2308,28.6813],[77.2329,28.6739],[77.2345,28.6708],[77.2369,28.6669],[77.2431,28.6628],[77.2516,28.6605],[77.2547,28.659],[77.2611,28.6536],[77.2629,28.6544],[77.2659,28.6492],[77.2664,28.6443],[77.2643,28.6428],[77.263,28.6367],[77.261,28.6331],[77.2585,28.6304],[77.2592,28.6278],[77.2572,28.6227],[77.2594,28.6144],[77.2557,28.6136],[77.2561,28.6087],[77.2652,28.5917],[77.2671,28.592],[77.2654,28.5958],[77.2739,28.602],[77.2796,28.5981],[77.2808,28.5897],[77.2784,28.588],[77.2781,28.5851],[77.2849,28.5868],[77.2878,28.5855],[77.2918,28.5803],[77.2921,28.5774],[77.2969,28.5734],[77.2985,28.5712],[77.3,28.5751],[77.2997,28.5786],[77.2984,28.5802],[77.3032,28.5838]]]},"properties":{"id":"in:subdistrict:x77-nazul","level":"subdistrict","name":"Nazul","code":0,"parent":"in:district:77","state":"in:state:7"}},{"type":"Feature","geometry":{"type":"Polygon","coordinates":[[[77.2809,28.6182],[77.2864,28.6211],[77.2839,28.63],[77.2813,28.6341],[77.2729,28.6309],[77.271,28.6313],[77.2792,28.6197],[77.2809,28.6182]]]},"properties":{"id":"in:subdistrict:439","level":"subdistrict","name":"Gandhi Nagar","code":439,"parent":"in:district:78","state":"in:state:7"}},{"type":"Feature","geometry":{"type":"Polygon","coordinates":[[[77.3163,28.6412],[77.3153,28.64],[77.3077,28.6426],[77.3027,28.6435],[77.2972,28.6481],[77.2934,28.6538],[77.2892,28.6579],[77.2808,28.6554],[77.2745,28.6516],[77.2721,28.651],[77.2712,28.6396],[77.2696,28.6386],[77.2699,28.633],[77.271,28.6313],[77.2729,28.6309],[77.2813,28.6341],[77.2839,28.63],[77.2864,28.6211],[77.2884,28.6185],[77.2906,28.6195],[77.2962,28.6174],[77.3031,28.6251],[77.3113,28.624],[77.3154,28.6258],[77.3201,28.6253],[77.3217,28.6243],[77.3321,28.6303],[77.3296,28.632],[77.3237,28.6343],[77.3163,28.6412]]]},"properties":{"id":"in:subdistrict:441","level":"subdistrict","name":"Preet Vihar","code":441,"parent":"in:district:78","state":"in:state:7"}},{"type":"Feature","geometry":{"type":"Polygon","coordinates":[[[77.3422,28.6096],[77.3415,28.617],[77.3426,28.622],[77.335,28.6274],[77.3321,28.6303],[77.3217,28.6243],[77.3201,28.6253],[77.3154,28.6258],[77.3113,28.624],[77.3031,28.6251],[77.2962,28.6174],[77.2906,28.6195],[77.2884,28.6185],[77.2864,28.6211],[77.2809,28.6182],[77.2883,28.6074],[77.2904,28.6022],[77.2959,28.5939],[77.3032,28.5838],[77.3102,28.5905],[77.3134,28.5966],[77.3198,28.5978],[77.3252,28.5981],[77.3284,28.6002],[77.3346,28.6018],[77.3368,28.6018],[77.3417,28.6061],[77.3422,28.6096]]]},"properties":{"id":"in:subdistrict:6084","level":"subdistrict","name":"Mayur Vihar","code":6084,"parent":"in:district:78","state":"in:state:7"}},{"type":"Feature","geometry":{"type":"MultiPolygon","coordinates":[[[[77.2936,28.5197],[77.2993,28.5236],[77.3016,28.5268],[77.3003,28.5294],[77.296,28.5309],[77.2916,28.5359],[77.286,28.5361],[77.2804,28.5331],[77.2767,28.5328],[77.2774,28.5311],[77.2807,28.5281],[77.2861,28.5249],[77.2922,28.5221],[77.2936,28.5197]]],[[[77.2985,28.5712],[77.2969,28.5734],[77.2921,28.5774],[77.2918,28.5803],[77.2878,28.5855],[77.2849,28.5868],[77.2781,28.5851],[77.2784,28.588],[77.2808,28.5897],[77.2796,28.5981],[77.2739,28.602],[77.2654,28.5958],[77.2671,28.592],[77.2652,28.5917],[77.2561,28.6087],[77.2504,28.6077],[77.2455,28.6055],[77.2426,28.6082],[77.2331,28.6025],[77.2334,28.5952],[77.2355,28.5921],[77.2141,28.5894],[77.2122,28.5881],[77.2043,28.5876],[77.2005,28.5915],[77.2002,28.5874],[77.2021,28.5808],[77.2102,28.5802],[77.2087,28.5763],[77.206,28.5657],[77.2059,28.5621],[77.2091,28.559],[77.2116,28.563],[77.2163,28.5659],[77.2177,28.5632],[77.2229,28.5613],[77.2242,28.5561],[77.2263,28.5603],[77.2311,28.5591],[77.2374,28.5577],[77.2467,28.5589],[77.2459,28.5563],[77.2468,28.5535],[77.2489,28.5521],[77.2553,28.5597],[77.2623,28.5633],[77.2665,28.5663],[77.2701,28.5641],[77.2742,28.5606],[77.2788,28.5548],[77.2801,28.5555],[77.2857,28.5553],[77.2888,28.5534],[77.2958,28.553],[77.303,28.5542],[77.3,28.5598],[77.3012,28.5627],[77.2971,28.566],[77.2985,28.5712]]]]},"properties":{"id":"in:subdistrict:455","level":"subdistrict","name":"Defence Colony","code":455,"parent":"in:district:670","state":"in:state:7"}},{"type":"Feature","geometry":{"type":"Polygon","coordinates":[[[77.2557,28.6136],[77.2526,28.6129],[77.2492,28.6142],[77.2468,28.6215],[77.2438,28.625],[77.2342,28.6304],[77.2302,28.6323],[77.2246,28.635],[77.2215,28.6357],[77.2182,28.6344],[77.2046,28.6424],[77.1984,28.6455],[77.1949,28.6386],[77.1905,28.6337],[77.1886,28.6296],[77.1863,28.627],[77.1817,28.6237],[77.1777,28.6194],[77.1759,28.6147],[77.1757,28.6114],[77.1707,28.6046],[77.1723,28.6013],[77.1684,28.5954],[77.1746,28.5875],[77.1779,28.5856],[77.1842,28.5833],[77.1892,28.5818],[77.2021,28.5808],[77.2002,28.5874],[77.2005,28.5915],[77.2043,28.5876],[77.2122,28.5881],[77.2141,28.5894],[77.2355,28.5921],[77.2334,28.5952],[77.2331,28.6025],[77.2426,28.6082],[77.2455,28.6055],[77.2504,28.6077],[77.2561,28.6087],[77.2557,28.6136]]]},"properties":{"id":"in:subdistrict:443","level":"subdistrict","name":"Chanakya Puri","code":443,"parent":"in:district:79","state":"in:state:7"}},{"type":"Feature","geometry":{"type":"Polygon","coordinates":[[[77.1812,28.6503],[77.1762,28.6427],[77.1752,28.6333],[77.1767,28.6301],[77.1775,28.6274],[77.1817,28.6237],[77.1863,28.627],[77.1886,28.6296],[77.1905,28.6337],[77.1949,28.6386],[77.1984,28.6455],[77.2046,28.6424],[77.2182,28.6344],[77.2215,28.6357],[77.2246,28.635],[77.2302,28.6323],[77.2321,28.635],[77.2323,28.6405],[77.2315,28.6454],[77.2349,28.6535],[77.2314,28.6559],[77.2289,28.6519],[77.2256,28.6533],[77.2215,28.6502],[77.2209,28.6452],[77.2197,28.6419],[77.215,28.6434],[77.2124,28.6453],[77.2138,28.648],[77.2083,28.6518],[77.2072,28.65],[77.2015,28.6518],[77.2031,28.6549],[77.1968,28.6541],[77.1931,28.6576],[77.1895,28.6537],[77.1869,28.6488],[77.1812,28.6503]]]},"properties":{"id":"in:subdistrict:447","level":"subdistrict","name":"Karol Bagh","code":447,"parent":"in:district:77","state":"in:state:7"}},{"type":"Feature","geometry":{"type":"Polygon","coordinates":[[[77.1931,28.6576],[77.1968,28.6541],[77.2031,28.6549],[77.2015,28.6518],[77.2072,28.65],[77.2083,28.6518],[77.2138,28.648],[77.2124,28.6453],[77.215,28.6434],[77.2197,28.6419],[77.2209,28.6452],[77.2215,28.6502],[77.2256,28.6533],[77.2289,28.6519],[77.2314,28.6559],[77.2349,28.6535],[77.2315,28.6454],[77.2323,28.6405],[77.2321,28.635],[77.2302,28.6323],[77.2342,28.6304],[77.2438,28.625],[77.2468,28.6215],[77.2492,28.6142],[77.2526,28.6129],[77.2557,28.6136],[77.2594,28.6144],[77.2572,28.6227],[77.2592,28.6278],[77.2585,28.6304],[77.261,28.6331],[77.263,28.6367],[77.2643,28.6428],[77.2664,28.6443],[77.2659,28.6492],[77.2629,28.6544],[77.2611,28.6536],[77.2547,28.659],[77.2516,28.6605],[77.2431,28.6628],[77.2369,28.6669],[77.2345,28.6708],[77.2239,28.6677],[77.2186,28.6669],[77.2173,28.6638],[77.2103,28.666],[77.2059,28.6652],[77.1963,28.6614],[77.1934,28.661],[77.1931,28.6576]]]},"properties":{"id":"in:subdistrict:435","level":"subdistrict","name":"Kotwali","code":435,"parent":"in:district:77","state":"in:state:7"}},{"type":"Feature","geometry":{"type":"Polygon","coordinates":[[[77.1817,28.6237],[77.1775,28.6274],[77.1767,28.6301],[77.1727,28.63],[77.1655,28.628],[77.1617,28.633],[77.1532,28.6395],[77.1497,28.6373],[77.1471,28.6402],[77.1456,28.6382],[77.1386,28.6406],[77.1339,28.641],[77.1296,28.6394],[77.1253,28.6389],[77.122,28.6317],[77.122,28.6277],[77.118,28.6269],[77.1153,28.6182],[77.1104,28.6155],[77.1039,28.6128],[77.1028,28.6063],[77.0988,28.601],[77.0997,28.5988],[77.1032,28.5974],[77.1055,28.5952],[77.1043,28.5915],[77.1062,28.5893],[77.1045,28.5872],[77.1007,28.5888],[77.0993,28.5909],[77.096,28.5911],[77.0961,28.588],[77.0941,28.5861],[77.0811,28.5712],[77.0751,28.5737],[77.0695,28.5749],[77.0678,28.5738],[77.0656,28.5698],[77.0588,28.5715],[77.0574,28.5699],[77.0506,28.5589],[77.0612,28.5526],[77.0705,28.5482],[77.0716,28.5502],[77.0744,28.5504],[77.0773,28.5526],[77.0815,28.5529],[77.0831,28.5543],[77.0848,28.5584],[77.0828,28.5596],[77.0862,28.5621],[77.0891,28.5614],[77.0912,28.5624],[77.0942,28.5611],[77.0997,28.557],[77.1102,28.5529],[77.115,28.5578],[77.1179,28.5567],[77.1273,28.5561],[77.1332,28.5549],[77.1355,28.5553],[77.142,28.5534],[77.1468,28.5642],[77.1508,28.5639],[77.1586,28.5591],[77.163,28.5572],[77.1647,28.5601],[77.1628,28.5634],[77.1595,28.5654],[77.1636,28.5724],[77.1554,28.5742],[77.1488,28.5769],[77.1428,28.5757],[77.1381,28.5778],[77.1366,28.5823],[77.1379,28.5849],[77.1436,28.5861],[77.1495,28.584],[77.1603,28.588],[77.1621,28.5897],[77.1681,28.5856],[77.1792,28.5811],[77.1815,28.5809],[77.1842,28.5833],[77.1779,28.5856],[77.1746,28.5875],[77.1684,28.5954],[77.1723,28.6013],[77.1707,28.6046],[77.1757,28.6114],[77.1759,28.6147],[77.1777,28.6194],[77.1817,28.6237]]]},"properties":{"id":"in:subdistrict:452","level":"subdistrict","name":"Delhi Cantonment","code":452,"parent":"in:district:79","state":"in:state:7"}},{"type":"Feature","geometry":{"type":"Polygon","coordinates":[[[77.1253,28.6389],[77.1182,28.6459],[77.1171,28.6486],[77.1137,28.6502],[77.1122,28.6521],[77.1086,28.6495],[77.1044,28.643],[77.1002,28.6408],[77.0979,28.6405],[77.0884,28.6466],[77.0834,28.6409],[77.0896,28.6373],[77.092,28.6351],[77.0895,28.629],[77.0849,28.6303],[77.084,28.6283],[77.087,28.6262],[77.0877,28.6217],[77.0895,28.6181],[77.0956,28.6165],[77.1039,28.6128],[77.1104,28.6155],[77.1153,28.6182],[77.118,28.6269],[77.122,28.6277],[77.122,28.6317],[77.1253,28.6389]]]},"properties":{"id":"in:subdistrict:449","level":"subdistrict","name":"Rajouri Garden","code":449,"parent":"in:district:85","state":"in:state:7"}},{"type":"Feature","geometry":{"type":"Polygon","coordinates":[[[77.1679,28.6561],[77.1622,28.6581],[77.1589,28.6581],[77.1639,28.6623],[77.1599,28.6706],[77.158,28.6718],[77.1573,28.6754],[77.1524,28.6726],[77.1494,28.6729],[77.1485,28.6692],[77.1394,28.6712],[77.1373,28.6697],[77.1242,28.667],[77.1215,28.6649],[77.1176,28.6603],[77.114,28.6589],[77.1122,28.6608],[77.1024,28.661],[77.0974,28.6587],[77.0939,28.6553],[77.0908,28.6545],[77.0845,28.6563],[77.079,28.6545],[77.0604,28.6387],[77.0576,28.6405],[77.0574,28.6458],[77.0552,28.6484],[77.0522,28.6502],[77.0478,28.6507],[77.0408,28.6503],[77.0359,28.6482],[77.0267,28.6409],[77.025,28.6379],[77.0254,28.6331],[77.022,28.6265],[77.0225,28.621],[77.0305,28.619],[77.0341,28.6166],[77.0326,28.6138],[77.0355,28.6057],[77.0372,28.6039],[77.0448,28.6011],[77.0554,28.5962],[77.0619,28.5996],[77.0568,28.6034],[77.0523,28.6074],[77.0549,28.6117],[77.0518,28.6164],[77.0531,28.6183],[77.0567,28.6176],[77.0612,28.6178],[77.0641,28.6212],[77.0689,28.6188],[77.0791,28.6123],[77.0835,28.6142],[77.0895,28.6181],[77.0877,28.6217],[77.087,28.6262],[77.084,28.6283],[77.0849,28.6303],[77.0895,28.629],[77.092,28.6351],[77.0896,28.6373],[77.0834,28.6409],[77.0884,28.6466],[77.0979,28.6405],[77.1002,28.6408],[77.1044,28.643],[77.1086,28.6495],[77.1122,28.6521],[77.1137,28.6502],[77.1171,28.6486],[77.1182,28.6459],[77.1253,28.6389],[77.1296,28.6394],[77.1339,28.641],[77.1386,28.6406],[77.1456,28.6382],[77.1471,28.6402],[77.1497,28.6373],[77.1532,28.6395],[77.1617,28.633],[77.1655,28.628],[77.1727,28.63],[77.1767,28.6301],[77.1752,28.6333],[77.1762,28.6427],[77.1812,28.6503],[77.1766,28.653],[77.1686,28.6534],[77.1679,28.6561]]]},"properties":{"id":"in:subdistrict:448","level":"subdistrict","name":"Patel Nagar","code":448,"parent":"in:district:85","state":"in:state:7"}},{"type":"Feature","geometry":{"type":"Polygon","coordinates":[[[77.1858,28.6928],[77.1822,28.6965],[77.1796,28.6976],[77.1762,28.7017],[77.1716,28.6985],[77.1682,28.699],[77.1637,28.7022],[77.1589,28.7043],[77.1617,28.7071],[77.1613,28.7097],[77.1641,28.7126],[77.1641,28.7144],[77.1601,28.7188],[77.1642,28.727],[77.1629,28.7277],[77.1606,28.7323],[77.1516,28.7267],[77.1453,28.7291],[77.1419,28.7259],[77.1391,28.7208],[77.1325,28.7158],[77.1304,28.7123],[77.1318,28.7105],[77.1257,28.706],[77.1215,28.7073],[77.1216,28.7121],[77.1194,28.7135],[77.1172,28.7128],[77.1148,28.7091],[77.1126,28.7102],[77.1101,28.709],[77.1058,28.7038],[77.1023,28.7055],[77.1019,28.7016],[77.0962,28.6943],[77.0988,28.6913],[77.0979,28.6893],[77.1037,28.6847],[77.1077,28.6885],[77.1148,28.6831],[77.1184,28.6872],[77.1193,28.6897],[77.123,28.6874],[77.1208,28.6837],[77.1273,28.6793],[77.1327,28.6771],[77.1394,28.6712],[77.1485,28.6692],[77.1494,28.6729],[77.1524,28.6726],[77.1573,28.6754],[77.158,28.6718],[77.1599,28.6706],[77.1639,28.6623],[77.1589,28.6581],[77.1622,28.6581],[77.1679,28.6561],[77.1705,28.6603],[77.1753,28.6657],[77.1782,28.6676],[77.1769,28.6698],[77.1791,28.6742],[77.1753,28.6749],[77.173,28.6793],[77.168,28.6839],[77.1696,28.6891],[77.1733,28.6852],[77.1772,28.6841],[77.1836,28.6896],[77.1858,28.6928]]]},"properties":{"id":"in:subdistrict:431","level":"subdistrict","name":"Saraswati Vihar","code":431,"parent":"in:district:82","state":"in:state:7"}},{"type":"Feature","geometry":{"type":"Polygon","coordinates":[[[77.1746,28.7596],[77.1703,28.7588],[77.1705,28.7564],[77.1626,28.7558],[77.1588,28.7548],[77.1598,28.7517],[77.1581,28.7488],[77.1577,28.7432],[77.1593,28.7413],[77.1588,28.7365],[77.1606,28.7323],[77.1629,28.7277],[77.1642,28.727],[77.1601,28.7188],[77.1641,28.7144],[77.1641,28.7126],[77.1613,28.7097],[77.1617,28.7071],[77.1589,28.7043],[77.1637,28.7022],[77.1682,28.699],[77.1716,28.6985],[77.1762,28.7017],[77.1796,28.6976],[77.1822,28.6965],[77.1858,28.6928],[77.1915,28.6903],[77.197,28.6847],[77.2008,28.6859],[77.2038,28.6851],[77.2036,28.6891],[77.207,28.6922],[77.2124,28.7002],[77.215,28.7024],[77.2182,28.707],[77.222,28.7162],[77.2152,28.7223],[77.2154,28.7266],[77.2062,28.7271],[77.1922,28.729],[77.1902,28.7318],[77.1866,28.7329],[77.1845,28.7356],[77.1789,28.7385],[77.1767,28.7405],[77.175,28.7447],[77.1779,28.7491],[77.1821,28.751],[77.1815,28.7547],[77.1795,28.7575],[77.1746,28.7596]]]},"properties":{"id":"in:subdistrict:432","level":"subdistrict","name":"Model Town","code":432,"parent":"in:district:80","state":"in:state:7"}},{"type":"Feature","geometry":{"type":"Polygon","coordinates":[[[77.223,28.8334],[77.222,28.8339],[77.2166,28.8415],[77.2173,28.8513],[77.2142,28.8558],[77.2099,28.8577],[77.1971,28.8592],[77.1926,28.8584],[77.1814,28.8575],[77.1754,28.8583],[77.1731,28.8572],[77.1721,28.8499],[77.1692,28.8503],[77.1653,28.8484],[77.1597,28.8413],[77.1542,28.8374],[77.1455,28.838],[77.1424,28.8389],[77.1417,28.8447],[77.1422,28.8479],[77.1452,28.8522],[77.1452,28.8539],[77.1419,28.8568],[77.1425,28.8597],[77.1405,28.8619],[77.132,28.8629],[77.1255,28.8599],[77.1241,28.8576],[77.1234,28.8508],[77.1209,28.844],[77.1178,28.8416],[77.1224,28.8376],[77.1312,28.8343],[77.1267,28.8289],[77.1233,28.8261],[77.1179,28.8261],[77.1158,28.8227],[77.1188,28.8201],[77.1193,28.8169],[77.1179,28.8144],[77.1106,28.8149],[77.1123,28.8091],[77.1153,28.8035],[77.1181,28.8041],[77.1199,28.8016],[77.1172,28.7963],[77.1125,28.7946],[77.1197,28.7907],[77.1208,28.7883],[77.1206,28.7839],[77.1174,28.7816],[77.1139,28.7813],[77.1107,28.7782],[77.1077,28.774],[77.1073,28.7718],[77.1016,28.7667],[77.0988,28.762],[77.0938,28.7568],[77.0898,28.7476],[77.0835,28.7391],[77.087,28.7353],[77.0895,28.7377],[77.0944,28.7368],[77.096,28.7394],[77.1019,28.7372],[77.1068,28.7372],[77.1121,28.7307],[77.1159,28.7235],[77.1184,28.7208],[77.1204,28.715],[77.1194,28.7135],[77.1216,28.7121],[77.1215,28.7073],[77.1257,28.706],[77.1318,28.7105],[77.1304,28.7123],[77.1325,28.7158],[77.1391,28.7208],[77.1419,28.7259],[77.1453,28.7291],[77.1516,28.7267],[77.1606,28.7323],[77.1588,28.7365],[77.1593,28.7413],[77.1577,28.7432],[77.1581,28.7488],[77.1598,28.7517],[77.1588,28.7548],[77.1626,28.7558],[77.1705,28.7564],[77.1703,28.7588],[77.1746,28.7596],[77.1752,28.7629],[77.1743,28.7657],[77.1715,28.7672],[77.1724,28.7727],[77.1792,28.7703],[77.1852,28.7709],[77.1873,28.7718],[77.1953,28.778],[77.1989,28.7817],[77.1982,28.7839],[77.2078,28.7881],[77.2042,28.7906],[77.1993,28.7977],[77.2003,28.8094],[77.2013,28.8129],[77.2056,28.8112],[77.2156,28.8086],[77.219,28.8082],[77.2203,28.8191],[77.2219,28.8205],[77.2243,28.8261],[77.2226,28.8301],[77.223,28.8334]]]},"properties":{"id":"in:subdistrict:6076","level":"subdistrict","name":"Alipur","code":6076,"parent":"in:district:80","state":"in:state:7"}},{"type":"Feature","geometry":{"type":"Polygon","coordinates":[[[76.9618,28.8149],[76.951,28.8182],[76.9484,28.8154],[76.9458,28.8107],[76.9464,28.8075],[76.9449,28.8036],[76.9419,28.7987],[76.946,28.798],[76.9539,28.7907],[76.9521,28.7882],[76.9501,28.7833],[76.9498,28.7771],[76.9556,28.7678],[76.9506,28.7635],[76.946,28.7581],[76.9445,28.7541],[76.9506,28.7501],[76.9583,28.7432],[76.9559,28.7382],[76.9601,28.7327],[76.9594,28.7293],[76.956,28.724],[76.952,28.7194],[76.9483,28.7136],[76.9489,28.7122],[76.9677,28.6995],[76.9745,28.7013],[76.976,28.6983],[76.983,28.6905],[76.9934,28.6831],[76.9996,28.6797],[77.0022,28.6797],[77.0094,28.6883],[77.0127,28.6953],[77.0009,28.7062],[77.0025,28.7126],[77.0058,28.7117],[77.0083,28.7138],[77.01,28.7185],[77.0194,28.7257],[77.0303,28.7208],[77.0387,28.7199],[77.0451,28.7183],[77.0487,28.7154],[77.052,28.7165],[77.055,28.7193],[77.0584,28.725],[77.0586,28.7293],[77.0599,28.7332],[77.0626,28.7353],[77.0642,28.7379],[77.0596,28.7416],[77.0553,28.743],[77.0504,28.7431],[77.0475,28.7448],[77.0396,28.7481],[77.0348,28.7496],[77.0291,28.7501],[77.021,28.7522],[77.0153,28.755],[77.0143,28.7604],[77.0119,28.7628],[77.0132,28.7698],[77.0127,28.7758],[77.0134,28.7788],[77.0008,28.7838],[76.9917,28.785],[76.9825,28.7929],[76.9785,28.7924],[76.9678,28.7981],[76.967,28.8032],[76.9691,28.8072],[76.9668,28.8094],[76.9677,28.8113],[76.9661,28.8132],[76.9618,28.8149]]]},"properties":{"id":"in:subdistrict:6078","level":"subdistrict","name":"Kanjhawala","code":6078,"parent":"in:district:82","state":"in:state:7"}},{"type":"Feature","geometry":{"type":"Polygon","coordinates":[[[77.1194,28.7135],[77.1204,28.715],[77.1184,28.7208],[77.1159,28.7235],[77.1121,28.7307],[77.1068,28.7372],[77.1019,28.7372],[77.096,28.7394],[77.0944,28.7368],[77.0895,28.7377],[77.087,28.7353],[77.0819,28.7281],[77.0754,28.7315],[77.066,28.7381],[77.0642,28.7379],[77.0626,28.7353],[77.0599,28.7332],[77.0586,28.7293],[77.0584,28.725],[77.055,28.7193],[77.052,28.7165],[77.0487,28.7154],[77.0451,28.7183],[77.0387,28.7199],[77.0303,28.7208],[77.0194,28.7257],[77.01,28.7185],[77.0083,28.7138],[77.0058,28.7117],[77.0025,28.7126],[77.0009,28.7062],[77.0127,28.6953],[77.0185,28.6952],[77.0281,28.6961],[77.0374,28.6985],[77.041,28.6975],[77.0451,28.695],[77.0489,28.6882],[77.0531,28.6839],[77.0561,28.6868],[77.0645,28.692],[77.0734,28.686],[77.0753,28.6834],[77.0776,28.6832],[77.0823,28.6865],[77.0837,28.6884],[77.0879,28.6888],[77.0917,28.6868],[77.095,28.689],[77.0979,28.6893],[77.0988,28.6913],[77.0962,28.6943],[77.1019,28.7016],[77.1023,28.7055],[77.1058,28.7038],[77.1101,28.709],[77.1126,28.7102],[77.1148,28.7091],[77.1172,28.7128],[77.1194,28.7135]]]},"properties":{"id":"in:subdistrict:6077","level":"subdistrict","name":"Rohini","code":6077,"parent":"in:district:82","state":"in:state:7"}},{"type":"Feature","geometry":{"type":"Polygon","coordinates":[[[77.1394,28.6712],[77.1327,28.6771],[77.1273,28.6793],[77.1208,28.6837],[77.123,28.6874],[77.1193,28.6897],[77.1184,28.6872],[77.1148,28.6831],[77.1077,28.6885],[77.1037,28.6847],[77.0979,28.6893],[77.095,28.689],[77.0917,28.6868],[77.0879,28.6888],[77.0837,28.6884],[77.0823,28.6865],[77.0776,28.6832],[77.0753,28.6834],[77.0734,28.686],[77.0645,28.692],[77.0561,28.6868],[77.0531,28.6839],[77.0489,28.6882],[77.0451,28.695],[77.041,28.6975],[77.0374,28.6985],[77.0281,28.6961],[77.0185,28.6952],[77.0127,28.6953],[77.0094,28.6883],[77.0022,28.6797],[76.9996,28.6797],[76.9934,28.6831],[76.983,28.6905],[76.976,28.6983],[76.9745,28.7013],[76.9677,28.6995],[76.9634,28.694],[76.9633,28.6924],[76.9585,28.6857],[76.9561,28.677],[76.9559,28.6724],[76.9538,28.6677],[76.9632,28.6611],[76.9705,28.6583],[76.9781,28.6567],[76.9797,28.6543],[76.9887,28.6608],[76.9931,28.6583],[76.9927,28.6563],[76.996,28.6539],[77.0021,28.6513],[76.9997,28.6496],[77,28.6456],[77.0049,28.6315],[77.0069,28.628],[77.0046,28.6252],[77.0078,28.6241],[77.0093,28.6251],[77.0142,28.6254],[77.0159,28.6272],[77.022,28.6265],[77.0254,28.6331],[77.025,28.6379],[77.0267,28.6409],[77.0359,28.6482],[77.0408,28.6503],[77.0478,28.6507],[77.0522,28.6502],[77.0552,28.6484],[77.0574,28.6458],[77.0576,28.6405],[77.0604,28.6387],[77.079,28.6545],[77.0845,28.6563],[77.0908,28.6545],[77.0939,28.6553],[77.0974,28.6587],[77.1024,28.661],[77.1122,28.6608],[77.114,28.6589],[77.1176,28.6603],[77.1215,28.6649],[77.1242,28.667],[77.1373,28.6697],[77.1394,28.6712]]]},"properties":{"id":"in:subdistrict:450","level":"subdistrict","name":"Punjabi Bagh","code":450,"parent":"in:district:85","state":"in:state:7"}},{"type":"Feature","geometry":{"type":"Polygon","coordinates":[[[77.1039,28.6128],[77.0956,28.6165],[77.0895,28.6181],[77.0835,28.6142],[77.0791,28.6123],[77.0689,28.6188],[77.0641,28.6212],[77.0612,28.6178],[77.0567,28.6176],[77.0531,28.6183],[77.0518,28.6164],[77.0549,28.6117],[77.0523,28.6074],[77.0568,28.6034],[77.0619,28.5996],[77.0554,28.5962],[77.0448,28.6011],[77.0372,28.6039],[77.0355,28.6057],[77.0326,28.6138],[77.0341,28.6166],[77.0305,28.619],[77.0225,28.621],[77.022,28.6265],[77.0159,28.6272],[77.0142,28.6254],[77.0093,28.6251],[77.0078,28.6241],[77.0046,28.6252],[77.0016,28.6294],[76.998,28.628],[76.9916,28.6214],[76.9941,28.6197],[76.9999,28.6179],[77.0066,28.6167],[77.0178,28.6136],[77.013,28.6092],[77.0112,28.6061],[77.0122,28.6036],[77.0161,28.5998],[77.0146,28.596],[77.0119,28.5941],[77.011,28.5903],[77.0164,28.5922],[77.019,28.5915],[77.0181,28.586],[77.0221,28.5838],[77.0219,28.5819],[77.0316,28.5792],[77.0311,28.5773],[77.033,28.5735],[77.0306,28.5714],[77.0247,28.5686],[77.0202,28.5645],[77.0205,28.5586],[77.0193,28.5555],[77.0159,28.5532],[77.014,28.5504],[77.0198,28.5481],[77.0322,28.5499],[77.0339,28.5493],[77.0382,28.5556],[77.0411,28.5539],[77.0431,28.556],[77.0453,28.5548],[77.0477,28.5587],[77.0506,28.5589],[77.0574,28.5699],[77.0588,28.5715],[77.0656,28.5698],[77.0678,28.5738],[77.0695,28.5749],[77.0751,28.5737],[77.0811,28.5712],[77.0941,28.5861],[77.0961,28.588],[77.096,28.5911],[77.0993,28.5909],[77.1007,28.5888],[77.1045,28.5872],[77.1062,28.5893],[77.1043,28.5915],[77.1055,28.5952],[77.1032,28.5974],[77.0997,28.5988],[77.0988,28.601],[77.1028,28.6063],[77.1039,28.6128]]]},"properties":{"id":"in:subdistrict:6086","level":"subdistrict","name":"Dwarka","code":6086,"parent":"in:district:84","state":"in:state:7"}},{"type":"Feature","geometry":{"type":"Polygon","coordinates":[[[76.9538,28.6677],[76.9524,28.6696],[76.9489,28.6702],[76.9434,28.6684],[76.9353,28.6679],[76.9335,28.6654],[76.9308,28.6585],[76.925,28.6501],[76.9283,28.647],[76.931,28.6432],[76.9365,28.6378],[76.9402,28.6349],[76.9445,28.6333],[76.943,28.628],[76.941,28.6253],[76.9372,28.622],[76.9346,28.6184],[76.9266,28.6244],[76.9243,28.6281],[76.9206,28.6313],[76.9143,28.6323],[76.9101,28.6286],[76.9065,28.6238],[76.8929,28.6318],[76.8883,28.632],[76.8858,28.6296],[76.8824,28.6228],[76.8802,28.615],[76.8773,28.6088],[76.8718,28.6029],[76.8679,28.5906],[76.8631,28.5854],[76.8562,28.5855],[76.8461,28.5848],[76.8395,28.5828],[76.839,28.573],[76.8406,28.5696],[76.8424,28.5633],[76.8424,28.5563],[76.8477,28.5493],[76.8562,28.5472],[76.8618,28.5453],[76.8647,28.5435],[76.8678,28.5361],[76.8714,28.5331],[76.8746,28.527],[76.877,28.5244],[76.8829,28.5225],[76.8869,28.5199],[76.8894,28.5205],[76.8921,28.5285],[76.8959,28.5337],[76.9107,28.5279],[76.9134,28.5311],[76.9143,28.5341],[76.9106,28.541],[76.9098,28.5445],[76.904,28.5463],[76.9088,28.5576],[76.9211,28.5561],[76.9276,28.5522],[76.9308,28.5493],[76.9377,28.5577],[76.9352,28.5604],[76.9384,28.567],[76.9407,28.5685],[76.9375,28.5727],[76.9394,28.5803],[76.9397,28.5858],[76.944,28.5844],[76.9515,28.5884],[76.9542,28.5843],[76.953,28.5764],[76.9602,28.5751],[76.9675,28.5834],[76.9709,28.5888],[76.981,28.5966],[76.9849,28.5938],[76.9904,28.5972],[76.996,28.6037],[77.0033,28.6002],[77.0146,28.596],[77.0161,28.5998],[77.0122,28.6036],[77.0112,28.6061],[77.013,28.6092],[77.0178,28.6136],[77.0066,28.6167],[76.9999,28.6179],[76.9941,28.6197],[76.9916,28.6214],[76.998,28.628],[77.0016,28.6294],[77.0046,28.6252],[77.0069,28.628],[77.0049,28.6315],[77,28.6456],[76.9997,28.6496],[77.0021,28.6513],[76.996,28.6539],[76.9927,28.6563],[76.9931,28.6583],[76.9887,28.6608],[76.9797,28.6543],[76.9781,28.6567],[76.9705,28.6583],[76.9632,28.6611],[76.9538,28.6677]]]},"properties":{"id":"in:subdistrict:451","level":"subdistrict","name":"Najafgarh","code":451,"parent":"in:district:84","state":"in:state:7"}},{"type":"Feature","geometry":{"type":"Polygon","coordinates":[[[77.1241,28.8576],[77.1209,28.8583],[77.1164,28.8632],[77.1157,28.865],[77.1125,28.8665],[77.1098,28.8701],[77.0972,28.8708],[77.0938,28.8715],[77.0874,28.8756],[77.0881,28.8769],[77.0868,28.8809],[77.0822,28.8821],[77.0776,28.8772],[77.0792,28.872],[77.0744,28.8675],[77.0717,28.8689],[77.0692,28.8672],[77.0617,28.8708],[77.0581,28.8681],[77.0545,28.863],[77.051,28.8547],[77.0457,28.8475],[77.0451,28.8449],[77.0451,28.8409],[77.0418,28.8379],[77.0426,28.8343],[77.0402,28.8321],[77.0331,28.8354],[77.0281,28.8368],[77.0233,28.8394],[77.0074,28.8407],[77.0021,28.8394],[76.9993,28.8379],[76.9948,28.8395],[76.9872,28.8353],[76.9859,28.8294],[76.9828,28.8241],[76.9797,28.8212],[76.9767,28.8222],[76.9748,28.8253],[76.9723,28.8272],[76.967,28.8281],[76.9635,28.8223],[76.9649,28.8204],[76.9618,28.8149],[76.9661,28.8132],[76.9677,28.8113],[76.9668,28.8094],[76.9691,28.8072],[76.967,28.8032],[76.9678,28.7981],[76.9785,28.7924],[76.9825,28.7929],[76.9917,28.785],[77.0008,28.7838],[77.0134,28.7788],[77.0127,28.7758],[77.0132,28.7698],[77.0119,28.7628],[77.0143,28.7604],[77.0153,28.755],[77.021,28.7522],[77.0291,28.7501],[77.0348,28.7496],[77.0396,28.7481],[77.0475,28.7448],[77.0504,28.7431],[77.0553,28.743],[77.0596,28.7416],[77.0642,28.7379],[77.066,28.7381],[77.0754,28.7315],[77.0819,28.7281],[77.087,28.7353],[77.0835,28.7391],[77.0898,28.7476],[77.0938,28.7568],[77.0988,28.762],[77.1016,28.7667],[77.1073,28.7718],[77.1077,28.774],[77.1107,28.7782],[77.1139,28.7813],[77.1174,28.7816],[77.1206,28.7839],[77.1208,28.7883],[77.1197,28.7907],[77.1125,28.7946],[77.1172,28.7963],[77.1199,28.8016],[77.1181,28.8041],[77.1153,28.8035],[77.1123,28.8091],[77.1106,28.8149],[77.1179,28.8144],[77.1193,28.8169],[77.1188,28.8201],[77.1158,28.8227],[77.1179,28.8261],[77.1233,28.8261],[77.1267,28.8289],[77.1312,28.8343],[77.1224,28.8376],[77.1178,28.8416],[77.1209,28.844],[77.1234,28.8508],[77.1241,28.8576]]]},"properties":{"id":"in:subdistrict:430","level":"subdistrict","name":"Narela","code":430,"parent":"in:district:80","state":"in:state:7"}},{"type":"Feature","geometry":{"type":"Polygon","coordinates":[[[77.0506,28.5589],[77.0477,28.5587],[77.0453,28.5548],[77.0431,28.556],[77.0411,28.5539],[77.0382,28.5556],[77.0339,28.5493],[77.0322,28.5499],[77.0198,28.5481],[77.014,28.5504],[77.0159,28.5532],[77.0193,28.5555],[77.0205,28.5586],[77.0202,28.5645],[77.0247,28.5686],[77.0306,28.5714],[77.033,28.5735],[77.0311,28.5773],[77.0316,28.5792],[77.0219,28.5819],[77.0221,28.5838],[77.0181,28.586],[77.019,28.5915],[77.0164,28.5922],[77.011,28.5903],[77.0119,28.5941],[77.0146,28.596],[77.0033,28.6002],[76.996,28.6037],[76.9904,28.5972],[76.9849,28.5938],[76.981,28.5966],[76.9709,28.5888],[76.9675,28.5834],[76.9602,28.5751],[76.953,28.5764],[76.9542,28.5843],[76.9515,28.5884],[76.944,28.5844],[76.9397,28.5858],[76.9394,28.5803],[76.9375,28.5727],[76.9407,28.5685],[76.9384,28.567],[76.9352,28.5604],[76.9377,28.5577],[76.9308,28.5493],[76.9276,28.5522],[76.9211,28.5561],[76.9088,28.5576],[76.904,28.5463],[76.9098,28.5445],[76.9106,28.541],[76.9143,28.5341],[76.9134,28.5311],[76.9107,28.5279],[76.8959,28.5337],[76.8921,28.5285],[76.8894,28.5205],[76.8869,28.5199],[76.884,28.5137],[76.8815,28.5099],[76.8807,28.5055],[76.8857,28.5024],[76.8854,28.5011],[76.89,28.5009],[76.8922,28.5008],[76.8986,28.5087],[76.903,28.5089],[76.9079,28.5138],[76.9103,28.5121],[76.9144,28.5117],[76.919,28.5091],[76.9208,28.507],[76.9273,28.5105],[76.9335,28.5097],[76.9417,28.5045],[76.9517,28.5042],[76.956,28.5061],[76.9649,28.5126],[76.9707,28.5152],[76.9759,28.5187],[76.9781,28.5213],[76.9828,28.5171],[76.9907,28.5135],[76.9966,28.5197],[77.0102,28.5143],[77.0171,28.5208],[77.0145,28.524],[77.0106,28.5256],[77.0002,28.5321],[77.0019,28.5338],[77.0067,28.5414],[77.0154,28.5397],[77.018,28.5374],[77.0263,28.5324],[77.0318,28.5316],[77.0354,28.5289],[77.043,28.5247],[77.0485,28.5207],[77.0462,28.5167],[77.0498,28.516],[77.0589,28.5126],[77.0668,28.512],[77.0703,28.5162],[77.0718,28.5202],[77.075,28.5186],[77.0804,28.518],[77.0934,28.5139],[77.0985,28.511],[77.1036,28.5181],[77.0952,28.525],[77.087,28.5312],[77.0867,28.5353],[77.0889,28.5385],[77.0792,28.5406],[77.0713,28.5438],[77.0705,28.5482],[77.0612,28.5526],[77.0506,28.5589]]]},"properties":{"id":"in:subdistrict:6085","level":"subdistrict","name":"Kapeshera","code":6085,"parent":"in:district:84","state":"in:state:7"}},{"type":"Feature","geometry":{"type":"Polygon","coordinates":[[[77.2021,28.5808],[77.1892,28.5818],[77.1842,28.5833],[77.1815,28.5809],[77.1792,28.5811],[77.1681,28.5856],[77.1621,28.5897],[77.1603,28.588],[77.1495,28.584],[77.1436,28.5861],[77.1379,28.5849],[77.1366,28.5823],[77.1381,28.5778],[77.1428,28.5757],[77.1488,28.5769],[77.1554,28.5742],[77.1636,28.5724],[77.1595,28.5654],[77.1628,28.5634],[77.1647,28.5601],[77.163,28.5572],[77.1586,28.5591],[77.1508,28.5639],[77.1468,28.5642],[77.142,28.5534],[77.1355,28.5553],[77.1332,28.5549],[77.1273,28.5561],[77.1179,28.5567],[77.115,28.5578],[77.1102,28.5529],[77.0997,28.557],[77.0942,28.5611],[77.0912,28.5624],[77.0891,28.5614],[77.0862,28.5621],[77.0828,28.5596],[77.0848,28.5584],[77.0831,28.5543],[77.0815,28.5529],[77.0773,28.5526],[77.0744,28.5504],[77.0716,28.5502],[77.0705,28.5482],[77.0713,28.5438],[77.0792,28.5406],[77.0889,28.5385],[77.0867,28.5353],[77.087,28.5312],[77.0952,28.525],[77.1036,28.5181],[77.0985,28.511],[77.0959,28.5065],[77.101,28.5037],[77.117,28.4964],[77.1207,28.4959],[77.1186,28.4881],[77.1274,28.487],[77.1309,28.4877],[77.1371,28.4868],[77.1444,28.4839],[77.1451,28.4878],[77.1479,28.4927],[77.1493,28.4979],[77.149,28.4998],[77.1434,28.4975],[77.1409,28.5007],[77.1367,28.5043],[77.1294,28.5068],[77.1312,28.5179],[77.1336,28.5212],[77.1342,28.524],[77.1394,28.5234],[77.1452,28.5236],[77.1502,28.523],[77.1563,28.5213],[77.1595,28.5255],[77.164,28.5264],[77.1689,28.5327],[77.1742,28.5359],[77.1701,28.5404],[77.1621,28.5442],[77.1696,28.548],[77.1762,28.548],[77.1811,28.5487],[77.1837,28.555],[77.1813,28.5586],[77.1834,28.561],[77.1878,28.5629],[77.1918,28.5623],[77.1934,28.5651],[77.1986,28.5692],[77.2009,28.5624],[77.2042,28.5636],[77.2059,28.5621],[77.206,28.5657],[77.2087,28.5763],[77.2102,28.5802],[77.2021,28.5808]]]},"properties":{"id":"in:subdistrict:453","level":"subdistrict","name":"Vasant Vihar","code":453,"parent":"in:district:79","state":"in:state:7"}},{"type":"Feature","geometry":{"type":"Polygon","coordinates":[[[77.2139,28.4108],[77.2139,28.4125],[77.2071,28.4129],[77.2015,28.4142],[77.198,28.4159],[77.1929,28.4194],[77.189,28.424],[77.1916,28.4351],[77.1881,28.438],[77.1852,28.4391],[77.1839,28.4418],[77.1795,28.4434],[77.1805,28.4481],[77.1838,28.4549],[77.1809,28.4557],[77.1811,28.459],[77.184,28.4642],[77.1861,28.4639],[77.187,28.4722],[77.1708,28.4747],[77.163,28.4766],[77.1655,28.4821],[77.1609,28.4844],[77.1647,28.4931],[77.1719,28.5027],[77.1785,28.5091],[77.1825,28.523],[77.1874,28.5222],[77.1885,28.5273],[77.1836,28.5291],[77.1825,28.5332],[77.1867,28.5353],[77.1887,28.5393],[77.194,28.5426],[77.1983,28.546],[77.2002,28.5498],[77.1977,28.5508],[77.1952,28.5481],[77.1881,28.5468],[77.186,28.5481],[77.1811,28.5487],[77.1762,28.548],[77.1696,28.548],[77.1621,28.5442],[77.1701,28.5404],[77.1742,28.5359],[77.1689,28.5327],[77.164,28.5264],[77.1595,28.5255],[77.1563,28.5213],[77.1502,28.523],[77.1452,28.5236],[77.1394,28.5234],[77.1342,28.524],[77.1336,28.5212],[77.1312,28.5179],[77.1294,28.5068],[77.1367,28.5043],[77.1409,28.5007],[77.1434,28.4975],[77.149,28.4998],[77.1493,28.4979],[77.1479,28.4927],[77.1451,28.4878],[77.1444,28.4839],[77.1371,28.4868],[77.1309,28.4877],[77.1274,28.487],[77.1186,28.4881],[77.1147,28.481],[77.113,28.4712],[77.1108,28.4713],[77.1168,28.4628],[77.1218,28.4585],[77.1238,28.4453],[77.1289,28.4407],[77.1323,28.4391],[77.1411,28.4367],[77.1483,28.4374],[77.1551,28.4321],[77.1623,28.4289],[77.1659,28.4257],[77.165,28.4178],[77.1652,28.4142],[77.1681,28.4126],[77.1711,28.4092],[77.1714,28.4063],[77.1745,28.4047],[77.1779,28.4077],[77.1844,28.4104],[77.1905,28.4072],[77.1938,28.4084],[77.2,28.4082],[77.2071,28.4098],[77.2139,28.4108]]]},"properties":{"id":"in:subdistrict:6080","level":"subdistrict","name":"Mehrauli","code":6080,"parent":"in:district:83","state":"in:state:7"}},{"type":"Feature","geometry":{"type":"Polygon","coordinates":[[[77.2481,28.4807],[77.2497,28.4857],[77.2492,28.4908],[77.2474,28.494],[77.2455,28.4951],[77.2428,28.4988],[77.2419,28.5056],[77.2422,28.508],[77.245,28.5143],[77.244,28.5171],[77.2425,28.5181],[77.2394,28.5159],[77.235,28.5154],[77.2348,28.507],[77.2318,28.5049],[77.2248,28.502],[77.2225,28.5021],[77.221,28.5056],[77.2181,28.5084],[77.2129,28.5097],[77.2131,28.5119],[77.2092,28.5143],[77.2078,28.5196],[77.2015,28.5208],[77.2029,28.5265],[77.2029,28.5297],[77.199,28.5327],[77.1981,28.5306],[77.194,28.5316],[77.1867,28.5353],[77.1825,28.5332],[77.1836,28.5291],[77.1885,28.5273],[77.1874,28.5222],[77.1825,28.523],[77.1785,28.5091],[77.1719,28.5027],[77.1647,28.4931],[77.1609,28.4844],[77.1655,28.4821],[77.163,28.4766],[77.1708,28.4747],[77.187,28.4722],[77.1861,28.4639],[77.184,28.4642],[77.1811,28.459],[77.1809,28.4557],[77.1838,28.4549],[77.1805,28.4481],[77.1795,28.4434],[77.1839,28.4418],[77.1852,28.4391],[77.1881,28.438],[77.1916,28.4351],[77.189,28.424],[77.1929,28.4194],[77.198,28.4159],[77.2015,28.4142],[77.2071,28.4129],[77.2139,28.4125],[77.2139,28.4108],[77.2183,28.4109],[77.222,28.4124],[77.2285,28.4139],[77.2384,28.4208],[77.2495,28.4245],[77.2526,28.4329],[77.2491,28.4329],[77.2499,28.4379],[77.2489,28.447],[77.2458,28.4542],[77.2418,28.4562],[77.2344,28.4547],[77.2329,28.4581],[77.2356,28.4711],[77.2433,28.4788],[77.2481,28.4807]]]},"properties":{"id":"in:subdistrict:6079","level":"subdistrict","name":"Saket","code":6079,"parent":"in:district:83","state":"in:state:7"}},{"type":"Feature","geometry":{"type":"MultiPolygon","coordinates":[[[[77.2311,28.5591],[77.2309,28.5564],[77.2377,28.5545],[77.2468,28.5535],[77.2459,28.5563],[77.2467,28.5589],[77.2374,28.5577],[77.2311,28.5591]]],[[[77.2059,28.5621],[77.2042,28.5636],[77.2009,28.5624],[77.1986,28.5692],[77.1934,28.5651],[77.1918,28.5623],[77.1878,28.5629],[77.1834,28.561],[77.1813,28.5586],[77.1837,28.555],[77.1811,28.5487],[77.186,28.5481],[77.1881,28.5468],[77.1952,28.5481],[77.1977,28.5508],[77.2002,28.5498],[77.1983,28.546],[77.194,28.5426],[77.1887,28.5393],[77.1867,28.5353],[77.194,28.5316],[77.1981,28.5306],[77.199,28.5327],[77.2029,28.5297],[77.2029,28.5265],[77.2015,28.5208],[77.2078,28.5196],[77.2092,28.5143],[77.2131,28.5119],[77.2129,28.5097],[77.2181,28.5084],[77.221,28.5056],[77.2225,28.5021],[77.2248,28.502],[77.2318,28.5049],[77.2348,28.507],[77.235,28.5154],[77.2394,28.5159],[77.2425,28.5181],[77.244,28.5171],[77.2442,28.5235],[77.2461,28.5276],[77.2367,28.5336],[77.2351,28.5342],[77.2341,28.5473],[77.2312,28.549],[77.2315,28.5532],[77.2266,28.554],[77.2242,28.5561],[77.2229,28.5613],[77.2177,28.5632],[77.2163,28.5659],[77.2116,28.563],[77.2091,28.559],[77.2059,28.5621]]]]},"properties":{"id":"in:subdistrict:454","level":"subdistrict","name":"Hauz Khas","code":454,"parent":"in:district:83","state":"in:state:7"}},{"type":"Feature","geometry":{"type":"Polygon","coordinates":[[[77.3007,28.494],[77.3008,28.4975],[77.2993,28.4979],[77.2951,28.5054],[77.2889,28.5075],[77.285,28.5133],[77.2871,28.5158],[77.2936,28.5197],[77.2922,28.5221],[77.2861,28.5249],[77.2807,28.5281],[77.2774,28.5311],[77.2767,28.5328],[77.2705,28.5372],[77.2715,28.5413],[77.2742,28.5484],[77.28,28.5523],[77.2788,28.5548],[77.2742,28.5606],[77.2701,28.5641],[77.2665,28.5663],[77.2623,28.5633],[77.2553,28.5597],[77.2489,28.5521],[77.2468,28.5535],[77.2377,28.5545],[77.2309,28.5564],[77.2311,28.5591],[77.2263,28.5603],[77.2242,28.5561],[77.2266,28.554],[77.2315,28.5532],[77.2312,28.549],[77.2341,28.5473],[77.2351,28.5342],[77.2367,28.5336],[77.2461,28.5276],[77.2442,28.5235],[77.244,28.5171],[77.245,28.5143],[77.2422,28.508],[77.2419,28.5056],[77.2428,28.4988],[77.2455,28.4951],[77.2474,28.494],[77.2492,28.4908],[77.2497,28.4857],[77.2481,28.4807],[77.2497,28.4808],[77.262,28.485],[77.2695,28.4866],[77.2721,28.4908],[77.2765,28.4933],[77.283,28.4945],[77.2903,28.4965],[77.2953,28.4959],[77.3007,28.494]]]},"properties":{"id":"in:subdistrict:456","level":"subdistrict","name":"Kalkaji","code":456,"parent":"in:district:670","state":"in:state:7"}},{"type":"Feature","geometry":{"type":"Polygon","coordinates":[[[77.303,28.5542],[77.2958,28.553],[77.2888,28.5534],[77.2857,28.5553],[77.2801,28.5555],[77.2788,28.5548],[77.28,28.5523],[77.2742,28.5484],[77.2715,28.5413],[77.2705,28.5372],[77.2767,28.5328],[77.2804,28.5331],[77.286,28.5361],[77.2916,28.5359],[77.296,28.5309],[77.3003,28.5294],[77.3016,28.5268],[77.2993,28.5236],[77.2936,28.5197],[77.2871,28.5158],[77.285,28.5133],[77.2889,28.5075],[77.2951,28.5054],[77.2993,28.4979],[77.3008,28.4975],[77.3007,28.494],[77.3008,28.4899],[77.3065,28.4894],[77.3141,28.4836],[77.3168,28.4865],[77.3268,28.4901],[77.3301,28.4956],[77.3353,28.5022],[77.3361,28.5052],[77.3454,28.5132],[77.3474,28.5184],[77.3466,28.521],[77.3376,28.5231],[77.334,28.5254],[77.3302,28.5323],[77.3255,28.5343],[77.3223,28.5378],[77.3209,28.5409],[77.3131,28.5459],[77.3038,28.5524],[77.303,28.5542]]]},"properties":{"id":"in:subdistrict:6081","level":"subdistrict","name":"Sarita Vihar","code":6081,"parent":"in:district:670","state":"in:state:7"}}]}